<?xml version="1.0" encoding="UTF-8"?>
<gpx version="1.1" creator="caminho-in-october (OpenStreetMap data, ODbL)" xmlns="http://www.topografix.com/GPX/1/1">
<metadata><name>Caminho Portugues da Costa - stage 3</name><copyright author="OpenStreetMap contributors"><license>https://www.openstreetmap.org/copyright</license></copyright></metadata>
<trk><name>stage 3</name><trkseg>
<trkpt lat="41.524405" lon="-8.776202"><ele>3.0</ele></trkpt>
<trkpt lat="41.524684" lon="-8.776339"><ele>2.8</ele></trkpt>
<trkpt lat="41.52483" lon="-8.776512"><ele>2.5</ele></trkpt>
<trkpt lat="41.525022" lon="-8.77665"><ele>2.3</ele></trkpt>
<trkpt lat="41.525186" lon="-8.776808"><ele>2.2</ele></trkpt>
<trkpt lat="41.525274" lon="-8.776919"><ele>2.1</ele></trkpt>
<trkpt lat="41.525333" lon="-8.77699"><ele>2.0</ele></trkpt>
<trkpt lat="41.5254" lon="-8.777079"><ele>2.0</ele></trkpt>
<trkpt lat="41.525623" lon="-8.777359"><ele>2.1</ele></trkpt>
<trkpt lat="41.525719" lon="-8.77748"><ele>2.4</ele></trkpt>
<trkpt lat="41.525803" lon="-8.777417"><ele>2.4</ele></trkpt>
<trkpt lat="41.525863" lon="-8.777494"><ele>2.5</ele></trkpt>
<trkpt lat="41.525958" lon="-8.777366"><ele>2.5</ele></trkpt>
<trkpt lat="41.526147" lon="-8.777115"><ele>2.6</ele></trkpt>
<trkpt lat="41.526741" lon="-8.777523"><ele>5.8</ele></trkpt>
<trkpt lat="41.526814" lon="-8.777507"><ele>5.8</ele></trkpt>
<trkpt lat="41.527102" lon="-8.777719"><ele>5.7</ele></trkpt>
<trkpt lat="41.527166" lon="-8.777766"><ele>5.7</ele></trkpt>
<trkpt lat="41.527342" lon="-8.777896"><ele>5.8</ele></trkpt>
<trkpt lat="41.527503" lon="-8.778015"><ele>5.8</ele></trkpt>
<trkpt lat="41.528092" lon="-8.778437"><ele>5.0</ele></trkpt>
<trkpt lat="41.528116" lon="-8.778454"><ele>5.0</ele></trkpt>
<trkpt lat="41.528529" lon="-8.778755"><ele>5.0</ele></trkpt>
<trkpt lat="41.52895" lon="-8.779058"><ele>5.0</ele></trkpt>
<trkpt lat="41.52961" lon="-8.779581"><ele>4.5</ele></trkpt>
<trkpt lat="41.530013" lon="-8.779712"><ele>5.0</ele></trkpt>
<trkpt lat="41.53038" lon="-8.779837"><ele>5.7</ele></trkpt>
<trkpt lat="41.53081" lon="-8.780103"><ele>6.5</ele></trkpt>
<trkpt lat="41.531083" lon="-8.780271"><ele>6.7</ele></trkpt>
<trkpt lat="41.531271" lon="-8.780381"><ele>7.2</ele></trkpt>
<trkpt lat="41.531612" lon="-8.780576"><ele>7.7</ele></trkpt>
<trkpt lat="41.531641" lon="-8.780594"><ele>7.5</ele></trkpt>
<trkpt lat="41.532099" lon="-8.780903"><ele>6.8</ele></trkpt>
<trkpt lat="41.532221" lon="-8.780968"><ele>6.3</ele></trkpt>
<trkpt lat="41.532431" lon="-8.781079"><ele>6.0</ele></trkpt>
<trkpt lat="41.532766" lon="-8.781184"><ele>5.6</ele></trkpt>
<trkpt lat="41.532712" lon="-8.781378"><ele>5.6</ele></trkpt>
<trkpt lat="41.532756" lon="-8.781392"><ele>5.6</ele></trkpt>
<trkpt lat="41.532868" lon="-8.781426"><ele>5.4</ele></trkpt>
<trkpt lat="41.532978" lon="-8.781459"><ele>5.4</ele></trkpt>
<trkpt lat="41.533213" lon="-8.781465"><ele>5.4</ele></trkpt>
<trkpt lat="41.533332" lon="-8.781441"><ele>5.3</ele></trkpt>
<trkpt lat="41.53336" lon="-8.781436"><ele>5.3</ele></trkpt>
<trkpt lat="41.533438" lon="-8.78142"><ele>5.2</ele></trkpt>
<trkpt lat="41.533567" lon="-8.781455"><ele>5.2</ele></trkpt>
<trkpt lat="41.533989" lon="-8.781493"><ele>5.5</ele></trkpt>
<trkpt lat="41.535074" lon="-8.781582"><ele>6.0</ele></trkpt>
<trkpt lat="41.535722" lon="-8.781631"><ele>7.0</ele></trkpt>
<trkpt lat="41.535884" lon="-8.781643"><ele>7.0</ele></trkpt>
<trkpt lat="41.536316" lon="-8.781676"><ele>6.4</ele></trkpt>
<trkpt lat="41.536429" lon="-8.781684"><ele>6.3</ele></trkpt>
<trkpt lat="41.536612" lon="-8.781701"><ele>6.3</ele></trkpt>
<trkpt lat="41.536702" lon="-8.781712"><ele>6.3</ele></trkpt>
<trkpt lat="41.536782" lon="-8.781722"><ele>6.3</ele></trkpt>
<trkpt lat="41.536778" lon="-8.781835"><ele>6.3</ele></trkpt>
<trkpt lat="41.53676" lon="-8.782247"><ele>6.1</ele></trkpt>
<trkpt lat="41.536741" lon="-8.782699"><ele>6.0</ele></trkpt>
<trkpt lat="41.536722" lon="-8.783146"><ele>5.7</ele></trkpt>
<trkpt lat="41.536703" lon="-8.783594"><ele>5.2</ele></trkpt>
<trkpt lat="41.536684" lon="-8.784047"><ele>4.8</ele></trkpt>
<trkpt lat="41.536683" lon="-8.784079"><ele>4.8</ele></trkpt>
<trkpt lat="41.536658" lon="-8.78454"><ele>2.6</ele></trkpt>
<trkpt lat="41.53664" lon="-8.784975"><ele>1.1</ele></trkpt>
<trkpt lat="41.536636" lon="-8.785088"><ele>1.1</ele></trkpt>
<trkpt lat="41.536717" lon="-8.785124"><ele>1.1</ele></trkpt>
<trkpt lat="41.53669" lon="-8.785223"><ele>1.1</ele></trkpt>
<trkpt lat="41.536675" lon="-8.785279"><ele>0.7</ele></trkpt>
<trkpt lat="41.536801" lon="-8.785331"><ele>0.6</ele></trkpt>
<trkpt lat="41.537274" lon="-8.785543"><ele>0.0</ele></trkpt>
<trkpt lat="41.538024" lon="-8.785882"><ele>0.0</ele></trkpt>
<trkpt lat="41.538125" lon="-8.785928"><ele>0.0</ele></trkpt>
<trkpt lat="41.538779" lon="-8.786221"><ele>0.0</ele></trkpt>
<trkpt lat="41.539035" lon="-8.786337"><ele>0.6</ele></trkpt>
<trkpt lat="41.539301" lon="-8.786453"><ele>1.2</ele></trkpt>
<trkpt lat="41.539388" lon="-8.786529"><ele>1.2</ele></trkpt>
<trkpt lat="41.539425" lon="-8.786561"><ele>1.2</ele></trkpt>
<trkpt lat="41.5396" lon="-8.786837"><ele>1.3</ele></trkpt>
<trkpt lat="41.539667" lon="-8.786925"><ele>1.3</ele></trkpt>
<trkpt lat="41.539869" lon="-8.787138"><ele>1.3</ele></trkpt>
<trkpt lat="41.540048" lon="-8.787262"><ele>1.2</ele></trkpt>
<trkpt lat="41.540244" lon="-8.787334"><ele>1.0</ele></trkpt>
<trkpt lat="41.540379" lon="-8.787359"><ele>1.0</ele></trkpt>
<trkpt lat="41.540569" lon="-8.787364"><ele>1.1</ele></trkpt>
<trkpt lat="41.540725" lon="-8.787384"><ele>1.1</ele></trkpt>
<trkpt lat="41.540884" lon="-8.787434"><ele>1.2</ele></trkpt>
<trkpt lat="41.540895" lon="-8.787438"><ele>1.2</ele></trkpt>
<trkpt lat="41.541048" lon="-8.787507"><ele>1.2</ele></trkpt>
<trkpt lat="41.541547" lon="-8.787925"><ele>2.0</ele></trkpt>
<trkpt lat="41.542661" lon="-8.788853"><ele>2.0</ele></trkpt>
<trkpt lat="41.542897" lon="-8.789054"><ele>2.0</ele></trkpt>
<trkpt lat="41.543068" lon="-8.789163"><ele>2.0</ele></trkpt>
<trkpt lat="41.54308" lon="-8.789138"><ele>2.0</ele></trkpt>
<trkpt lat="41.543339" lon="-8.789352"><ele>2.4</ele></trkpt>
<trkpt lat="41.543627" lon="-8.789594"><ele>3.5</ele></trkpt>
<trkpt lat="41.544031" lon="-8.789935"><ele>4.4</ele></trkpt>
<trkpt lat="41.544074" lon="-8.789976"><ele>4.4</ele></trkpt>
<trkpt lat="41.544095" lon="-8.790018"><ele>4.5</ele></trkpt>
<trkpt lat="41.544104" lon="-8.790055"><ele>4.5</ele></trkpt>
<trkpt lat="41.544108" lon="-8.790086"><ele>4.5</ele></trkpt>
<trkpt lat="41.544131" lon="-8.790112"><ele>4.5</ele></trkpt>
<trkpt lat="41.544189" lon="-8.790152"><ele>4.5</ele></trkpt>
<trkpt lat="41.544227" lon="-8.790169"><ele>4.5</ele></trkpt>
<trkpt lat="41.544241" lon="-8.79017"><ele>4.5</ele></trkpt>
<trkpt lat="41.544304" lon="-8.79016"><ele>4.5</ele></trkpt>
<trkpt lat="41.544356" lon="-8.790193"><ele>4.5</ele></trkpt>
<trkpt lat="41.544708" lon="-8.790493"><ele>5.3</ele></trkpt>
<trkpt lat="41.545125" lon="-8.790831"><ele>5.8</ele></trkpt>
<trkpt lat="41.545216" lon="-8.790904"><ele>5.8</ele></trkpt>
<trkpt lat="41.545276" lon="-8.79094"><ele>5.8</ele></trkpt>
<trkpt lat="41.545352" lon="-8.790978"><ele>5.7</ele></trkpt>
<trkpt lat="41.545517" lon="-8.79104"><ele>5.7</ele></trkpt>
<trkpt lat="41.545662" lon="-8.791078"><ele>5.5</ele></trkpt>
<trkpt lat="41.545856" lon="-8.791108"><ele>5.4</ele></trkpt>
<trkpt lat="41.545961" lon="-8.79111"><ele>5.3</ele></trkpt>
<trkpt lat="41.546031" lon="-8.791109"><ele>5.4</ele></trkpt>
<trkpt lat="41.546283" lon="-8.791094"><ele>5.6</ele></trkpt>
<trkpt lat="41.546556" lon="-8.790997"><ele>6.0</ele></trkpt>
<trkpt lat="41.547301" lon="-8.790684"><ele>5.6</ele></trkpt>
<trkpt lat="41.547539" lon="-8.79059"><ele>5.7</ele></trkpt>
<trkpt lat="41.547656" lon="-8.790537"><ele>5.7</ele></trkpt>
<trkpt lat="41.547667" lon="-8.79046"><ele>5.7</ele></trkpt>
<trkpt lat="41.547679" lon="-8.790347"><ele>5.7</ele></trkpt>
<trkpt lat="41.547715" lon="-8.790216"><ele>5.8</ele></trkpt>
<trkpt lat="41.547891" lon="-8.788692"><ele>8.3</ele></trkpt>
<trkpt lat="41.547907" lon="-8.788553"><ele>8.3</ele></trkpt>
<trkpt lat="41.547924" lon="-8.788414"><ele>8.3</ele></trkpt>
<trkpt lat="41.54819" lon="-8.786244"><ele>9.0</ele></trkpt>
<trkpt lat="41.548347" lon="-8.784844"><ele>8.0</ele></trkpt>
<trkpt lat="41.548648" lon="-8.784956"><ele>7.8</ele></trkpt>
<trkpt lat="41.548899" lon="-8.785061"><ele>7.6</ele></trkpt>
<trkpt lat="41.548969" lon="-8.785075"><ele>7.6</ele></trkpt>
<trkpt lat="41.549052" lon="-8.785069"><ele>7.6</ele></trkpt>
<trkpt lat="41.549144" lon="-8.785036"><ele>7.6</ele></trkpt>
<trkpt lat="41.549273" lon="-8.784973"><ele>7.6</ele></trkpt>
<trkpt lat="41.549325" lon="-8.784964"><ele>7.6</ele></trkpt>
<trkpt lat="41.549494" lon="-8.784986"><ele>7.6</ele></trkpt>
<trkpt lat="41.550017" lon="-8.785099"><ele>9.2</ele></trkpt>
<trkpt lat="41.550366" lon="-8.785128"><ele>12.1</ele></trkpt>
<trkpt lat="41.55047" lon="-8.785151"><ele>12.6</ele></trkpt>
<trkpt lat="41.550559" lon="-8.785179"><ele>13.5</ele></trkpt>
<trkpt lat="41.550639" lon="-8.785234"><ele>13.6</ele></trkpt>
<trkpt lat="41.550712" lon="-8.785329"><ele>13.4</ele></trkpt>
<trkpt lat="41.5508" lon="-8.785444"><ele>13.1</ele></trkpt>
<trkpt lat="41.550872" lon="-8.785586"><ele>13.4</ele></trkpt>
<trkpt lat="41.550921" lon="-8.785704"><ele>13.7</ele></trkpt>
<trkpt lat="41.550969" lon="-8.78579"><ele>13.0</ele></trkpt>
<trkpt lat="41.551043" lon="-8.785871"><ele>13.0</ele></trkpt>
<trkpt lat="41.551145" lon="-8.785943"><ele>12.7</ele></trkpt>
<trkpt lat="41.551426" lon="-8.786077"><ele>8.3</ele></trkpt>
<trkpt lat="41.551673" lon="-8.7862"><ele>4.8</ele></trkpt>
<trkpt lat="41.551755" lon="-8.786248"><ele>4.8</ele></trkpt>
<trkpt lat="41.551962" lon="-8.786387"><ele>4.8</ele></trkpt>
<trkpt lat="41.552271" lon="-8.786596"><ele>6.2</ele></trkpt>
<trkpt lat="41.552491" lon="-8.786733"><ele>6.6</ele></trkpt>
<trkpt lat="41.552741" lon="-8.786874"><ele>6.6</ele></trkpt>
<trkpt lat="41.552891" lon="-8.786948"><ele>6.6</ele></trkpt>
<trkpt lat="41.552971" lon="-8.786959"><ele>6.6</ele></trkpt>
<trkpt lat="41.553307" lon="-8.787122"><ele>6.8</ele></trkpt>
<trkpt lat="41.55366" lon="-8.787329"><ele>7.0</ele></trkpt>
<trkpt lat="41.554282" lon="-8.787719"><ele>9.0</ele></trkpt>
<trkpt lat="41.554467" lon="-8.787814"><ele>9.0</ele></trkpt>
<trkpt lat="41.554637" lon="-8.787894"><ele>9.1</ele></trkpt>
<trkpt lat="41.554685" lon="-8.787891"><ele>9.1</ele></trkpt>
<trkpt lat="41.554989" lon="-8.788006"><ele>9.2</ele></trkpt>
<trkpt lat="41.55506" lon="-8.788039"><ele>9.2</ele></trkpt>
<trkpt lat="41.555146" lon="-8.787705"><ele>9.3</ele></trkpt>
<trkpt lat="41.555279" lon="-8.787197"><ele>9.5</ele></trkpt>
<trkpt lat="41.555389" lon="-8.786828"><ele>9.3</ele></trkpt>
<trkpt lat="41.555469" lon="-8.786627"><ele>9.3</ele></trkpt>
<trkpt lat="41.555527" lon="-8.786488"><ele>9.4</ele></trkpt>
<trkpt lat="41.555593" lon="-8.786324"><ele>9.6</ele></trkpt>
<trkpt lat="41.55564" lon="-8.786235"><ele>9.7</ele></trkpt>
<trkpt lat="41.555779" lon="-8.785997"><ele>10.1</ele></trkpt>
<trkpt lat="41.555809" lon="-8.785912"><ele>10.2</ele></trkpt>
<trkpt lat="41.555826" lon="-8.78582"><ele>10.4</ele></trkpt>
<trkpt lat="41.555838" lon="-8.785696"><ele>10.4</ele></trkpt>
<trkpt lat="41.555838" lon="-8.785594"><ele>10.5</ele></trkpt>
<trkpt lat="41.555842" lon="-8.785461"><ele>10.6</ele></trkpt>
<trkpt lat="41.555852" lon="-8.785342"><ele>10.6</ele></trkpt>
<trkpt lat="41.55587" lon="-8.785246"><ele>10.7</ele></trkpt>
<trkpt lat="41.555922" lon="-8.785111"><ele>10.8</ele></trkpt>
<trkpt lat="41.555991" lon="-8.784953"><ele>11.0</ele></trkpt>
<trkpt lat="41.556137" lon="-8.784593"><ele>11.2</ele></trkpt>
<trkpt lat="41.556178" lon="-8.784463"><ele>11.2</ele></trkpt>
<trkpt lat="41.556207" lon="-8.784345"><ele>11.3</ele></trkpt>
<trkpt lat="41.556257" lon="-8.784019"><ele>11.4</ele></trkpt>
<trkpt lat="41.556304" lon="-8.783698"><ele>12.2</ele></trkpt>
<trkpt lat="41.556368" lon="-8.783249"><ele>13.3</ele></trkpt>
<trkpt lat="41.55641" lon="-8.783075"><ele>13.8</ele></trkpt>
<trkpt lat="41.556471" lon="-8.782858"><ele>14.0</ele></trkpt>
<trkpt lat="41.556529" lon="-8.782686"><ele>14.0</ele></trkpt>
<trkpt lat="41.556557" lon="-8.782612"><ele>14.2</ele></trkpt>
<trkpt lat="41.5566" lon="-8.782518"><ele>14.4</ele></trkpt>
<trkpt lat="41.556647" lon="-8.782458"><ele>14.4</ele></trkpt>
<trkpt lat="41.556785" lon="-8.782003"><ele>15.4</ele></trkpt>
<trkpt lat="41.556874" lon="-8.78174"><ele>16.8</ele></trkpt>
<trkpt lat="41.55708" lon="-8.781198"><ele>17.2</ele></trkpt>
<trkpt lat="41.557124" lon="-8.781118"><ele>17.2</ele></trkpt>
<trkpt lat="41.557267" lon="-8.781088"><ele>17.2</ele></trkpt>
<trkpt lat="41.557357" lon="-8.781179"><ele>17.3</ele></trkpt>
<trkpt lat="41.557399" lon="-8.781223"><ele>17.5</ele></trkpt>
<trkpt lat="41.557757" lon="-8.781563"><ele>18.0</ele></trkpt>
<trkpt lat="41.557817" lon="-8.78162"><ele>18.5</ele></trkpt>
<trkpt lat="41.557839" lon="-8.781639"><ele>18.5</ele></trkpt>
<trkpt lat="41.558033" lon="-8.78181"><ele>18.6</ele></trkpt>
<trkpt lat="41.558278" lon="-8.781994"><ele>18.8</ele></trkpt>
<trkpt lat="41.558668" lon="-8.782291"><ele>19.2</ele></trkpt>
<trkpt lat="41.558713" lon="-8.782326"><ele>18.9</ele></trkpt>
<trkpt lat="41.559088" lon="-8.782612"><ele>18.7</ele></trkpt>
<trkpt lat="41.559154" lon="-8.782657"><ele>18.7</ele></trkpt>
<trkpt lat="41.559182" lon="-8.782644"><ele>18.7</ele></trkpt>
<trkpt lat="41.559203" lon="-8.782613"><ele>18.7</ele></trkpt>
<trkpt lat="41.55928" lon="-8.782366"><ele>18.7</ele></trkpt>
<trkpt lat="41.559389" lon="-8.782012"><ele>18.6</ele></trkpt>
<trkpt lat="41.559436" lon="-8.781882"><ele>18.7</ele></trkpt>
<trkpt lat="41.559463" lon="-8.781818"><ele>18.7</ele></trkpt>
<trkpt lat="41.559498" lon="-8.781764"><ele>18.7</ele></trkpt>
<trkpt lat="41.559635" lon="-8.781613"><ele>18.6</ele></trkpt>
<trkpt lat="41.560155" lon="-8.78103"><ele>19.7</ele></trkpt>
<trkpt lat="41.560248" lon="-8.780927"><ele>20.0</ele></trkpt>
<trkpt lat="41.560336" lon="-8.780828"><ele>20.0</ele></trkpt>
<trkpt lat="41.560406" lon="-8.780746"><ele>20.0</ele></trkpt>
<trkpt lat="41.560446" lon="-8.780691"><ele>20.0</ele></trkpt>
<trkpt lat="41.560502" lon="-8.78061"><ele>20.0</ele></trkpt>
<trkpt lat="41.560561" lon="-8.780518"><ele>20.1</ele></trkpt>
<trkpt lat="41.560609" lon="-8.780431"><ele>20.1</ele></trkpt>
<trkpt lat="41.56105" lon="-8.779615"><ele>30.3</ele></trkpt>
<trkpt lat="41.5611" lon="-8.77952"><ele>30.3</ele></trkpt>
<trkpt lat="41.561355" lon="-8.779055"><ele>32.2</ele></trkpt>
<trkpt lat="41.561514" lon="-8.778668"><ele>34.8</ele></trkpt>
<trkpt lat="41.561566" lon="-8.778656"><ele>34.8</ele></trkpt>
<trkpt lat="41.561947" lon="-8.778834"><ele>35.4</ele></trkpt>
<trkpt lat="41.562079" lon="-8.778887"><ele>35.7</ele></trkpt>
<trkpt lat="41.562396" lon="-8.779005"><ele>35.4</ele></trkpt>
<trkpt lat="41.5627" lon="-8.779125"><ele>35.4</ele></trkpt>
<trkpt lat="41.562836" lon="-8.779193"><ele>36.0</ele></trkpt>
<trkpt lat="41.563046" lon="-8.779289"><ele>36.2</ele></trkpt>
<trkpt lat="41.563188" lon="-8.779377"><ele>36.2</ele></trkpt>
<trkpt lat="41.563233" lon="-8.779412"><ele>36.5</ele></trkpt>
<trkpt lat="41.56329" lon="-8.779474"><ele>36.5</ele></trkpt>
<trkpt lat="41.563312" lon="-8.779501"><ele>36.5</ele></trkpt>
<trkpt lat="41.563451" lon="-8.779632"><ele>36.7</ele></trkpt>
<trkpt lat="41.563639" lon="-8.779805"><ele>37.0</ele></trkpt>
<trkpt lat="41.563907" lon="-8.780053"><ele>36.8</ele></trkpt>
<trkpt lat="41.564011" lon="-8.780057"><ele>36.8</ele></trkpt>
<trkpt lat="41.564335" lon="-8.78012"><ele>37.2</ele></trkpt>
<trkpt lat="41.564422" lon="-8.780139"><ele>37.2</ele></trkpt>
<trkpt lat="41.564477" lon="-8.780152"><ele>37.3</ele></trkpt>
<trkpt lat="41.564556" lon="-8.780183"><ele>37.7</ele></trkpt>
<trkpt lat="41.564637" lon="-8.780192"><ele>37.7</ele></trkpt>
<trkpt lat="41.564797" lon="-8.780187"><ele>37.7</ele></trkpt>
<trkpt lat="41.565089" lon="-8.780143"><ele>39.6</ele></trkpt>
<trkpt lat="41.565354" lon="-8.78014"><ele>40.8</ele></trkpt>
<trkpt lat="41.565512" lon="-8.780143"><ele>40.8</ele></trkpt>
<trkpt lat="41.565595" lon="-8.78014"><ele>40.8</ele></trkpt>
<trkpt lat="41.565732" lon="-8.780129"><ele>41.0</ele></trkpt>
<trkpt lat="41.565903" lon="-8.780115"><ele>41.2</ele></trkpt>
<trkpt lat="41.566401" lon="-8.78008"><ele>41.3</ele></trkpt>
<trkpt lat="41.566604" lon="-8.780069"><ele>41.2</ele></trkpt>
<trkpt lat="41.56667" lon="-8.780061"><ele>41.2</ele></trkpt>
<trkpt lat="41.566786" lon="-8.780035"><ele>41.0</ele></trkpt>
<trkpt lat="41.566915" lon="-8.779975"><ele>40.9</ele></trkpt>
<trkpt lat="41.567" lon="-8.779908"><ele>40.8</ele></trkpt>
<trkpt lat="41.567069" lon="-8.779846"><ele>40.8</ele></trkpt>
<trkpt lat="41.567104" lon="-8.77982"><ele>40.8</ele></trkpt>
<trkpt lat="41.567147" lon="-8.77982"><ele>40.7</ele></trkpt>
<trkpt lat="41.567245" lon="-8.779821"><ele>40.6</ele></trkpt>
<trkpt lat="41.567264" lon="-8.77982"><ele>40.6</ele></trkpt>
<trkpt lat="41.567358" lon="-8.779824"><ele>40.7</ele></trkpt>
<trkpt lat="41.567543" lon="-8.779825"><ele>40.8</ele></trkpt>
<trkpt lat="41.56781" lon="-8.779854"><ele>42.2</ele></trkpt>
<trkpt lat="41.568225" lon="-8.779927"><ele>45.5</ele></trkpt>
<trkpt lat="41.56862" lon="-8.780021"><ele>46.3</ele></trkpt>
<trkpt lat="41.568744" lon="-8.780051"><ele>46.1</ele></trkpt>
<trkpt lat="41.568858" lon="-8.780095"><ele>46.1</ele></trkpt>
<trkpt lat="41.568919" lon="-8.780123"><ele>45.9</ele></trkpt>
<trkpt lat="41.568984" lon="-8.780152"><ele>45.9</ele></trkpt>
<trkpt lat="41.56904" lon="-8.780181"><ele>45.9</ele></trkpt>
<trkpt lat="41.569202" lon="-8.780206"><ele>45.5</ele></trkpt>
<trkpt lat="41.569409" lon="-8.780243"><ele>44.9</ele></trkpt>
<trkpt lat="41.569585" lon="-8.780259"><ele>43.8</ele></trkpt>
<trkpt lat="41.56978" lon="-8.78027"><ele>43.5</ele></trkpt>
<trkpt lat="41.569955" lon="-8.780278"><ele>43.7</ele></trkpt>
<trkpt lat="41.570151" lon="-8.7803"><ele>43.9</ele></trkpt>
<trkpt lat="41.570313" lon="-8.780325"><ele>44.0</ele></trkpt>
<trkpt lat="41.570402" lon="-8.780335"><ele>44.2</ele></trkpt>
<trkpt lat="41.570472" lon="-8.780361"><ele>44.2</ele></trkpt>
<trkpt lat="41.570569" lon="-8.780416"><ele>44.3</ele></trkpt>
<trkpt lat="41.570632" lon="-8.780451"><ele>44.3</ele></trkpt>
<trkpt lat="41.570699" lon="-8.780469"><ele>44.3</ele></trkpt>
<trkpt lat="41.57079" lon="-8.780469"><ele>44.3</ele></trkpt>
<trkpt lat="41.570914" lon="-8.780461"><ele>44.1</ele></trkpt>
<trkpt lat="41.570976" lon="-8.780464"><ele>44.1</ele></trkpt>
<trkpt lat="41.571095" lon="-8.780463"><ele>44.0</ele></trkpt>
<trkpt lat="41.57118" lon="-8.780462"><ele>43.9</ele></trkpt>
<trkpt lat="41.571235" lon="-8.780469"><ele>43.9</ele></trkpt>
<trkpt lat="41.571276" lon="-8.780474"><ele>44.0</ele></trkpt>
<trkpt lat="41.571314" lon="-8.780478"><ele>44.0</ele></trkpt>
<trkpt lat="41.571365" lon="-8.78049"><ele>43.9</ele></trkpt>
<trkpt lat="41.571391" lon="-8.780501"><ele>43.9</ele></trkpt>
<trkpt lat="41.57143" lon="-8.780525"><ele>44.1</ele></trkpt>
<trkpt lat="41.571518" lon="-8.780611"><ele>44.3</ele></trkpt>
<trkpt lat="41.571565" lon="-8.780658"><ele>44.3</ele></trkpt>
<trkpt lat="41.571601" lon="-8.780689"><ele>44.5</ele></trkpt>
<trkpt lat="41.571746" lon="-8.780791"><ele>44.9</ele></trkpt>
<trkpt lat="41.571853" lon="-8.780879"><ele>45.7</ele></trkpt>
<trkpt lat="41.571905" lon="-8.780922"><ele>46.4</ele></trkpt>
<trkpt lat="41.571945" lon="-8.780949"><ele>46.4</ele></trkpt>
<trkpt lat="41.57204" lon="-8.781061"><ele>47.5</ele></trkpt>
<trkpt lat="41.57212" lon="-8.781139"><ele>47.9</ele></trkpt>
<trkpt lat="41.572182" lon="-8.781217"><ele>48.2</ele></trkpt>
<trkpt lat="41.572297" lon="-8.781338"><ele>49.2</ele></trkpt>
<trkpt lat="41.572371" lon="-8.781392"><ele>49.9</ele></trkpt>
<trkpt lat="41.572487" lon="-8.781443"><ele>50.2</ele></trkpt>
<trkpt lat="41.57268" lon="-8.781518"><ele>51.8</ele></trkpt>
<trkpt lat="41.572806" lon="-8.781574"><ele>51.9</ele></trkpt>
<trkpt lat="41.572941" lon="-8.781643"><ele>52.6</ele></trkpt>
<trkpt lat="41.573039" lon="-8.781694"><ele>52.8</ele></trkpt>
<trkpt lat="41.573117" lon="-8.781743"><ele>52.7</ele></trkpt>
<trkpt lat="41.573222" lon="-8.781842"><ele>52.6</ele></trkpt>
<trkpt lat="41.573282" lon="-8.781914"><ele>52.5</ele></trkpt>
<trkpt lat="41.573358" lon="-8.781998"><ele>52.3</ele></trkpt>
<trkpt lat="41.573448" lon="-8.782083"><ele>51.9</ele></trkpt>
<trkpt lat="41.573533" lon="-8.782156"><ele>51.5</ele></trkpt>
<trkpt lat="41.573601" lon="-8.782201"><ele>51.4</ele></trkpt>
<trkpt lat="41.573685" lon="-8.782244"><ele>51.0</ele></trkpt>
<trkpt lat="41.5738" lon="-8.782294"><ele>50.7</ele></trkpt>
<trkpt lat="41.573888" lon="-8.782314"><ele>50.4</ele></trkpt>
<trkpt lat="41.574016" lon="-8.782352"><ele>50.1</ele></trkpt>
<trkpt lat="41.574147" lon="-8.782403"><ele>49.9</ele></trkpt>
<trkpt lat="41.574279" lon="-8.782462"><ele>49.8</ele></trkpt>
<trkpt lat="41.574394" lon="-8.782523"><ele>49.8</ele></trkpt>
<trkpt lat="41.574586" lon="-8.782639"><ele>49.7</ele></trkpt>
<trkpt lat="41.574735" lon="-8.782738"><ele>49.7</ele></trkpt>
<trkpt lat="41.574825" lon="-8.782805"><ele>49.6</ele></trkpt>
<trkpt lat="41.574895" lon="-8.782837"><ele>49.5</ele></trkpt>
<trkpt lat="41.574989" lon="-8.782877"><ele>49.4</ele></trkpt>
<trkpt lat="41.575072" lon="-8.782891"><ele>49.4</ele></trkpt>
<trkpt lat="41.575188" lon="-8.782909"><ele>49.2</ele></trkpt>
<trkpt lat="41.575315" lon="-8.78292"><ele>49.2</ele></trkpt>
<trkpt lat="41.575491" lon="-8.78295"><ele>49.1</ele></trkpt>
<trkpt lat="41.575568" lon="-8.782965"><ele>49.2</ele></trkpt>
<trkpt lat="41.57564" lon="-8.782974"><ele>49.3</ele></trkpt>
<trkpt lat="41.575836" lon="-8.783036"><ele>49.3</ele></trkpt>
<trkpt lat="41.576053" lon="-8.783111"><ele>49.2</ele></trkpt>
<trkpt lat="41.57636" lon="-8.78321"><ele>48.2</ele></trkpt>
<trkpt lat="41.576537" lon="-8.783274"><ele>48.2</ele></trkpt>
<trkpt lat="41.576667" lon="-8.78332"><ele>47.8</ele></trkpt>
<trkpt lat="41.576862" lon="-8.783377"><ele>48.1</ele></trkpt>
<trkpt lat="41.577064" lon="-8.783443"><ele>48.3</ele></trkpt>
<trkpt lat="41.577202" lon="-8.783489"><ele>48.3</ele></trkpt>
<trkpt lat="41.577341" lon="-8.783535"><ele>48.1</ele></trkpt>
<trkpt lat="41.577397" lon="-8.783556"><ele>48.0</ele></trkpt>
<trkpt lat="41.577473" lon="-8.783591"><ele>47.8</ele></trkpt>
<trkpt lat="41.577503" lon="-8.78365"><ele>47.8</ele></trkpt>
<trkpt lat="41.577524" lon="-8.783747"><ele>47.7</ele></trkpt>
<trkpt lat="41.577524" lon="-8.783859"><ele>47.4</ele></trkpt>
<trkpt lat="41.5775" lon="-8.784129"><ele>47.0</ele></trkpt>
<trkpt lat="41.577504" lon="-8.78425"><ele>46.8</ele></trkpt>
<trkpt lat="41.577524" lon="-8.784308"><ele>46.6</ele></trkpt>
<trkpt lat="41.577585" lon="-8.784405"><ele>46.0</ele></trkpt>
<trkpt lat="41.577668" lon="-8.784499"><ele>45.2</ele></trkpt>
<trkpt lat="41.577787" lon="-8.784613"><ele>44.5</ele></trkpt>
<trkpt lat="41.578074" lon="-8.784835"><ele>42.1</ele></trkpt>
<trkpt lat="41.578168" lon="-8.784935"><ele>41.7</ele></trkpt>
<trkpt lat="41.578248" lon="-8.784997"><ele>41.3</ele></trkpt>
<trkpt lat="41.578289" lon="-8.785017"><ele>41.3</ele></trkpt>
<trkpt lat="41.578448" lon="-8.785093"><ele>41.6</ele></trkpt>
<trkpt lat="41.578668" lon="-8.785143"><ele>41.7</ele></trkpt>
<trkpt lat="41.578924" lon="-8.785196"><ele>42.7</ele></trkpt>
<trkpt lat="41.579126" lon="-8.785237"><ele>43.0</ele></trkpt>
<trkpt lat="41.57928" lon="-8.785263"><ele>43.2</ele></trkpt>
<trkpt lat="41.579442" lon="-8.785285"><ele>43.2</ele></trkpt>
<trkpt lat="41.579674" lon="-8.785358"><ele>43.0</ele></trkpt>
<trkpt lat="41.579986" lon="-8.785494"><ele>41.5</ele></trkpt>
<trkpt lat="41.580302" lon="-8.785619"><ele>41.2</ele></trkpt>
<trkpt lat="41.580389" lon="-8.785627"><ele>40.7</ele></trkpt>
<trkpt lat="41.580442" lon="-8.785617"><ele>40.5</ele></trkpt>
<trkpt lat="41.580516" lon="-8.78557"><ele>40.2</ele></trkpt>
<trkpt lat="41.580818" lon="-8.785405"><ele>39.9</ele></trkpt>
<trkpt lat="41.580887" lon="-8.78537"><ele>39.9</ele></trkpt>
<trkpt lat="41.580938" lon="-8.785373"><ele>39.0</ele></trkpt>
<trkpt lat="41.581026" lon="-8.78542"><ele>38.7</ele></trkpt>
<trkpt lat="41.581399" lon="-8.785688"><ele>36.5</ele></trkpt>
<trkpt lat="41.581709" lon="-8.78584"><ele>34.3</ele></trkpt>
<trkpt lat="41.582069" lon="-8.786043"><ele>34.8</ele></trkpt>
<trkpt lat="41.582325" lon="-8.786126"><ele>35.5</ele></trkpt>
<trkpt lat="41.582399" lon="-8.786198"><ele>35.7</ele></trkpt>
<trkpt lat="41.582453" lon="-8.786275"><ele>35.7</ele></trkpt>
<trkpt lat="41.58254" lon="-8.786404"><ele>36.2</ele></trkpt>
<trkpt lat="41.582631" lon="-8.786586"><ele>36.5</ele></trkpt>
<trkpt lat="41.582705" lon="-8.786762"><ele>36.6</ele></trkpt>
<trkpt lat="41.582788" lon="-8.786944"><ele>37.0</ele></trkpt>
<trkpt lat="41.582848" lon="-8.786994"><ele>37.0</ele></trkpt>
<trkpt lat="41.582899" lon="-8.78698"><ele>37.1</ele></trkpt>
<trkpt lat="41.583012" lon="-8.786888"><ele>37.1</ele></trkpt>
<trkpt lat="41.583117" lon="-8.78682"><ele>37.3</ele></trkpt>
<trkpt lat="41.583273" lon="-8.786749"><ele>37.6</ele></trkpt>
<trkpt lat="41.583526" lon="-8.786651"><ele>38.4</ele></trkpt>
<trkpt lat="41.583621" lon="-8.78663"><ele>38.5</ele></trkpt>
<trkpt lat="41.583686" lon="-8.786638"><ele>38.6</ele></trkpt>
<trkpt lat="41.583757" lon="-8.786643"><ele>38.8</ele></trkpt>
<trkpt lat="41.583807" lon="-8.786645"><ele>38.9</ele></trkpt>
<trkpt lat="41.583852" lon="-8.786645"><ele>39.0</ele></trkpt>
<trkpt lat="41.583952" lon="-8.786622"><ele>39.1</ele></trkpt>
<trkpt lat="41.58402" lon="-8.7866"><ele>39.1</ele></trkpt>
<trkpt lat="41.584118" lon="-8.786537"><ele>39.6</ele></trkpt>
<trkpt lat="41.584196" lon="-8.786479"><ele>39.9</ele></trkpt>
<trkpt lat="41.584239" lon="-8.786423"><ele>40.1</ele></trkpt>
<trkpt lat="41.584264" lon="-8.786349"><ele>40.2</ele></trkpt>
<trkpt lat="41.584288" lon="-8.786264"><ele>40.3</ele></trkpt>
<trkpt lat="41.584306" lon="-8.786178"><ele>40.5</ele></trkpt>
<trkpt lat="41.584337" lon="-8.786001"><ele>40.8</ele></trkpt>
<trkpt lat="41.584357" lon="-8.785933"><ele>40.8</ele></trkpt>
<trkpt lat="41.584391" lon="-8.785864"><ele>41.0</ele></trkpt>
<trkpt lat="41.584432" lon="-8.785827"><ele>41.2</ele></trkpt>
<trkpt lat="41.584668" lon="-8.78571"><ele>41.9</ele></trkpt>
<trkpt lat="41.584973" lon="-8.785517"><ele>42.0</ele></trkpt>
<trkpt lat="41.585096" lon="-8.785439"><ele>42.0</ele></trkpt>
<trkpt lat="41.585167" lon="-8.785381"><ele>41.8</ele></trkpt>
<trkpt lat="41.585327" lon="-8.785246"><ele>41.7</ele></trkpt>
<trkpt lat="41.585439" lon="-8.785166"><ele>41.5</ele></trkpt>
<trkpt lat="41.585598" lon="-8.784969"><ele>41.3</ele></trkpt>
<trkpt lat="41.585676" lon="-8.784888"><ele>41.2</ele></trkpt>
<trkpt lat="41.585768" lon="-8.78482"><ele>40.0</ele></trkpt>
<trkpt lat="41.586227" lon="-8.784656"><ele>37.0</ele></trkpt>
<trkpt lat="41.586555" lon="-8.784536"><ele>35.3</ele></trkpt>
<trkpt lat="41.586791" lon="-8.784458"><ele>34.7</ele></trkpt>
<trkpt lat="41.587309" lon="-8.784336"><ele>33.5</ele></trkpt>
<trkpt lat="41.587422" lon="-8.784303"><ele>33.2</ele></trkpt>
<trkpt lat="41.587485" lon="-8.784279"><ele>33.1</ele></trkpt>
<trkpt lat="41.587544" lon="-8.784241"><ele>33.3</ele></trkpt>
<trkpt lat="41.587691" lon="-8.784122"><ele>33.5</ele></trkpt>
<trkpt lat="41.587848" lon="-8.783993"><ele>33.5</ele></trkpt>
<trkpt lat="41.58791" lon="-8.783942"><ele>33.6</ele></trkpt>
<trkpt lat="41.587952" lon="-8.783917"><ele>33.6</ele></trkpt>
<trkpt lat="41.587987" lon="-8.7839"><ele>33.6</ele></trkpt>
<trkpt lat="41.588024" lon="-8.783891"><ele>33.7</ele></trkpt>
<trkpt lat="41.588105" lon="-8.783878"><ele>33.6</ele></trkpt>
<trkpt lat="41.588167" lon="-8.783872"><ele>33.5</ele></trkpt>
<trkpt lat="41.588253" lon="-8.78384"><ele>33.5</ele></trkpt>
<trkpt lat="41.588347" lon="-8.783779"><ele>33.5</ele></trkpt>
<trkpt lat="41.588541" lon="-8.783682"><ele>33.4</ele></trkpt>
<trkpt lat="41.58859" lon="-8.783674"><ele>33.4</ele></trkpt>
<trkpt lat="41.588639" lon="-8.783674"><ele>33.3</ele></trkpt>
<trkpt lat="41.588664" lon="-8.783673"><ele>33.3</ele></trkpt>
<trkpt lat="41.588906" lon="-8.783678"><ele>33.0</ele></trkpt>
<trkpt lat="41.589125" lon="-8.783681"><ele>33.0</ele></trkpt>
<trkpt lat="41.58925" lon="-8.78368"><ele>33.0</ele></trkpt>
<trkpt lat="41.589676" lon="-8.783634"><ele>33.0</ele></trkpt>
<trkpt lat="41.590412" lon="-8.783534"><ele>37.0</ele></trkpt>
<trkpt lat="41.590439" lon="-8.783531"><ele>37.0</ele></trkpt>
<trkpt lat="41.590763" lon="-8.783486"><ele>38.2</ele></trkpt>
<trkpt lat="41.591107" lon="-8.783448"><ele>39.0</ele></trkpt>
<trkpt lat="41.591134" lon="-8.783444"><ele>39.0</ele></trkpt>
<trkpt lat="41.591167" lon="-8.783441"><ele>39.0</ele></trkpt>
<trkpt lat="41.591198" lon="-8.783441"><ele>39.0</ele></trkpt>
<trkpt lat="41.59123" lon="-8.783442"><ele>39.0</ele></trkpt>
<trkpt lat="41.59144" lon="-8.783462"><ele>39.1</ele></trkpt>
<trkpt lat="41.591955" lon="-8.783544"><ele>39.3</ele></trkpt>
<trkpt lat="41.592005" lon="-8.783552"><ele>39.3</ele></trkpt>
<trkpt lat="41.592211" lon="-8.783583"><ele>39.4</ele></trkpt>
<trkpt lat="41.592262" lon="-8.783587"><ele>39.4</ele></trkpt>
<trkpt lat="41.592299" lon="-8.783587"><ele>39.4</ele></trkpt>
<trkpt lat="41.592337" lon="-8.783585"><ele>39.4</ele></trkpt>
<trkpt lat="41.592725" lon="-8.783542"><ele>39.5</ele></trkpt>
<trkpt lat="41.593153" lon="-8.783519"><ele>40.0</ele></trkpt>
<trkpt lat="41.593204" lon="-8.783514"><ele>40.0</ele></trkpt>
<trkpt lat="41.593252" lon="-8.783506"><ele>40.0</ele></trkpt>
<trkpt lat="41.593293" lon="-8.783497"><ele>40.0</ele></trkpt>
<trkpt lat="41.593334" lon="-8.783484"><ele>40.0</ele></trkpt>
<trkpt lat="41.593387" lon="-8.783467"><ele>40.0</ele></trkpt>
<trkpt lat="41.593428" lon="-8.783448"><ele>40.3</ele></trkpt>
<trkpt lat="41.593457" lon="-8.78343"><ele>40.3</ele></trkpt>
<trkpt lat="41.593874" lon="-8.783122"><ele>41.0</ele></trkpt>
<trkpt lat="41.594807" lon="-8.782584"><ele>43.4</ele></trkpt>
<trkpt lat="41.594833" lon="-8.782571"><ele>43.4</ele></trkpt>
<trkpt lat="41.594859" lon="-8.782561"><ele>43.5</ele></trkpt>
<trkpt lat="41.594885" lon="-8.782555"><ele>43.5</ele></trkpt>
<trkpt lat="41.594911" lon="-8.78255"><ele>43.5</ele></trkpt>
<trkpt lat="41.594954" lon="-8.782544"><ele>43.5</ele></trkpt>
<trkpt lat="41.595298" lon="-8.782502"><ele>43.4</ele></trkpt>
<trkpt lat="41.595385" lon="-8.78264"><ele>43.3</ele></trkpt>
<trkpt lat="41.595527" lon="-8.782893"><ele>43.0</ele></trkpt>
<trkpt lat="41.595589" lon="-8.783009"><ele>43.0</ele></trkpt>
<trkpt lat="41.595673" lon="-8.783128"><ele>42.7</ele></trkpt>
<trkpt lat="41.595759" lon="-8.783237"><ele>42.0</ele></trkpt>
<trkpt lat="41.59592" lon="-8.783344"><ele>41.5</ele></trkpt>
<trkpt lat="41.596201" lon="-8.783508"><ele>40.8</ele></trkpt>
<trkpt lat="41.596296" lon="-8.783567"><ele>40.7</ele></trkpt>
<trkpt lat="41.596418" lon="-8.783551"><ele>40.7</ele></trkpt>
<trkpt lat="41.596674" lon="-8.783452"><ele>40.5</ele></trkpt>
<trkpt lat="41.59677" lon="-8.783399"><ele>40.7</ele></trkpt>
<trkpt lat="41.596916" lon="-8.783304"><ele>40.8</ele></trkpt>
<trkpt lat="41.597182" lon="-8.783097"><ele>40.2</ele></trkpt>
<trkpt lat="41.597316" lon="-8.783028"><ele>40.0</ele></trkpt>
<trkpt lat="41.597545" lon="-8.783014"><ele>39.4</ele></trkpt>
<trkpt lat="41.597621" lon="-8.783049"><ele>39.3</ele></trkpt>
<trkpt lat="41.597655" lon="-8.783079"><ele>39.3</ele></trkpt>
<trkpt lat="41.597707" lon="-8.783148"><ele>39.3</ele></trkpt>
<trkpt lat="41.597735" lon="-8.78317"><ele>39.1</ele></trkpt>
<trkpt lat="41.597848" lon="-8.783215"><ele>38.9</ele></trkpt>
<trkpt lat="41.597974" lon="-8.783218"><ele>38.9</ele></trkpt>
<trkpt lat="41.598102" lon="-8.783202"><ele>38.9</ele></trkpt>
<trkpt lat="41.598263" lon="-8.78318"><ele>38.9</ele></trkpt>
<trkpt lat="41.59842" lon="-8.783183"><ele>39.1</ele></trkpt>
<trkpt lat="41.598614" lon="-8.783162"><ele>39.6</ele></trkpt>
<trkpt lat="41.598704" lon="-8.783127"><ele>39.8</ele></trkpt>
<trkpt lat="41.598835" lon="-8.783041"><ele>40.2</ele></trkpt>
<trkpt lat="41.599061" lon="-8.782896"><ele>40.3</ele></trkpt>
<trkpt lat="41.599229" lon="-8.782864"><ele>40.4</ele></trkpt>
<trkpt lat="41.599456" lon="-8.782853"><ele>40.4</ele></trkpt>
<trkpt lat="41.599755" lon="-8.782875"><ele>40.4</ele></trkpt>
<trkpt lat="41.59978" lon="-8.782877"><ele>40.2</ele></trkpt>
<trkpt lat="41.60016" lon="-8.782907"><ele>40.2</ele></trkpt>
<trkpt lat="41.600501" lon="-8.782949"><ele>41.3</ele></trkpt>
<trkpt lat="41.60098" lon="-8.782881"><ele>44.2</ele></trkpt>
<trkpt lat="41.601066" lon="-8.782846"><ele>46.0</ele></trkpt>
<trkpt lat="41.601181" lon="-8.7828"><ele>46.7</ele></trkpt>
<trkpt lat="41.601337" lon="-8.782679"><ele>47.1</ele></trkpt>
<trkpt lat="41.601485" lon="-8.782594"><ele>47.8</ele></trkpt>
<trkpt lat="41.601618" lon="-8.78256"><ele>48.8</ele></trkpt>
<trkpt lat="41.601853" lon="-8.782473"><ele>49.5</ele></trkpt>
<trkpt lat="41.602016" lon="-8.78244"><ele>50.0</ele></trkpt>
<trkpt lat="41.602138" lon="-8.782361"><ele>50.0</ele></trkpt>
<trkpt lat="41.602704" lon="-8.781976"><ele>50.0</ele></trkpt>
<trkpt lat="41.60405" lon="-8.780883"><ele>51.0</ele></trkpt>
<trkpt lat="41.604136" lon="-8.780799"><ele>50.7</ele></trkpt>
<trkpt lat="41.604326" lon="-8.780595"><ele>50.4</ele></trkpt>
<trkpt lat="41.604396" lon="-8.780482"><ele>50.4</ele></trkpt>
<trkpt lat="41.604469" lon="-8.780388"><ele>50.3</ele></trkpt>
<trkpt lat="41.60454" lon="-8.780329"><ele>49.9</ele></trkpt>
<trkpt lat="41.604712" lon="-8.780377"><ele>49.1</ele></trkpt>
<trkpt lat="41.605061" lon="-8.780492"><ele>47.3</ele></trkpt>
<trkpt lat="41.605222" lon="-8.780562"><ele>46.7</ele></trkpt>
<trkpt lat="41.605393" lon="-8.780651"><ele>46.2</ele></trkpt>
<trkpt lat="41.605527" lon="-8.780753"><ele>46.1</ele></trkpt>
<trkpt lat="41.605603" lon="-8.78082"><ele>45.9</ele></trkpt>
<trkpt lat="41.605767" lon="-8.780967"><ele>45.7</ele></trkpt>
<trkpt lat="41.605852" lon="-8.781053"><ele>45.6</ele></trkpt>
<trkpt lat="41.605936" lon="-8.781156"><ele>45.6</ele></trkpt>
<trkpt lat="41.605981" lon="-8.781214"><ele>45.5</ele></trkpt>
<trkpt lat="41.606039" lon="-8.78133"><ele>45.2</ele></trkpt>
<trkpt lat="41.606114" lon="-8.781484"><ele>45.2</ele></trkpt>
<trkpt lat="41.606184" lon="-8.781479"><ele>45.1</ele></trkpt>
<trkpt lat="41.606485" lon="-8.781485"><ele>44.6</ele></trkpt>
<trkpt lat="41.60679" lon="-8.781412"><ele>43.5</ele></trkpt>
<trkpt lat="41.607035" lon="-8.781342"><ele>43.2</ele></trkpt>
<trkpt lat="41.607201" lon="-8.781322"><ele>42.9</ele></trkpt>
<trkpt lat="41.607375" lon="-8.781338"><ele>42.2</ele></trkpt>
<trkpt lat="41.60747" lon="-8.781398"><ele>42.2</ele></trkpt>
<trkpt lat="41.607514" lon="-8.781308"><ele>42.2</ele></trkpt>
<trkpt lat="41.607605" lon="-8.781383"><ele>41.7</ele></trkpt>
<trkpt lat="41.607664" lon="-8.781372"><ele>41.7</ele></trkpt>
<trkpt lat="41.607786" lon="-8.781321"><ele>41.1</ele></trkpt>
<trkpt lat="41.607887" lon="-8.781271"><ele>40.8</ele></trkpt>
<trkpt lat="41.608087" lon="-8.781249"><ele>39.6</ele></trkpt>
<trkpt lat="41.608223" lon="-8.781239"><ele>38.5</ele></trkpt>
<trkpt lat="41.608377" lon="-8.781227"><ele>37.7</ele></trkpt>
<trkpt lat="41.608558" lon="-8.781195"><ele>37.0</ele></trkpt>
<trkpt lat="41.608658" lon="-8.781185"><ele>36.8</ele></trkpt>
<trkpt lat="41.608753" lon="-8.781195"><ele>36.8</ele></trkpt>
<trkpt lat="41.60882" lon="-8.781205"><ele>36.7</ele></trkpt>
<trkpt lat="41.6089" lon="-8.781231"><ele>36.6</ele></trkpt>
<trkpt lat="41.608941" lon="-8.781256"><ele>36.5</ele></trkpt>
<trkpt lat="41.608966" lon="-8.781295"><ele>36.5</ele></trkpt>
<trkpt lat="41.609014" lon="-8.781295"><ele>36.5</ele></trkpt>
<trkpt lat="41.609154" lon="-8.781371"><ele>36.3</ele></trkpt>
<trkpt lat="41.609334" lon="-8.78148"><ele>35.9</ele></trkpt>
<trkpt lat="41.609653" lon="-8.781673"><ele>35.8</ele></trkpt>
<trkpt lat="41.609761" lon="-8.781721"><ele>35.7</ele></trkpt>
<trkpt lat="41.609899" lon="-8.781741"><ele>35.4</ele></trkpt>
<trkpt lat="41.610025" lon="-8.781723"><ele>34.9</ele></trkpt>
<trkpt lat="41.61014" lon="-8.781705"><ele>34.7</ele></trkpt>
<trkpt lat="41.610251" lon="-8.781604"><ele>34.5</ele></trkpt>
<trkpt lat="41.610327" lon="-8.781523"><ele>34.4</ele></trkpt>
<trkpt lat="41.610413" lon="-8.781462"><ele>34.2</ele></trkpt>
<trkpt lat="41.610505" lon="-8.781452"><ele>34.2</ele></trkpt>
<trkpt lat="41.610607" lon="-8.781496"><ele>34.0</ele></trkpt>
<trkpt lat="41.610737" lon="-8.781558"><ele>33.7</ele></trkpt>
<trkpt lat="41.610876" lon="-8.781617"><ele>33.4</ele></trkpt>
<trkpt lat="41.611484" lon="-8.781893"><ele>27.6</ele></trkpt>
<trkpt lat="41.611671" lon="-8.781977"><ele>27.6</ele></trkpt>
<trkpt lat="41.611687" lon="-8.78206"><ele>28.2</ele></trkpt>
<trkpt lat="41.611678" lon="-8.78217"><ele>28.2</ele></trkpt>
<trkpt lat="41.611589" lon="-8.782438"><ele>28.6</ele></trkpt>
<trkpt lat="41.611476" lon="-8.782663"><ele>28.4</ele></trkpt>
<trkpt lat="41.611446" lon="-8.78289"><ele>29.0</ele></trkpt>
<trkpt lat="41.611428" lon="-8.783014"><ele>28.7</ele></trkpt>
<trkpt lat="41.611423" lon="-8.783189"><ele>29.0</ele></trkpt>
<trkpt lat="41.611448" lon="-8.783518"><ele>28.3</ele></trkpt>
<trkpt lat="41.611465" lon="-8.7837"><ele>28.2</ele></trkpt>
<trkpt lat="41.611503" lon="-8.784"><ele>28.0</ele></trkpt>
<trkpt lat="41.611524" lon="-8.784254"><ele>28.8</ele></trkpt>
<trkpt lat="41.611552" lon="-8.784448"><ele>29.4</ele></trkpt>
<trkpt lat="41.611625" lon="-8.784796"><ele>29.8</ele></trkpt>
<trkpt lat="41.611664" lon="-8.784959"><ele>30.0</ele></trkpt>
<trkpt lat="41.611707" lon="-8.785152"><ele>30.0</ele></trkpt>
<trkpt lat="41.611792" lon="-8.78535"><ele>30.0</ele></trkpt>
<trkpt lat="41.612169" lon="-8.785962"><ele>26.0</ele></trkpt>
<trkpt lat="41.612265" lon="-8.786185"><ele>22.8</ele></trkpt>
<trkpt lat="41.612358" lon="-8.786365"><ele>22.8</ele></trkpt>
<trkpt lat="41.612446" lon="-8.786651"><ele>20.0</ele></trkpt>
<trkpt lat="41.612458" lon="-8.786834"><ele>18.5</ele></trkpt>
<trkpt lat="41.612457" lon="-8.787196"><ele>13.8</ele></trkpt>
<trkpt lat="41.612411" lon="-8.787528"><ele>11.5</ele></trkpt>
<trkpt lat="41.612328" lon="-8.787721"><ele>10.8</ele></trkpt>
<trkpt lat="41.612223" lon="-8.78788"><ele>12.0</ele></trkpt>
<trkpt lat="41.612073" lon="-8.787957"><ele>11.8</ele></trkpt>
<trkpt lat="41.611905" lon="-8.78806"><ele>11.8</ele></trkpt>
<trkpt lat="41.611852" lon="-8.788095"><ele>12.0</ele></trkpt>
<trkpt lat="41.61181" lon="-8.78813"><ele>12.0</ele></trkpt>
<trkpt lat="41.611777" lon="-8.788167"><ele>12.0</ele></trkpt>
<trkpt lat="41.611753" lon="-8.788217"><ele>12.0</ele></trkpt>
<trkpt lat="41.611749" lon="-8.788264"><ele>12.5</ele></trkpt>
<trkpt lat="41.611751" lon="-8.788314"><ele>12.5</ele></trkpt>
<trkpt lat="41.611762" lon="-8.788365"><ele>12.6</ele></trkpt>
<trkpt lat="41.611794" lon="-8.788414"><ele>12.6</ele></trkpt>
<trkpt lat="41.612018" lon="-8.78872"><ele>12.8</ele></trkpt>
<trkpt lat="41.612093" lon="-8.788816"><ele>12.0</ele></trkpt>
<trkpt lat="41.612199" lon="-8.78875"><ele>11.8</ele></trkpt>
<trkpt lat="41.612918" lon="-8.788339"><ele>18.0</ele></trkpt>
<trkpt lat="41.613032" lon="-8.788279"><ele>18.9</ele></trkpt>
<trkpt lat="41.613137" lon="-8.788244"><ele>20.4</ele></trkpt>
<trkpt lat="41.613226" lon="-8.788247"><ele>20.4</ele></trkpt>
<trkpt lat="41.61331" lon="-8.788255"><ele>21.9</ele></trkpt>
<trkpt lat="41.613419" lon="-8.788275"><ele>22.6</ele></trkpt>
<trkpt lat="41.613521" lon="-8.788319"><ele>23.8</ele></trkpt>
<trkpt lat="41.613584" lon="-8.788384"><ele>24.5</ele></trkpt>
<trkpt lat="41.613634" lon="-8.78847"><ele>24.5</ele></trkpt>
<trkpt lat="41.613701" lon="-8.788603"><ele>26.1</ele></trkpt>
<trkpt lat="41.613742" lon="-8.788664"><ele>26.1</ele></trkpt>
<trkpt lat="41.613788" lon="-8.788708"><ele>27.0</ele></trkpt>
<trkpt lat="41.613874" lon="-8.788748"><ele>27.7</ele></trkpt>
<trkpt lat="41.614472" lon="-8.788967"><ele>33.4</ele></trkpt>
<trkpt lat="41.614512" lon="-8.788948"><ele>33.4</ele></trkpt>
<trkpt lat="41.614548" lon="-8.788918"><ele>34.1</ele></trkpt>
<trkpt lat="41.614578" lon="-8.788871"><ele>34.1</ele></trkpt>
<trkpt lat="41.614604" lon="-8.788811"><ele>34.1</ele></trkpt>
<trkpt lat="41.614656" lon="-8.788655"><ele>34.9</ele></trkpt>
<trkpt lat="41.614701" lon="-8.788515"><ele>35.7</ele></trkpt>
<trkpt lat="41.614725" lon="-8.788446"><ele>35.7</ele></trkpt>
<trkpt lat="41.614761" lon="-8.788424"><ele>36.5</ele></trkpt>
<trkpt lat="41.614881" lon="-8.788389"><ele>37.5</ele></trkpt>
<trkpt lat="41.615094" lon="-8.788349"><ele>42.4</ele></trkpt>
<trkpt lat="41.615182" lon="-8.788387"><ele>43.2</ele></trkpt>
<trkpt lat="41.615286" lon="-8.788393"><ele>44.9</ele></trkpt>
<trkpt lat="41.615426" lon="-8.78836"><ele>46.8</ele></trkpt>
<trkpt lat="41.615551" lon="-8.788338"><ele>47.9</ele></trkpt>
<trkpt lat="41.615614" lon="-8.78834"><ele>48.2</ele></trkpt>
<trkpt lat="41.616017" lon="-8.788401"><ele>50.8</ele></trkpt>
<trkpt lat="41.616078" lon="-8.788412"><ele>50.8</ele></trkpt>
<trkpt lat="41.616123" lon="-8.788424"><ele>51.2</ele></trkpt>
<trkpt lat="41.616464" lon="-8.788565"><ele>53.5</ele></trkpt>
<trkpt lat="41.616615" lon="-8.788719"><ele>55.0</ele></trkpt>
<trkpt lat="41.616662" lon="-8.788751"><ele>55.4</ele></trkpt>
<trkpt lat="41.616714" lon="-8.788778"><ele>55.4</ele></trkpt>
<trkpt lat="41.616915" lon="-8.788869"><ele>55.9</ele></trkpt>
<trkpt lat="41.61693" lon="-8.788784"><ele>56.3</ele></trkpt>
<trkpt lat="41.616956" lon="-8.78869"><ele>56.7</ele></trkpt>
<trkpt lat="41.616995" lon="-8.788589"><ele>56.7</ele></trkpt>
<trkpt lat="41.617048" lon="-8.788478"><ele>57.1</ele></trkpt>
<trkpt lat="41.617092" lon="-8.788417"><ele>57.4</ele></trkpt>
<trkpt lat="41.617187" lon="-8.788289"><ele>58.9</ele></trkpt>
<trkpt lat="41.617231" lon="-8.788244"><ele>59.3</ele></trkpt>
<trkpt lat="41.61733" lon="-8.78817"><ele>59.8</ele></trkpt>
<trkpt lat="41.617523" lon="-8.788061"><ele>60.2</ele></trkpt>
<trkpt lat="41.617736" lon="-8.787925"><ele>59.2</ele></trkpt>
<trkpt lat="41.617813" lon="-8.787884"><ele>59.0</ele></trkpt>
<trkpt lat="41.617877" lon="-8.787771"><ele>58.3</ele></trkpt>
<trkpt lat="41.617966" lon="-8.787669"><ele>58.0</ele></trkpt>
<trkpt lat="41.618046" lon="-8.787583"><ele>56.9</ele></trkpt>
<trkpt lat="41.618149" lon="-8.787515"><ele>56.7</ele></trkpt>
<trkpt lat="41.618234" lon="-8.787473"><ele>56.4</ele></trkpt>
<trkpt lat="41.618261" lon="-8.787453"><ele>56.1</ele></trkpt>
<trkpt lat="41.618282" lon="-8.787417"><ele>56.1</ele></trkpt>
<trkpt lat="41.618328" lon="-8.787318"><ele>55.9</ele></trkpt>
<trkpt lat="41.618386" lon="-8.787185"><ele>55.7</ele></trkpt>
<trkpt lat="41.618482" lon="-8.787298"><ele>55.8</ele></trkpt>
<trkpt lat="41.618525" lon="-8.787324"><ele>55.8</ele></trkpt>
<trkpt lat="41.61855" lon="-8.787327"><ele>55.8</ele></trkpt>
<trkpt lat="41.618575" lon="-8.787325"><ele>55.7</ele></trkpt>
<trkpt lat="41.618679" lon="-8.787282"><ele>55.8</ele></trkpt>
<trkpt lat="41.618993" lon="-8.787258"><ele>56.5</ele></trkpt>
<trkpt lat="41.61914" lon="-8.787257"><ele>57.6</ele></trkpt>
<trkpt lat="41.619231" lon="-8.787259"><ele>58.0</ele></trkpt>
<trkpt lat="41.619315" lon="-8.787267"><ele>58.1</ele></trkpt>
<trkpt lat="41.619429" lon="-8.787292"><ele>58.4</ele></trkpt>
<trkpt lat="41.619626" lon="-8.787347"><ele>58.6</ele></trkpt>
<trkpt lat="41.619758" lon="-8.787496"><ele>59.4</ele></trkpt>
<trkpt lat="41.619886" lon="-8.787625"><ele>60.0</ele></trkpt>
<trkpt lat="41.620081" lon="-8.787802"><ele>61.9</ele></trkpt>
<trkpt lat="41.620159" lon="-8.787897"><ele>61.9</ele></trkpt>
<trkpt lat="41.620241" lon="-8.788056"><ele>62.3</ele></trkpt>
<trkpt lat="41.620331" lon="-8.788248"><ele>62.8</ele></trkpt>
<trkpt lat="41.620378" lon="-8.788387"><ele>62.8</ele></trkpt>
<trkpt lat="41.621077" lon="-8.78862"><ele>70.3</ele></trkpt>
<trkpt lat="41.621524" lon="-8.788764"><ele>70.5</ele></trkpt>
<trkpt lat="41.62158" lon="-8.788754"><ele>70.5</ele></trkpt>
<trkpt lat="41.621631" lon="-8.788736"><ele>70.7</ele></trkpt>
<trkpt lat="41.621662" lon="-8.788721"><ele>70.7</ele></trkpt>
<trkpt lat="41.6217" lon="-8.788694"><ele>70.9</ele></trkpt>
<trkpt lat="41.621705" lon="-8.788672"><ele>70.9</ele></trkpt>
<trkpt lat="41.621719" lon="-8.788613"><ele>70.9</ele></trkpt>
<trkpt lat="41.621733" lon="-8.788568"><ele>70.9</ele></trkpt>
<trkpt lat="41.621751" lon="-8.788522"><ele>70.9</ele></trkpt>
<trkpt lat="41.621765" lon="-8.78849"><ele>70.9</ele></trkpt>
<trkpt lat="41.621805" lon="-8.788503"><ele>70.9</ele></trkpt>
<trkpt lat="41.621878" lon="-8.788532"><ele>71.1</ele></trkpt>
<trkpt lat="41.621947" lon="-8.788565"><ele>71.4</ele></trkpt>
<trkpt lat="41.622043" lon="-8.788595"><ele>71.4</ele></trkpt>
<trkpt lat="41.62213" lon="-8.788599"><ele>71.8</ele></trkpt>
<trkpt lat="41.62221" lon="-8.788593"><ele>72.2</ele></trkpt>
<trkpt lat="41.622387" lon="-8.788588"><ele>74.5</ele></trkpt>
<trkpt lat="41.622483" lon="-8.788599"><ele>74.9</ele></trkpt>
<trkpt lat="41.622588" lon="-8.788636"><ele>75.8</ele></trkpt>
<trkpt lat="41.622701" lon="-8.788697"><ele>76.3</ele></trkpt>
<trkpt lat="41.62278" lon="-8.788749"><ele>77.6</ele></trkpt>
<trkpt lat="41.622861" lon="-8.788808"><ele>78.2</ele></trkpt>
<trkpt lat="41.623213" lon="-8.789079"><ele>80.2</ele></trkpt>
<trkpt lat="41.623244" lon="-8.789033"><ele>80.2</ele></trkpt>
<trkpt lat="41.623269" lon="-8.78901"><ele>80.5</ele></trkpt>
<trkpt lat="41.623291" lon="-8.788996"><ele>80.7</ele></trkpt>
<trkpt lat="41.623314" lon="-8.788984"><ele>81.0</ele></trkpt>
<trkpt lat="41.623351" lon="-8.78897"><ele>81.0</ele></trkpt>
<trkpt lat="41.62338" lon="-8.788962"><ele>81.3</ele></trkpt>
<trkpt lat="41.623407" lon="-8.788958"><ele>81.5</ele></trkpt>
<trkpt lat="41.623424" lon="-8.788959"><ele>81.9</ele></trkpt>
<trkpt lat="41.623438" lon="-8.788961"><ele>81.9</ele></trkpt>
<trkpt lat="41.623462" lon="-8.788967"><ele>81.9</ele></trkpt>
<trkpt lat="41.623492" lon="-8.788975"><ele>82.2</ele></trkpt>
<trkpt lat="41.623524" lon="-8.788988"><ele>82.2</ele></trkpt>
<trkpt lat="41.623702" lon="-8.789122"><ele>83.9</ele></trkpt>
<trkpt lat="41.62378" lon="-8.789157"><ele>85.6</ele></trkpt>
<trkpt lat="41.623828" lon="-8.78917"><ele>86.4</ele></trkpt>
<trkpt lat="41.623888" lon="-8.789168"><ele>87.0</ele></trkpt>
<trkpt lat="41.623937" lon="-8.789149"><ele>88.0</ele></trkpt>
<trkpt lat="41.624014" lon="-8.789084"><ele>89.6</ele></trkpt>
<trkpt lat="41.624069" lon="-8.789022"><ele>90.8</ele></trkpt>
<trkpt lat="41.624101" lon="-8.788975"><ele>90.4</ele></trkpt>
<trkpt lat="41.624135" lon="-8.78894"><ele>90.4</ele></trkpt>
<trkpt lat="41.624171" lon="-8.788915"><ele>90.4</ele></trkpt>
<trkpt lat="41.624202" lon="-8.788904"><ele>90.8</ele></trkpt>
<trkpt lat="41.624225" lon="-8.788909"><ele>91.2</ele></trkpt>
<trkpt lat="41.624259" lon="-8.788932"><ele>91.2</ele></trkpt>
<trkpt lat="41.624285" lon="-8.788966"><ele>91.6</ele></trkpt>
<trkpt lat="41.624305" lon="-8.789009"><ele>91.6</ele></trkpt>
<trkpt lat="41.624329" lon="-8.789084"><ele>93.0</ele></trkpt>
<trkpt lat="41.624398" lon="-8.789439"><ele>97.8</ele></trkpt>
<trkpt lat="41.62442" lon="-8.789538"><ele>98.2</ele></trkpt>
<trkpt lat="41.624424" lon="-8.789557"><ele>100.3</ele></trkpt>
<trkpt lat="41.624455" lon="-8.789645"><ele>101.9</ele></trkpt>
<trkpt lat="41.624487" lon="-8.789696"><ele>103.1</ele></trkpt>
<trkpt lat="41.624518" lon="-8.789726"><ele>103.1</ele></trkpt>
<trkpt lat="41.624562" lon="-8.789755"><ele>103.8</ele></trkpt>
<trkpt lat="41.624601" lon="-8.789756"><ele>103.8</ele></trkpt>
<trkpt lat="41.624643" lon="-8.789737"><ele>103.8</ele></trkpt>
<trkpt lat="41.62468" lon="-8.789711"><ele>103.8</ele></trkpt>
<trkpt lat="41.62471" lon="-8.789677"><ele>103.8</ele></trkpt>
<trkpt lat="41.624737" lon="-8.78964"><ele>103.8</ele></trkpt>
<trkpt lat="41.624786" lon="-8.789554"><ele>105.2</ele></trkpt>
<trkpt lat="41.624807" lon="-8.789517"><ele>105.9</ele></trkpt>
<trkpt lat="41.625089" lon="-8.789018"><ele>109.5</ele></trkpt>
<trkpt lat="41.625099" lon="-8.789006"><ele>109.5</ele></trkpt>
<trkpt lat="41.625109" lon="-8.788997"><ele>109.5</ele></trkpt>
<trkpt lat="41.625119" lon="-8.788991"><ele>109.5</ele></trkpt>
<trkpt lat="41.625127" lon="-8.788987"><ele>109.8</ele></trkpt>
<trkpt lat="41.625138" lon="-8.788984"><ele>109.8</ele></trkpt>
<trkpt lat="41.625147" lon="-8.788981"><ele>109.8</ele></trkpt>
<trkpt lat="41.625169" lon="-8.788976"><ele>110.1</ele></trkpt>
<trkpt lat="41.625008" lon="-8.78975"><ele>122.0</ele></trkpt>
<trkpt lat="41.625171" lon="-8.789821"><ele>123.8</ele></trkpt>
<trkpt lat="41.625304" lon="-8.789851"><ele>125.6</ele></trkpt>
<trkpt lat="41.62549" lon="-8.789791"><ele>126.0</ele></trkpt>
<trkpt lat="41.625645" lon="-8.789769"><ele>127.7</ele></trkpt>
<trkpt lat="41.625717" lon="-8.789711"><ele>129.3</ele></trkpt>
<trkpt lat="41.625795" lon="-8.789565"><ele>129.3</ele></trkpt>
<trkpt lat="41.62589" lon="-8.789498"><ele>130.4</ele></trkpt>
<trkpt lat="41.626124" lon="-8.789396"><ele>132.5</ele></trkpt>
<trkpt lat="41.626324" lon="-8.789361"><ele>133.6</ele></trkpt>
<trkpt lat="41.626493" lon="-8.789313"><ele>134.3</ele></trkpt>
<trkpt lat="41.626547" lon="-8.789282"><ele>134.2</ele></trkpt>
<trkpt lat="41.626609" lon="-8.789227"><ele>134.2</ele></trkpt>
<trkpt lat="41.626715" lon="-8.788945"><ele>134.0</ele></trkpt>
<trkpt lat="41.626766" lon="-8.788769"><ele>133.7</ele></trkpt>
<trkpt lat="41.626783" lon="-8.788687"><ele>133.0</ele></trkpt>
<trkpt lat="41.626779" lon="-8.788491"><ele>131.4</ele></trkpt>
<trkpt lat="41.626759" lon="-8.788336"><ele>130.7</ele></trkpt>
<trkpt lat="41.626745" lon="-8.788215"><ele>130.3</ele></trkpt>
<trkpt lat="41.626697" lon="-8.788014"><ele>129.1</ele></trkpt>
<trkpt lat="41.626648" lon="-8.787936"><ele>128.2</ele></trkpt>
<trkpt lat="41.626585" lon="-8.787909"><ele>128.2</ele></trkpt>
<trkpt lat="41.626421" lon="-8.787915"><ele>126.8</ele></trkpt>
<trkpt lat="41.626312" lon="-8.787967"><ele>126.3</ele></trkpt>
<trkpt lat="41.626231" lon="-8.787968"><ele>125.5</ele></trkpt>
<trkpt lat="41.626169" lon="-8.787925"><ele>124.9</ele></trkpt>
<trkpt lat="41.626114" lon="-8.787874"><ele>124.5</ele></trkpt>
<trkpt lat="41.626045" lon="-8.787778"><ele>123.6</ele></trkpt>
<trkpt lat="41.625987" lon="-8.787662"><ele>122.8</ele></trkpt>
<trkpt lat="41.625947" lon="-8.787555"><ele>121.5</ele></trkpt>
<trkpt lat="41.625896" lon="-8.787386"><ele>119.4</ele></trkpt>
<trkpt lat="41.625789" lon="-8.787034"><ele>114.5</ele></trkpt>
<trkpt lat="41.625731" lon="-8.786896"><ele>112.4</ele></trkpt>
<trkpt lat="41.625678" lon="-8.78675"><ele>110.3</ele></trkpt>
<trkpt lat="41.625618" lon="-8.786691"><ele>109.7</ele></trkpt>
<trkpt lat="41.625558" lon="-8.786654"><ele>109.8</ele></trkpt>
<trkpt lat="41.625498" lon="-8.786655"><ele>109.7</ele></trkpt>
<trkpt lat="41.625413" lon="-8.786666"><ele>109.7</ele></trkpt>
<trkpt lat="41.625238" lon="-8.786736"><ele>109.3</ele></trkpt>
<trkpt lat="41.625257" lon="-8.786589"><ele>109.1</ele></trkpt>
<trkpt lat="41.625332" lon="-8.786381"><ele>108.8</ele></trkpt>
<trkpt lat="41.625423" lon="-8.786241"><ele>108.8</ele></trkpt>
<trkpt lat="41.625518" lon="-8.786108"><ele>109.0</ele></trkpt>
<trkpt lat="41.625703" lon="-8.785964"><ele>112.7</ele></trkpt>
<trkpt lat="41.625953" lon="-8.785908"><ele>117.1</ele></trkpt>
<trkpt lat="41.626069" lon="-8.785887"><ele>119.1</ele></trkpt>
<trkpt lat="41.626209" lon="-8.785888"><ele>119.1</ele></trkpt>
<trkpt lat="41.62629" lon="-8.785908"><ele>119.8</ele></trkpt>
<trkpt lat="41.626376" lon="-8.785976"><ele>119.2</ele></trkpt>
<trkpt lat="41.62649" lon="-8.786071"><ele>118.7</ele></trkpt>
<trkpt lat="41.626557" lon="-8.786115"><ele>118.7</ele></trkpt>
<trkpt lat="41.626639" lon="-8.786134"><ele>118.0</ele></trkpt>
<trkpt lat="41.62672" lon="-8.786129"><ele>117.7</ele></trkpt>
<trkpt lat="41.626823" lon="-8.786101"><ele>116.7</ele></trkpt>
<trkpt lat="41.626881" lon="-8.786026"><ele>116.1</ele></trkpt>
<trkpt lat="41.626947" lon="-8.785752"><ele>114.7</ele></trkpt>
<trkpt lat="41.626983" lon="-8.785591"><ele>113.2</ele></trkpt>
<trkpt lat="41.627015" lon="-8.785441"><ele>112.0</ele></trkpt>
<trkpt lat="41.627038" lon="-8.785356"><ele>111.5</ele></trkpt>
<trkpt lat="41.627041" lon="-8.785211"><ele>110.9</ele></trkpt>
<trkpt lat="41.627009" lon="-8.785157"><ele>110.9</ele></trkpt>
<trkpt lat="41.626955" lon="-8.785023"><ele>109.7</ele></trkpt>
<trkpt lat="41.626929" lon="-8.78491"><ele>109.7</ele></trkpt>
<trkpt lat="41.626885" lon="-8.78476"><ele>109.0</ele></trkpt>
<trkpt lat="41.626843" lon="-8.784621"><ele>108.7</ele></trkpt>
<trkpt lat="41.626795" lon="-8.784469"><ele>108.4</ele></trkpt>
<trkpt lat="41.626984" lon="-8.784433"><ele>107.8</ele></trkpt>
<trkpt lat="41.627197" lon="-8.784408"><ele>107.2</ele></trkpt>
<trkpt lat="41.627328" lon="-8.784373"><ele>105.7</ele></trkpt>
<trkpt lat="41.627506" lon="-8.784372"><ele>103.0</ele></trkpt>
<trkpt lat="41.62768" lon="-8.784373"><ele>101.7</ele></trkpt>
<trkpt lat="41.627763" lon="-8.784315"><ele>100.6</ele></trkpt>
<trkpt lat="41.627877" lon="-8.784151"><ele>100.0</ele></trkpt>
<trkpt lat="41.627959" lon="-8.783905"><ele>98.8</ele></trkpt>
<trkpt lat="41.62802" lon="-8.783763"><ele>97.5</ele></trkpt>
<trkpt lat="41.628106" lon="-8.783497"><ele>95.0</ele></trkpt>
<trkpt lat="41.628171" lon="-8.783197"><ele>94.2</ele></trkpt>
<trkpt lat="41.628257" lon="-8.782843"><ele>90.4</ele></trkpt>
<trkpt lat="41.628345" lon="-8.782456"><ele>86.4</ele></trkpt>
<trkpt lat="41.628414" lon="-8.782241"><ele>86.2</ele></trkpt>
<trkpt lat="41.628548" lon="-8.781966"><ele>85.0</ele></trkpt>
<trkpt lat="41.628633" lon="-8.781853"><ele>85.0</ele></trkpt>
<trkpt lat="41.628706" lon="-8.781767"><ele>85.0</ele></trkpt>
<trkpt lat="41.628728" lon="-8.781574"><ele>85.0</ele></trkpt>
<trkpt lat="41.628788" lon="-8.781429"><ele>85.0</ele></trkpt>
<trkpt lat="41.628856" lon="-8.7813"><ele>84.9</ele></trkpt>
<trkpt lat="41.628929" lon="-8.781182"><ele>84.7</ele></trkpt>
<trkpt lat="41.629017" lon="-8.781091"><ele>84.3</ele></trkpt>
<trkpt lat="41.629093" lon="-8.781026"><ele>84.3</ele></trkpt>
<trkpt lat="41.629169" lon="-8.781"><ele>83.9</ele></trkpt>
<trkpt lat="41.629265" lon="-8.780973"><ele>83.9</ele></trkpt>
<trkpt lat="41.62937" lon="-8.780941"><ele>83.8</ele></trkpt>
<trkpt lat="41.629495" lon="-8.7809"><ele>82.8</ele></trkpt>
<trkpt lat="41.629626" lon="-8.780807"><ele>81.8</ele></trkpt>
<trkpt lat="41.629852" lon="-8.780589"><ele>78.5</ele></trkpt>
<trkpt lat="41.63028" lon="-8.780227"><ele>75.8</ele></trkpt>
<trkpt lat="41.630479" lon="-8.780061"><ele>75.0</ele></trkpt>
<trkpt lat="41.630664" lon="-8.779909"><ele>74.7</ele></trkpt>
<trkpt lat="41.630831" lon="-8.779789"><ele>74.7</ele></trkpt>
<trkpt lat="41.630864" lon="-8.779752"><ele>74.8</ele></trkpt>
<trkpt lat="41.63088" lon="-8.779714"><ele>74.8</ele></trkpt>
<trkpt lat="41.630885" lon="-8.779687"><ele>74.8</ele></trkpt>
<trkpt lat="41.630884" lon="-8.779657"><ele>74.8</ele></trkpt>
<trkpt lat="41.630893" lon="-8.779559"><ele>74.8</ele></trkpt>
<trkpt lat="41.630904" lon="-8.77946"><ele>74.8</ele></trkpt>
<trkpt lat="41.631354" lon="-8.779549"><ele>74.8</ele></trkpt>
<trkpt lat="41.631731" lon="-8.779634"><ele>75.5</ele></trkpt>
<trkpt lat="41.632377" lon="-8.779848"><ele>87.0</ele></trkpt>
<trkpt lat="41.632695" lon="-8.77994"><ele>87.8</ele></trkpt>
<trkpt lat="41.632817" lon="-8.779989"><ele>88.6</ele></trkpt>
<trkpt lat="41.633007" lon="-8.780049"><ele>90.2</ele></trkpt>
<trkpt lat="41.633259" lon="-8.780096"><ele>90.4</ele></trkpt>
<trkpt lat="41.633422" lon="-8.78012"><ele>89.8</ele></trkpt>
<trkpt lat="41.633652" lon="-8.780137"><ele>88.4</ele></trkpt>
<trkpt lat="41.633859" lon="-8.780131"><ele>86.6</ele></trkpt>
<trkpt lat="41.634116" lon="-8.780124"><ele>85.2</ele></trkpt>
<trkpt lat="41.634339" lon="-8.780138"><ele>83.2</ele></trkpt>
<trkpt lat="41.634678" lon="-8.780138"><ele>81.4</ele></trkpt>
<trkpt lat="41.634874" lon="-8.780148"><ele>81.2</ele></trkpt>
<trkpt lat="41.634985" lon="-8.780147"><ele>80.7</ele></trkpt>
<trkpt lat="41.635073" lon="-8.780176"><ele>80.7</ele></trkpt>
<trkpt lat="41.635227" lon="-8.780251"><ele>80.3</ele></trkpt>
<trkpt lat="41.635439" lon="-8.780364"><ele>80.7</ele></trkpt>
<trkpt lat="41.635614" lon="-8.780467"><ele>81.6</ele></trkpt>
<trkpt lat="41.635859" lon="-8.780563"><ele>82.2</ele></trkpt>
<trkpt lat="41.636125" lon="-8.78063"><ele>82.8</ele></trkpt>
<trkpt lat="41.636374" lon="-8.780705"><ele>83.2</ele></trkpt>
<trkpt lat="41.636596" lon="-8.780785"><ele>83.8</ele></trkpt>
<trkpt lat="41.636988" lon="-8.78092"><ele>85.4</ele></trkpt>
<trkpt lat="41.637126" lon="-8.780962"><ele>86.2</ele></trkpt>
<trkpt lat="41.637252" lon="-8.781011"><ele>86.3</ele></trkpt>
<trkpt lat="41.637379" lon="-8.781084"><ele>86.2</ele></trkpt>
<trkpt lat="41.637538" lon="-8.781173"><ele>86.4</ele></trkpt>
<trkpt lat="41.637709" lon="-8.781241"><ele>86.4</ele></trkpt>
<trkpt lat="41.637797" lon="-8.78126"><ele>86.4</ele></trkpt>
<trkpt lat="41.637873" lon="-8.78126"><ele>86.4</ele></trkpt>
<trkpt lat="41.637995" lon="-8.781179"><ele>86.6</ele></trkpt>
<trkpt lat="41.638149" lon="-8.781066"><ele>87.0</ele></trkpt>
<trkpt lat="41.63836" lon="-8.780912"><ele>88.5</ele></trkpt>
<trkpt lat="41.638553" lon="-8.780762"><ele>89.8</ele></trkpt>
<trkpt lat="41.638653" lon="-8.780672"><ele>90.2</ele></trkpt>
<trkpt lat="41.638742" lon="-8.780554"><ele>90.0</ele></trkpt>
<trkpt lat="41.638791" lon="-8.780435"><ele>90.2</ele></trkpt>
<trkpt lat="41.638794" lon="-8.780328"><ele>90.2</ele></trkpt>
<trkpt lat="41.638778" lon="-8.780214"><ele>89.8</ele></trkpt>
<trkpt lat="41.638716" lon="-8.780045"><ele>88.7</ele></trkpt>
<trkpt lat="41.638654" lon="-8.779845"><ele>88.1</ele></trkpt>
<trkpt lat="41.638597" lon="-8.77965"><ele>86.5</ele></trkpt>
<trkpt lat="41.63857" lon="-8.779485"><ele>85.4</ele></trkpt>
<trkpt lat="41.638559" lon="-8.779391"><ele>85.4</ele></trkpt>
<trkpt lat="41.638558" lon="-8.779228"><ele>84.7</ele></trkpt>
<trkpt lat="41.63859" lon="-8.779046"><ele>84.0</ele></trkpt>
<trkpt lat="41.63863" lon="-8.7789"><ele>83.6</ele></trkpt>
<trkpt lat="41.638669" lon="-8.778804"><ele>83.3</ele></trkpt>
<trkpt lat="41.638711" lon="-8.778672"><ele>82.1</ele></trkpt>
<trkpt lat="41.63875" lon="-8.778537"><ele>81.5</ele></trkpt>
<trkpt lat="41.638783" lon="-8.778406"><ele>80.4</ele></trkpt>
<trkpt lat="41.638802" lon="-8.778259"><ele>79.8</ele></trkpt>
<trkpt lat="41.638793" lon="-8.778162"><ele>79.5</ele></trkpt>
<trkpt lat="41.638775" lon="-8.778071"><ele>79.0</ele></trkpt>
<trkpt lat="41.638775" lon="-8.777982"><ele>79.0</ele></trkpt>
<trkpt lat="41.638801" lon="-8.777915"><ele>78.3</ele></trkpt>
<trkpt lat="41.638872" lon="-8.777816"><ele>77.4</ele></trkpt>
<trkpt lat="41.638914" lon="-8.777776"><ele>77.2</ele></trkpt>
<trkpt lat="41.638979" lon="-8.777737"><ele>77.0</ele></trkpt>
<trkpt lat="41.639034" lon="-8.777687"><ele>76.5</ele></trkpt>
<trkpt lat="41.639068" lon="-8.777636"><ele>76.5</ele></trkpt>
<trkpt lat="41.6391" lon="-8.777556"><ele>75.9</ele></trkpt>
<trkpt lat="41.639099" lon="-8.777342"><ele>75.5</ele></trkpt>
<trkpt lat="41.639164" lon="-8.777328"><ele>75.2</ele></trkpt>
<trkpt lat="41.639238" lon="-8.777301"><ele>75.2</ele></trkpt>
<trkpt lat="41.639279" lon="-8.777271"><ele>74.8</ele></trkpt>
<trkpt lat="41.639331" lon="-8.77723"><ele>74.2</ele></trkpt>
<trkpt lat="41.639397" lon="-8.777157"><ele>74.0</ele></trkpt>
<trkpt lat="41.639555" lon="-8.77695"><ele>71.4</ele></trkpt>
<trkpt lat="41.639648" lon="-8.776829"><ele>70.3</ele></trkpt>
<trkpt lat="41.639724" lon="-8.776744"><ele>69.9</ele></trkpt>
<trkpt lat="41.639821" lon="-8.776653"><ele>69.2</ele></trkpt>
<trkpt lat="41.63987" lon="-8.776614"><ele>69.2</ele></trkpt>
<trkpt lat="41.639922" lon="-8.776586"><ele>69.2</ele></trkpt>
<trkpt lat="41.640005" lon="-8.776567"><ele>69.2</ele></trkpt>
<trkpt lat="41.640048" lon="-8.776565"><ele>69.0</ele></trkpt>
<trkpt lat="41.640101" lon="-8.776574"><ele>69.0</ele></trkpt>
<trkpt lat="41.640141" lon="-8.776593"><ele>69.0</ele></trkpt>
<trkpt lat="41.640202" lon="-8.776616"><ele>69.5</ele></trkpt>
<trkpt lat="41.640262" lon="-8.776643"><ele>69.4</ele></trkpt>
<trkpt lat="41.640684" lon="-8.776911"><ele>74.8</ele></trkpt>
<trkpt lat="41.640961" lon="-8.77706"><ele>76.3</ele></trkpt>
<trkpt lat="41.641068" lon="-8.777114"><ele>76.3</ele></trkpt>
<trkpt lat="41.641152" lon="-8.777161"><ele>75.6</ele></trkpt>
<trkpt lat="41.641255" lon="-8.777145"><ele>74.9</ele></trkpt>
<trkpt lat="41.641316" lon="-8.777131"><ele>74.3</ele></trkpt>
<trkpt lat="41.641387" lon="-8.777107"><ele>73.4</ele></trkpt>
<trkpt lat="41.641612" lon="-8.777131"><ele>72.0</ele></trkpt>
<trkpt lat="41.641763" lon="-8.777158"><ele>70.9</ele></trkpt>
<trkpt lat="41.641811" lon="-8.777163"><ele>70.4</ele></trkpt>
<trkpt lat="41.641869" lon="-8.777155"><ele>69.8</ele></trkpt>
<trkpt lat="41.641906" lon="-8.777134"><ele>69.6</ele></trkpt>
<trkpt lat="41.642075" lon="-8.777015"><ele>69.0</ele></trkpt>
<trkpt lat="41.642159" lon="-8.776956"><ele>68.8</ele></trkpt>
<trkpt lat="41.642237" lon="-8.776918"><ele>68.8</ele></trkpt>
<trkpt lat="41.642323" lon="-8.776898"><ele>68.6</ele></trkpt>
<trkpt lat="41.642395" lon="-8.7769"><ele>68.5</ele></trkpt>
<trkpt lat="41.642478" lon="-8.776923"><ele>68.4</ele></trkpt>
<trkpt lat="41.642554" lon="-8.776958"><ele>67.8</ele></trkpt>
<trkpt lat="41.643008" lon="-8.777176"><ele>63.0</ele></trkpt>
<trkpt lat="41.643394" lon="-8.777372"><ele>59.7</ele></trkpt>
<trkpt lat="41.643559" lon="-8.777434"><ele>56.7</ele></trkpt>
<trkpt lat="41.643927" lon="-8.77758"><ele>52.8</ele></trkpt>
<trkpt lat="41.644376" lon="-8.777724"><ele>49.9</ele></trkpt>
<trkpt lat="41.644428" lon="-8.777747"><ele>49.9</ele></trkpt>
<trkpt lat="41.644467" lon="-8.777779"><ele>48.7</ele></trkpt>
<trkpt lat="41.644515" lon="-8.777831"><ele>48.7</ele></trkpt>
<trkpt lat="41.644718" lon="-8.77807"><ele>48.1</ele></trkpt>
<trkpt lat="41.644794" lon="-8.77817"><ele>48.1</ele></trkpt>
<trkpt lat="41.644865" lon="-8.778243"><ele>47.5</ele></trkpt>
<trkpt lat="41.645126" lon="-8.778457"><ele>44.3</ele></trkpt>
<trkpt lat="41.645379" lon="-8.778653"><ele>41.7</ele></trkpt>
<trkpt lat="41.645591" lon="-8.778816"><ele>41.2</ele></trkpt>
<trkpt lat="41.645923" lon="-8.779055"><ele>39.8</ele></trkpt>
<trkpt lat="41.64609" lon="-8.779221"><ele>39.3</ele></trkpt>
<trkpt lat="41.64613" lon="-8.779329"><ele>39.3</ele></trkpt>
<trkpt lat="41.646173" lon="-8.779488"><ele>39.3</ele></trkpt>
<trkpt lat="41.646218" lon="-8.779709"><ele>39.2</ele></trkpt>
<trkpt lat="41.646244" lon="-8.779876"><ele>39.1</ele></trkpt>
<trkpt lat="41.646306" lon="-8.78012"><ele>38.8</ele></trkpt>
<trkpt lat="41.64641" lon="-8.780415"><ele>37.9</ele></trkpt>
<trkpt lat="41.646527" lon="-8.780769"><ele>37.9</ele></trkpt>
<trkpt lat="41.646517" lon="-8.780802"><ele>37.7</ele></trkpt>
<trkpt lat="41.646508" lon="-8.780839"><ele>37.7</ele></trkpt>
<trkpt lat="41.646502" lon="-8.780878"><ele>37.7</ele></trkpt>
<trkpt lat="41.646496" lon="-8.780914"><ele>37.7</ele></trkpt>
<trkpt lat="41.646293" lon="-8.782197"><ele>31.0</ele></trkpt>
<trkpt lat="41.64737" lon="-8.782212"><ele>36.0</ele></trkpt>
<trkpt lat="41.647438" lon="-8.782214"><ele>36.0</ele></trkpt>
<trkpt lat="41.647493" lon="-8.782217"><ele>36.0</ele></trkpt>
<trkpt lat="41.647559" lon="-8.782235"><ele>36.1</ele></trkpt>
<trkpt lat="41.647653" lon="-8.782273"><ele>36.1</ele></trkpt>
<trkpt lat="41.647729" lon="-8.782302"><ele>36.1</ele></trkpt>
<trkpt lat="41.647783" lon="-8.782313"><ele>36.1</ele></trkpt>
<trkpt lat="41.647841" lon="-8.782308"><ele>36.1</ele></trkpt>
<trkpt lat="41.647897" lon="-8.78226"><ele>36.1</ele></trkpt>
<trkpt lat="41.64794" lon="-8.782199"><ele>36.2</ele></trkpt>
<trkpt lat="41.647966" lon="-8.782147"><ele>36.2</ele></trkpt>
<trkpt lat="41.648004" lon="-8.782094"><ele>36.2</ele></trkpt>
<trkpt lat="41.648042" lon="-8.782066"><ele>36.2</ele></trkpt>
<trkpt lat="41.648236" lon="-8.781979"><ele>36.3</ele></trkpt>
<trkpt lat="41.648657" lon="-8.781748"><ele>37.0</ele></trkpt>
<trkpt lat="41.649462" lon="-8.781672"><ele>33.6</ele></trkpt>
<trkpt lat="41.649458" lon="-8.781832"><ele>33.4</ele></trkpt>
<trkpt lat="41.649445" lon="-8.781996"><ele>33.4</ele></trkpt>
<trkpt lat="41.649427" lon="-8.782152"><ele>33.5</ele></trkpt>
<trkpt lat="41.6494" lon="-8.782296"><ele>33.5</ele></trkpt>
<trkpt lat="41.649379" lon="-8.782388"><ele>33.5</ele></trkpt>
<trkpt lat="41.649357" lon="-8.782483"><ele>33.5</ele></trkpt>
<trkpt lat="41.649242" lon="-8.782829"><ele>33.3</ele></trkpt>
<trkpt lat="41.649157" lon="-8.783031"><ele>33.4</ele></trkpt>
<trkpt lat="41.649445" lon="-8.783199"><ele>33.0</ele></trkpt>
<trkpt lat="41.649753" lon="-8.783403"><ele>31.4</ele></trkpt>
<trkpt lat="41.649919" lon="-8.783485"><ele>31.4</ele></trkpt>
<trkpt lat="41.650002" lon="-8.783439"><ele>31.0</ele></trkpt>
<trkpt lat="41.650268" lon="-8.783573"><ele>30.2</ele></trkpt>
<trkpt lat="41.650617" lon="-8.783701"><ele>27.0</ele></trkpt>
<trkpt lat="41.650851" lon="-8.78387"><ele>25.8</ele></trkpt>
<trkpt lat="41.651031" lon="-8.783989"><ele>25.9</ele></trkpt>
<trkpt lat="41.651097" lon="-8.784032"><ele>25.8</ele></trkpt>
<trkpt lat="41.651175" lon="-8.784156"><ele>25.7</ele></trkpt>
<trkpt lat="41.651294" lon="-8.784292"><ele>25.5</ele></trkpt>
<trkpt lat="41.651322" lon="-8.784329"><ele>25.5</ele></trkpt>
<trkpt lat="41.651365" lon="-8.784386"><ele>25.5</ele></trkpt>
<trkpt lat="41.651375" lon="-8.784429"><ele>25.5</ele></trkpt>
<trkpt lat="41.651383" lon="-8.784478"><ele>25.5</ele></trkpt>
<trkpt lat="41.651388" lon="-8.784523"><ele>25.5</ele></trkpt>
<trkpt lat="41.6514" lon="-8.784582"><ele>25.5</ele></trkpt>
<trkpt lat="41.651403" lon="-8.784636"><ele>25.5</ele></trkpt>
<trkpt lat="41.651377" lon="-8.784783"><ele>25.3</ele></trkpt>
<trkpt lat="41.651361" lon="-8.784858"><ele>25.4</ele></trkpt>
<trkpt lat="41.651337" lon="-8.784929"><ele>25.3</ele></trkpt>
<trkpt lat="41.651156" lon="-8.785272"><ele>24.6</ele></trkpt>
<trkpt lat="41.651202" lon="-8.78531"><ele>24.6</ele></trkpt>
<trkpt lat="41.651278" lon="-8.785416"><ele>24.5</ele></trkpt>
<trkpt lat="41.651392" lon="-8.785637"><ele>24.3</ele></trkpt>
<trkpt lat="41.651515" lon="-8.785911"><ele>24.2</ele></trkpt>
<trkpt lat="41.651659" lon="-8.78618"><ele>24.3</ele></trkpt>
<trkpt lat="41.651788" lon="-8.786343"><ele>24.3</ele></trkpt>
<trkpt lat="41.651952" lon="-8.786457"><ele>24.2</ele></trkpt>
<trkpt lat="41.652102" lon="-8.786549"><ele>23.9</ele></trkpt>
<trkpt lat="41.652207" lon="-8.786637"><ele>23.4</ele></trkpt>
<trkpt lat="41.652305" lon="-8.786724"><ele>23.0</ele></trkpt>
<trkpt lat="41.652492" lon="-8.786898"><ele>22.8</ele></trkpt>
<trkpt lat="41.652575" lon="-8.786965"><ele>22.7</ele></trkpt>
<trkpt lat="41.652632" lon="-8.787003"><ele>22.8</ele></trkpt>
<trkpt lat="41.652762" lon="-8.78709"><ele>22.8</ele></trkpt>
<trkpt lat="41.65281" lon="-8.787064"><ele>22.9</ele></trkpt>
<trkpt lat="41.652894" lon="-8.786972"><ele>23.0</ele></trkpt>
<trkpt lat="41.653038" lon="-8.786809"><ele>23.1</ele></trkpt>
<trkpt lat="41.653109" lon="-8.786725"><ele>23.3</ele></trkpt>
<trkpt lat="41.653145" lon="-8.786684"><ele>23.4</ele></trkpt>
<trkpt lat="41.653226" lon="-8.786655"><ele>23.5</ele></trkpt>
<trkpt lat="41.653311" lon="-8.786656"><ele>23.6</ele></trkpt>
<trkpt lat="41.65358" lon="-8.786614"><ele>23.3</ele></trkpt>
<trkpt lat="41.653689" lon="-8.786731"><ele>22.9</ele></trkpt>
<trkpt lat="41.653752" lon="-8.786791"><ele>22.7</ele></trkpt>
<trkpt lat="41.653848" lon="-8.786863"><ele>22.1</ele></trkpt>
<trkpt lat="41.653992" lon="-8.786981"><ele>22.1</ele></trkpt>
<trkpt lat="41.65413" lon="-8.786992"><ele>21.6</ele></trkpt>
<trkpt lat="41.654196" lon="-8.786988"><ele>21.2</ele></trkpt>
<trkpt lat="41.654347" lon="-8.78704"><ele>20.7</ele></trkpt>
<trkpt lat="41.654575" lon="-8.787096"><ele>20.2</ele></trkpt>
<trkpt lat="41.654687" lon="-8.78713"><ele>19.9</ele></trkpt>
<trkpt lat="41.654792" lon="-8.787177"><ele>19.6</ele></trkpt>
<trkpt lat="41.654826" lon="-8.787204"><ele>19.6</ele></trkpt>
<trkpt lat="41.65484" lon="-8.787222"><ele>19.5</ele></trkpt>
<trkpt lat="41.65491" lon="-8.787314"><ele>19.3</ele></trkpt>
<trkpt lat="41.655038" lon="-8.787472"><ele>19.2</ele></trkpt>
<trkpt lat="41.655128" lon="-8.787576"><ele>19.1</ele></trkpt>
<trkpt lat="41.655243" lon="-8.787685"><ele>18.9</ele></trkpt>
<trkpt lat="41.655377" lon="-8.787786"><ele>18.6</ele></trkpt>
<trkpt lat="41.655535" lon="-8.787925"><ele>19.2</ele></trkpt>
<trkpt lat="41.655828" lon="-8.788185"><ele>19.8</ele></trkpt>
<trkpt lat="41.655958" lon="-8.788293"><ele>19.7</ele></trkpt>
<trkpt lat="41.656048" lon="-8.788357"><ele>19.7</ele></trkpt>
<trkpt lat="41.656128" lon="-8.788456"><ele>19.6</ele></trkpt>
<trkpt lat="41.65617" lon="-8.788522"><ele>19.6</ele></trkpt>
<trkpt lat="41.656274" lon="-8.788683"><ele>19.2</ele></trkpt>
<trkpt lat="41.65637" lon="-8.788828"><ele>18.9</ele></trkpt>
<trkpt lat="41.656467" lon="-8.788982"><ele>18.7</ele></trkpt>
<trkpt lat="41.656565" lon="-8.789143"><ele>18.3</ele></trkpt>
<trkpt lat="41.656607" lon="-8.789226"><ele>18.2</ele></trkpt>
<trkpt lat="41.656632" lon="-8.789301"><ele>18.0</ele></trkpt>
<trkpt lat="41.656655" lon="-8.789411"><ele>17.8</ele></trkpt>
<trkpt lat="41.656666" lon="-8.78951"><ele>17.5</ele></trkpt>
<trkpt lat="41.656692" lon="-8.78969"><ele>17.1</ele></trkpt>
<trkpt lat="41.656726" lon="-8.789846"><ele>16.8</ele></trkpt>
<trkpt lat="41.656746" lon="-8.789953"><ele>16.7</ele></trkpt>
<trkpt lat="41.656778" lon="-8.790031"><ele>16.6</ele></trkpt>
<trkpt lat="41.656834" lon="-8.790114"><ele>16.5</ele></trkpt>
<trkpt lat="41.656882" lon="-8.790176"><ele>16.3</ele></trkpt>
<trkpt lat="41.65698" lon="-8.790232"><ele>16.2</ele></trkpt>
<trkpt lat="41.657035" lon="-8.790245"><ele>16.1</ele></trkpt>
<trkpt lat="41.657091" lon="-8.790205"><ele>16.0</ele></trkpt>
<trkpt lat="41.657153" lon="-8.79012"><ele>15.9</ele></trkpt>
<trkpt lat="41.657225" lon="-8.790044"><ele>15.8</ele></trkpt>
<trkpt lat="41.657325" lon="-8.789988"><ele>15.5</ele></trkpt>
<trkpt lat="41.657443" lon="-8.78994"><ele>15.2</ele></trkpt>
<trkpt lat="41.657517" lon="-8.789921"><ele>15.1</ele></trkpt>
<trkpt lat="41.657619" lon="-8.789924"><ele>14.8</ele></trkpt>
<trkpt lat="41.657706" lon="-8.789937"><ele>14.7</ele></trkpt>
<trkpt lat="41.657776" lon="-8.789961"><ele>14.6</ele></trkpt>
<trkpt lat="41.657866" lon="-8.789969"><ele>14.4</ele></trkpt>
<trkpt lat="41.658" lon="-8.789958"><ele>14.2</ele></trkpt>
<trkpt lat="41.658127" lon="-8.789932"><ele>14.1</ele></trkpt>
<trkpt lat="41.658455" lon="-8.789781"><ele>13.6</ele></trkpt>
<trkpt lat="41.658609" lon="-8.789688"><ele>13.4</ele></trkpt>
<trkpt lat="41.658692" lon="-8.789607"><ele>13.4</ele></trkpt>
<trkpt lat="41.658741" lon="-8.789518"><ele>13.5</ele></trkpt>
<trkpt lat="41.658815" lon="-8.789279"><ele>14.0</ele></trkpt>
<trkpt lat="41.658883" lon="-8.789115"><ele>14.2</ele></trkpt>
<trkpt lat="41.658921" lon="-8.789035"><ele>14.2</ele></trkpt>
<trkpt lat="41.658958" lon="-8.78892"><ele>14.5</ele></trkpt>
<trkpt lat="41.65896" lon="-8.788843"><ele>14.6</ele></trkpt>
<trkpt lat="41.658952" lon="-8.788757"><ele>14.6</ele></trkpt>
<trkpt lat="41.658932" lon="-8.788682"><ele>14.6</ele></trkpt>
<trkpt lat="41.658928" lon="-8.788608"><ele>14.6</ele></trkpt>
<trkpt lat="41.65894" lon="-8.788536"><ele>14.8</ele></trkpt>
<trkpt lat="41.659219" lon="-8.788343"><ele>15.2</ele></trkpt>
<trkpt lat="41.659664" lon="-8.788043"><ele>16.2</ele></trkpt>
<trkpt lat="41.659872" lon="-8.787923"><ele>16.3</ele></trkpt>
<trkpt lat="41.660132" lon="-8.787737"><ele>17.3</ele></trkpt>
<trkpt lat="41.660337" lon="-8.787517"><ele>18.2</ele></trkpt>
<trkpt lat="41.660381" lon="-8.787462"><ele>18.2</ele></trkpt>
<trkpt lat="41.660541" lon="-8.787711"><ele>18.3</ele></trkpt>
<trkpt lat="41.660714" lon="-8.787925"><ele>18.6</ele></trkpt>
<trkpt lat="41.66076" lon="-8.788046"><ele>19.0</ele></trkpt>
<trkpt lat="41.661018" lon="-8.788655"><ele>19.3</ele></trkpt>
<trkpt lat="41.661211" lon="-8.789103"><ele>19.8</ele></trkpt>
<trkpt lat="41.661343" lon="-8.789389"><ele>19.6</ele></trkpt>
<trkpt lat="41.661339" lon="-8.789483"><ele>19.6</ele></trkpt>
<trkpt lat="41.661351" lon="-8.789691"><ele>19.3</ele></trkpt>
<trkpt lat="41.661403" lon="-8.789881"><ele>19.2</ele></trkpt>
<trkpt lat="41.661519" lon="-8.790361"><ele>19.2</ele></trkpt>
<trkpt lat="41.661648" lon="-8.79082"><ele>20.2</ele></trkpt>
<trkpt lat="41.661752" lon="-8.790988"><ele>20.5</ele></trkpt>
<trkpt lat="41.661816" lon="-8.791061"><ele>21.4</ele></trkpt>
<trkpt lat="41.661976" lon="-8.791299"><ele>22.2</ele></trkpt>
<trkpt lat="41.662061" lon="-8.791463"><ele>22.6</ele></trkpt>
<trkpt lat="41.662123" lon="-8.791582"><ele>23.0</ele></trkpt>
<trkpt lat="41.662136" lon="-8.791626"><ele>23.2</ele></trkpt>
<trkpt lat="41.662157" lon="-8.791691"><ele>23.5</ele></trkpt>
<trkpt lat="41.662187" lon="-8.79177"><ele>23.8</ele></trkpt>
<trkpt lat="41.662222" lon="-8.79184"><ele>23.8</ele></trkpt>
<trkpt lat="41.662266" lon="-8.791903"><ele>24.1</ele></trkpt>
<trkpt lat="41.662323" lon="-8.791992"><ele>24.6</ele></trkpt>
<trkpt lat="41.662367" lon="-8.792104"><ele>24.8</ele></trkpt>
<trkpt lat="41.662398" lon="-8.79223"><ele>25.3</ele></trkpt>
<trkpt lat="41.662397" lon="-8.792357"><ele>26.1</ele></trkpt>
<trkpt lat="41.66244" lon="-8.792394"><ele>26.4</ele></trkpt>
<trkpt lat="41.662497" lon="-8.792467"><ele>26.9</ele></trkpt>
<trkpt lat="41.662594" lon="-8.792615"><ele>27.9</ele></trkpt>
<trkpt lat="41.662682" lon="-8.792744"><ele>29.3</ele></trkpt>
<trkpt lat="41.662731" lon="-8.79281"><ele>29.8</ele></trkpt>
<trkpt lat="41.662786" lon="-8.792868"><ele>30.3</ele></trkpt>
<trkpt lat="41.662906" lon="-8.792949"><ele>31.4</ele></trkpt>
<trkpt lat="41.662965" lon="-8.792987"><ele>31.7</ele></trkpt>
<trkpt lat="41.663032" lon="-8.793067"><ele>32.0</ele></trkpt>
<trkpt lat="41.663055" lon="-8.793132"><ele>32.0</ele></trkpt>
<trkpt lat="41.663076" lon="-8.793176"><ele>32.0</ele></trkpt>
<trkpt lat="41.663096" lon="-8.793231"><ele>32.2</ele></trkpt>
<trkpt lat="41.663119" lon="-8.793403"><ele>32.4</ele></trkpt>
<trkpt lat="41.663153" lon="-8.793481"><ele>32.8</ele></trkpt>
<trkpt lat="41.663199" lon="-8.793527"><ele>32.8</ele></trkpt>
<trkpt lat="41.663236" lon="-8.793541"><ele>33.0</ele></trkpt>
<trkpt lat="41.663284" lon="-8.793543"><ele>33.1</ele></trkpt>
<trkpt lat="41.66344" lon="-8.794039"><ele>34.0</ele></trkpt>
<trkpt lat="41.663454" lon="-8.794222"><ele>34.0</ele></trkpt>
<trkpt lat="41.663597" lon="-8.794313"><ele>33.8</ele></trkpt>
<trkpt lat="41.66388" lon="-8.794478"><ele>33.2</ele></trkpt>
<trkpt lat="41.664064" lon="-8.794449"><ele>32.7</ele></trkpt>
<trkpt lat="41.664148" lon="-8.794481"><ele>32.4</ele></trkpt>
<trkpt lat="41.664263" lon="-8.794503"><ele>32.4</ele></trkpt>
<trkpt lat="41.664451" lon="-8.79451"><ele>32.3</ele></trkpt>
<trkpt lat="41.664547" lon="-8.794515"><ele>32.4</ele></trkpt>
<trkpt lat="41.664663" lon="-8.794542"><ele>32.4</ele></trkpt>
<trkpt lat="41.664901" lon="-8.794588"><ele>32.6</ele></trkpt>
<trkpt lat="41.665062" lon="-8.794693"><ele>32.7</ele></trkpt>
<trkpt lat="41.665146" lon="-8.79475"><ele>32.8</ele></trkpt>
<trkpt lat="41.665222" lon="-8.794786"><ele>33.0</ele></trkpt>
<trkpt lat="41.665858" lon="-8.794635"><ele>38.6</ele></trkpt>
<trkpt lat="41.665872" lon="-8.794629"><ele>38.6</ele></trkpt>
<trkpt lat="41.665882" lon="-8.794621"><ele>38.6</ele></trkpt>
<trkpt lat="41.665895" lon="-8.794611"><ele>38.6</ele></trkpt>
<trkpt lat="41.665909" lon="-8.794588"><ele>38.6</ele></trkpt>
<trkpt lat="41.665918" lon="-8.794578"><ele>38.6</ele></trkpt>
<trkpt lat="41.665927" lon="-8.794571"><ele>38.6</ele></trkpt>
<trkpt lat="41.665943" lon="-8.794568"><ele>38.8</ele></trkpt>
<trkpt lat="41.665956" lon="-8.794568"><ele>38.8</ele></trkpt>
<trkpt lat="41.665979" lon="-8.794569"><ele>38.8</ele></trkpt>
<trkpt lat="41.666098" lon="-8.794586"><ele>38.8</ele></trkpt>
<trkpt lat="41.666282" lon="-8.79462"><ele>39.8</ele></trkpt>
<trkpt lat="41.666474" lon="-8.794649"><ele>41.3</ele></trkpt>
<trkpt lat="41.666637" lon="-8.794649"><ele>42.6</ele></trkpt>
<trkpt lat="41.666747" lon="-8.794677"><ele>42.7</ele></trkpt>
<trkpt lat="41.666775" lon="-8.79475"><ele>42.7</ele></trkpt>
<trkpt lat="41.666798" lon="-8.794816"><ele>42.7</ele></trkpt>
<trkpt lat="41.666973" lon="-8.794813"><ele>43.0</ele></trkpt>
<trkpt lat="41.667099" lon="-8.794835"><ele>43.2</ele></trkpt>
<trkpt lat="41.667176" lon="-8.794875"><ele>43.4</ele></trkpt>
<trkpt lat="41.667278" lon="-8.794964"><ele>43.7</ele></trkpt>
<trkpt lat="41.667446" lon="-8.795157"><ele>44.6</ele></trkpt>
<trkpt lat="41.667514" lon="-8.795237"><ele>44.8</ele></trkpt>
<trkpt lat="41.667583" lon="-8.795272"><ele>46.0</ele></trkpt>
<trkpt lat="41.667667" lon="-8.795253"><ele>47.4</ele></trkpt>
<trkpt lat="41.667887" lon="-8.795039"><ele>48.0</ele></trkpt>
<trkpt lat="41.668007" lon="-8.794937"><ele>52.0</ele></trkpt>
<trkpt lat="41.668112" lon="-8.794891"><ele>53.2</ele></trkpt>
<trkpt lat="41.668357" lon="-8.794462"><ele>55.8</ele></trkpt>
<trkpt lat="41.668444" lon="-8.794572"><ele>55.8</ele></trkpt>
<trkpt lat="41.668781" lon="-8.79528"><ele>59.4</ele></trkpt>
<trkpt lat="41.668826" lon="-8.795382"><ele>59.4</ele></trkpt>
<trkpt lat="41.668845" lon="-8.795412"><ele>59.4</ele></trkpt>
<trkpt lat="41.668866" lon="-8.795435"><ele>59.4</ele></trkpt>
<trkpt lat="41.668895" lon="-8.795465"><ele>59.4</ele></trkpt>
<trkpt lat="41.66894" lon="-8.795499"><ele>59.4</ele></trkpt>
<trkpt lat="41.669025" lon="-8.795548"><ele>59.4</ele></trkpt>
<trkpt lat="41.669171" lon="-8.795604"><ele>60.0</ele></trkpt>
<trkpt lat="41.669628" lon="-8.795751"><ele>64.5</ele></trkpt>
<trkpt lat="41.669698" lon="-8.795787"><ele>66.0</ele></trkpt>
<trkpt lat="41.66978" lon="-8.795842"><ele>66.0</ele></trkpt>
<trkpt lat="41.670416" lon="-8.796337"><ele>77.0</ele></trkpt>
<trkpt lat="41.671229" lon="-8.796828"><ele>89.0</ele></trkpt>
<trkpt lat="41.671502" lon="-8.796996"><ele>89.6</ele></trkpt>
<trkpt lat="41.671619" lon="-8.797067"><ele>89.6</ele></trkpt>
<trkpt lat="41.671782" lon="-8.79723"><ele>90.4</ele></trkpt>
<trkpt lat="41.6719" lon="-8.797383"><ele>90.4</ele></trkpt>
<trkpt lat="41.672061" lon="-8.797611"><ele>91.8</ele></trkpt>
<trkpt lat="41.672281" lon="-8.797996"><ele>94.0</ele></trkpt>
<trkpt lat="41.672392" lon="-8.798201"><ele>96.3</ele></trkpt>
<trkpt lat="41.672614" lon="-8.79861"><ele>97.5</ele></trkpt>
<trkpt lat="41.672973" lon="-8.799393"><ele>103.0</ele></trkpt>
<trkpt lat="41.673218" lon="-8.799831"><ele>102.8</ele></trkpt>
<trkpt lat="41.673271" lon="-8.799908"><ele>102.8</ele></trkpt>
<trkpt lat="41.673328" lon="-8.799981"><ele>102.3</ele></trkpt>
<trkpt lat="41.673969" lon="-8.800803"><ele>94.6</ele></trkpt>
<trkpt lat="41.673987" lon="-8.800831"><ele>94.6</ele></trkpt>
<trkpt lat="41.674002" lon="-8.800859"><ele>93.8</ele></trkpt>
<trkpt lat="41.674016" lon="-8.80089"><ele>93.8</ele></trkpt>
<trkpt lat="41.674031" lon="-8.800935"><ele>92.9</ele></trkpt>
<trkpt lat="41.674036" lon="-8.800956"><ele>92.9</ele></trkpt>
<trkpt lat="41.674101" lon="-8.801501"><ele>88.9</ele></trkpt>
<trkpt lat="41.674121" lon="-8.80155"><ele>87.8</ele></trkpt>
<trkpt lat="41.674178" lon="-8.801628"><ele>86.5</ele></trkpt>
<trkpt lat="41.674225" lon="-8.80166"><ele>84.8</ele></trkpt>
<trkpt lat="41.67427" lon="-8.801669"><ele>84.8</ele></trkpt>
<trkpt lat="41.674314" lon="-8.801666"><ele>84.8</ele></trkpt>
<trkpt lat="41.674341" lon="-8.801661"><ele>84.8</ele></trkpt>
<trkpt lat="41.674383" lon="-8.801649"><ele>84.5</ele></trkpt>
<trkpt lat="41.674482" lon="-8.801597"><ele>83.9</ele></trkpt>
<trkpt lat="41.674584" lon="-8.801537"><ele>83.5</ele></trkpt>
<trkpt lat="41.674827" lon="-8.80132"><ele>80.3</ele></trkpt>
<trkpt lat="41.674895" lon="-8.80128"><ele>79.1</ele></trkpt>
<trkpt lat="41.674947" lon="-8.801256"><ele>79.1</ele></trkpt>
<trkpt lat="41.675045" lon="-8.801225"><ele>78.6</ele></trkpt>
<trkpt lat="41.675095" lon="-8.801222"><ele>77.0</ele></trkpt>
<trkpt lat="41.67513" lon="-8.801223"><ele>77.0</ele></trkpt>
<trkpt lat="41.675424" lon="-8.801288"><ele>74.4</ele></trkpt>
<trkpt lat="41.675596" lon="-8.801337"><ele>71.0</ele></trkpt>
<trkpt lat="41.675832" lon="-8.801394"><ele>67.7</ele></trkpt>
<trkpt lat="41.675946" lon="-8.80145"><ele>67.1</ele></trkpt>
<trkpt lat="41.676038" lon="-8.801503"><ele>66.4</ele></trkpt>
<trkpt lat="41.676117" lon="-8.801562"><ele>65.8</ele></trkpt>
<trkpt lat="41.676204" lon="-8.801626"><ele>65.8</ele></trkpt>
<trkpt lat="41.676356" lon="-8.801763"><ele>63.7</ele></trkpt>
<trkpt lat="41.676791" lon="-8.802181"><ele>57.3</ele></trkpt>
<trkpt lat="41.677003" lon="-8.802412"><ele>54.5</ele></trkpt>
<trkpt lat="41.677538" lon="-8.803042"><ele>43.8</ele></trkpt>
<trkpt lat="41.677588" lon="-8.803124"><ele>42.6</ele></trkpt>
<trkpt lat="41.67762" lon="-8.803197"><ele>42.6</ele></trkpt>
<trkpt lat="41.677871" lon="-8.803409"><ele>42.6</ele></trkpt>
<trkpt lat="41.677978" lon="-8.803518"><ele>40.6</ele></trkpt>
<trkpt lat="41.678307" lon="-8.803967"><ele>36.0</ele></trkpt>
<trkpt lat="41.678536" lon="-8.804261"><ele>34.0</ele></trkpt>
<trkpt lat="41.678743" lon="-8.804525"><ele>32.0</ele></trkpt>
<trkpt lat="41.678956" lon="-8.804797"><ele>30.0</ele></trkpt>
<trkpt lat="41.679173" lon="-8.805048"><ele>27.8</ele></trkpt>
<trkpt lat="41.679454" lon="-8.805391"><ele>25.8</ele></trkpt>
<trkpt lat="41.679542" lon="-8.805503"><ele>25.8</ele></trkpt>
<trkpt lat="41.679788" lon="-8.805839"><ele>24.0</ele></trkpt>
<trkpt lat="41.680066" lon="-8.806218"><ele>20.7</ele></trkpt>
<trkpt lat="41.680447" lon="-8.806725"><ele>18.1</ele></trkpt>
<trkpt lat="41.680487" lon="-8.806786"><ele>17.9</ele></trkpt>
<trkpt lat="41.680505" lon="-8.806841"><ele>17.9</ele></trkpt>
<trkpt lat="41.680527" lon="-8.806907"><ele>17.9</ele></trkpt>
<trkpt lat="41.680519" lon="-8.806942"><ele>17.9</ele></trkpt>
<trkpt lat="41.680519" lon="-8.806978"><ele>17.9</ele></trkpt>
<trkpt lat="41.680528" lon="-8.807019"><ele>17.9</ele></trkpt>
<trkpt lat="41.680547" lon="-8.807054"><ele>17.9</ele></trkpt>
<trkpt lat="41.680572" lon="-8.807079"><ele>17.9</ele></trkpt>
<trkpt lat="41.680603" lon="-8.807092"><ele>17.9</ele></trkpt>
<trkpt lat="41.68063" lon="-8.807093"><ele>17.9</ele></trkpt>
<trkpt lat="41.680647" lon="-8.807088"><ele>17.9</ele></trkpt>
<trkpt lat="41.680736" lon="-8.807099"><ele>17.9</ele></trkpt>
<trkpt lat="41.680864" lon="-8.807139"><ele>17.9</ele></trkpt>
<trkpt lat="41.681596" lon="-8.807998"><ele>15.0</ele></trkpt>
<trkpt lat="41.681753" lon="-8.808183"><ele>14.7</ele></trkpt>
<trkpt lat="41.682031" lon="-8.808508"><ele>13.8</ele></trkpt>
<trkpt lat="41.682205" lon="-8.8087"><ele>13.3</ele></trkpt>
<trkpt lat="41.682362" lon="-8.808886"><ele>13.3</ele></trkpt>
<trkpt lat="41.683923" lon="-8.810717"><ele>12.0</ele></trkpt>
<trkpt lat="41.684563" lon="-8.811315"><ele>8.0</ele></trkpt>
<trkpt lat="41.685031" lon="-8.811736"><ele>7.0</ele></trkpt>
<trkpt lat="41.685147" lon="-8.81184"><ele>7.0</ele></trkpt>
<trkpt lat="41.685888" lon="-8.812503"><ele>5.0</ele></trkpt>
<trkpt lat="41.685935" lon="-8.812541"><ele>5.0</ele></trkpt>
<trkpt lat="41.686006" lon="-8.81259"><ele>5.0</ele></trkpt>
<trkpt lat="41.686091" lon="-8.812628"><ele>5.0</ele></trkpt>
<trkpt lat="41.686215" lon="-8.812669"><ele>5.0</ele></trkpt>
<trkpt lat="41.686342" lon="-8.812691"><ele>5.0</ele></trkpt>
<trkpt lat="41.686332" lon="-8.812785"><ele>5.0</ele></trkpt>
<trkpt lat="41.686337" lon="-8.81284"><ele>5.0</ele></trkpt>
<trkpt lat="41.686357" lon="-8.812906"><ele>5.0</ele></trkpt>
<trkpt lat="41.686962" lon="-8.813478"><ele>2.3</ele></trkpt>
<trkpt lat="41.686938" lon="-8.813556"><ele>2.3</ele></trkpt>
<trkpt lat="41.686959" lon="-8.813571"><ele>2.3</ele></trkpt>
<trkpt lat="41.687013" lon="-8.813613"><ele>2.3</ele></trkpt>
<trkpt lat="41.687032" lon="-8.813558"><ele>2.3</ele></trkpt>
<trkpt lat="41.687048" lon="-8.813511"><ele>2.3</ele></trkpt>
<trkpt lat="41.687113" lon="-8.813326"><ele>2.3</ele></trkpt>
<trkpt lat="41.687163" lon="-8.813244"><ele>2.3</ele></trkpt>
<trkpt lat="41.687231" lon="-8.813169"><ele>2.3</ele></trkpt>
<trkpt lat="41.687298" lon="-8.813125"><ele>2.3</ele></trkpt>
<trkpt lat="41.687486" lon="-8.813058"><ele>2.3</ele></trkpt>
<trkpt lat="41.687962" lon="-8.8129"><ele>0.4</ele></trkpt>
<trkpt lat="41.688083" lon="-8.812869"><ele>0.2</ele></trkpt>
<trkpt lat="41.688166" lon="-8.812861"><ele>0.2</ele></trkpt>
<trkpt lat="41.688281" lon="-8.812888"><ele>0.2</ele></trkpt>
<trkpt lat="41.688354" lon="-8.812938"><ele>0.2</ele></trkpt>
<trkpt lat="41.688422" lon="-8.813009"><ele>0.1</ele></trkpt>
<trkpt lat="41.688801" lon="-8.813487"><ele>0.0</ele></trkpt>
<trkpt lat="41.689251" lon="-8.814073"><ele>0.0</ele></trkpt>
<trkpt lat="41.68956" lon="-8.814471"><ele>0.0</ele></trkpt>
<trkpt lat="41.689688" lon="-8.814645"><ele>0.0</ele></trkpt>
<trkpt lat="41.689725" lon="-8.814597"><ele>0.0</ele></trkpt>
<trkpt lat="41.689732" lon="-8.814605"><ele>0.0</ele></trkpt>
<trkpt lat="41.690065" lon="-8.814975"><ele>0.0</ele></trkpt>
<trkpt lat="41.691102" lon="-8.81632"><ele>0.0</ele></trkpt>
<trkpt lat="41.69118" lon="-8.816344"><ele>0.0</ele></trkpt>
<trkpt lat="41.691247" lon="-8.816405"><ele>0.0</ele></trkpt>
<trkpt lat="41.694945" lon="-8.821189"><ele>5.0</ele></trkpt>
<trkpt lat="41.695021" lon="-8.821375"><ele>5.7</ele></trkpt>
<trkpt lat="41.695387" lon="-8.821862"><ele>7.4</ele></trkpt>
<trkpt lat="41.695658" lon="-8.822205"><ele>8.2</ele></trkpt>
<trkpt lat="41.695724" lon="-8.822293"><ele>8.2</ele></trkpt>
<trkpt lat="41.69575" lon="-8.822361"><ele>8.2</ele></trkpt>
<trkpt lat="41.695753" lon="-8.822427"><ele>8.2</ele></trkpt>
<trkpt lat="41.695744" lon="-8.822487"><ele>8.2</ele></trkpt>
<trkpt lat="41.695729" lon="-8.822543"><ele>8.2</ele></trkpt>
<trkpt lat="41.695692" lon="-8.82258"><ele>8.4</ele></trkpt>
<trkpt lat="41.695662" lon="-8.822644"><ele>8.4</ele></trkpt>
<trkpt lat="41.695652" lon="-8.822696"><ele>8.4</ele></trkpt>
<trkpt lat="41.695663" lon="-8.822743"><ele>8.4</ele></trkpt>
<trkpt lat="41.695675" lon="-8.822772"><ele>8.4</ele></trkpt>
<trkpt lat="41.695597" lon="-8.822806"><ele>8.4</ele></trkpt>
<trkpt lat="41.695397" lon="-8.823156"><ele>8.4</ele></trkpt>
<trkpt lat="41.69519" lon="-8.82352"><ele>9.0</ele></trkpt>
<trkpt lat="41.694984" lon="-8.823891"><ele>8.0</ele></trkpt>
<trkpt lat="41.694687" lon="-8.824419"><ele>7.3</ele></trkpt>
<trkpt lat="41.694354" lon="-8.824953"><ele>7.6</ele></trkpt>
<trkpt lat="41.694266" lon="-8.825118"><ele>7.7</ele></trkpt>
<trkpt lat="41.694201" lon="-8.82527"><ele>7.7</ele></trkpt>
<trkpt lat="41.69419" lon="-8.825306"><ele>7.7</ele></trkpt>
<trkpt lat="41.694186" lon="-8.825338"><ele>7.7</ele></trkpt>
<trkpt lat="41.694187" lon="-8.82537"><ele>7.7</ele></trkpt>
<trkpt lat="41.694196" lon="-8.825431"><ele>7.7</ele></trkpt>
<trkpt lat="41.693394" lon="-8.826373"><ele>12.0</ele></trkpt>
<trkpt lat="41.693366" lon="-8.826396"><ele>12.0</ele></trkpt>
<trkpt lat="41.693338" lon="-8.82642"><ele>12.0</ele></trkpt>
<trkpt lat="41.693211" lon="-8.82657"><ele>11.8</ele></trkpt>
<trkpt lat="41.692782" lon="-8.826964"><ele>11.6</ele></trkpt>
<trkpt lat="41.692748" lon="-8.827001"><ele>11.5</ele></trkpt>
<trkpt lat="41.692714" lon="-8.827038"><ele>11.5</ele></trkpt>
<trkpt lat="41.692594" lon="-8.827191"><ele>11.7</ele></trkpt>
<trkpt lat="41.692286" lon="-8.827595"><ele>12.1</ele></trkpt>
<trkpt lat="41.692232" lon="-8.827688"><ele>12.1</ele></trkpt>
<trkpt lat="41.692181" lon="-8.827783"><ele>12.1</ele></trkpt>
<trkpt lat="41.69213" lon="-8.827885"><ele>12.3</ele></trkpt>
<trkpt lat="41.692127" lon="-8.827902"><ele>12.3</ele></trkpt>
<trkpt lat="41.692274" lon="-8.828027"><ele>12.3</ele></trkpt>
<trkpt lat="41.69241" lon="-8.828135"><ele>12.3</ele></trkpt>
<trkpt lat="41.692495" lon="-8.828212"><ele>12.3</ele></trkpt>
<trkpt lat="41.692578" lon="-8.828287"><ele>12.5</ele></trkpt>
<trkpt lat="41.692965" lon="-8.827735"><ele>12.6</ele></trkpt>
<trkpt lat="41.693188" lon="-8.827438"><ele>12.6</ele></trkpt>
<trkpt lat="41.693294" lon="-8.827561"><ele>12.2</ele></trkpt>
<trkpt lat="41.693444" lon="-8.827787"><ele>11.6</ele></trkpt>
<trkpt lat="41.693493" lon="-8.827856"><ele>11.6</ele></trkpt>
<trkpt lat="41.693633" lon="-8.828014"><ele>11.2</ele></trkpt>
<trkpt lat="41.693677" lon="-8.828303"><ele>10.7</ele></trkpt>
<trkpt lat="41.69369" lon="-8.828387"><ele>10.7</ele></trkpt>
<trkpt lat="41.693931" lon="-8.828695"><ele>10.5</ele></trkpt>
<trkpt lat="41.694224" lon="-8.829071"><ele>10.8</ele></trkpt>
<trkpt lat="41.694242" lon="-8.829094"><ele>10.8</ele></trkpt>
<trkpt lat="41.694223" lon="-8.829161"><ele>10.8</ele></trkpt>
<trkpt lat="41.693809" lon="-8.830147"><ele>13.0</ele></trkpt>
<trkpt lat="41.693781" lon="-8.830214"><ele>13.0</ele></trkpt>
<trkpt lat="41.69374" lon="-8.830312"><ele>13.0</ele></trkpt>
<trkpt lat="41.693556" lon="-8.830757"><ele>13.0</ele></trkpt>
<trkpt lat="41.693184" lon="-8.831782"><ele>12.0</ele></trkpt>
<trkpt lat="41.693021" lon="-8.832201"><ele>11.4</ele></trkpt>
<trkpt lat="41.692947" lon="-8.832401"><ele>11.4</ele></trkpt>
<trkpt lat="41.692828" lon="-8.832714"><ele>11.3</ele></trkpt>
<trkpt lat="41.692865" lon="-8.832769"><ele>11.4</ele></trkpt>
<trkpt lat="41.692886" lon="-8.832795"><ele>11.4</ele></trkpt>
<trkpt lat="41.692904" lon="-8.832812"><ele>11.4</ele></trkpt>
<trkpt lat="41.692912" lon="-8.83282"><ele>11.4</ele></trkpt>
<trkpt lat="41.693327" lon="-8.833106"><ele>11.2</ele></trkpt>
</trkseg></trk></gpx>