<?xml version="1.0" encoding="UTF-8"?>
<gpx version="1.1" creator="caminho-in-october (OpenStreetMap data, ODbL)" xmlns="http://www.topografix.com/GPX/1/1">
<metadata><name>Caminho Portugues da Costa - stage 5</name><copyright author="OpenStreetMap contributors"><license>https://www.openstreetmap.org/copyright</license></copyright></metadata>
<trk><name>stage 5</name><trkseg>
<trkpt lat="41.894877" lon="-8.862182"><ele>79.4</ele></trkpt>
<trkpt lat="41.894975" lon="-8.86214"><ele>78.8</ele></trkpt>
<trkpt lat="41.895047" lon="-8.86211"><ele>78.8</ele></trkpt>
<trkpt lat="41.895126" lon="-8.862043"><ele>78.1</ele></trkpt>
<trkpt lat="41.895207" lon="-8.86199"><ele>77.7</ele></trkpt>
<trkpt lat="41.895258" lon="-8.86195"><ele>77.7</ele></trkpt>
<trkpt lat="41.895336" lon="-8.861862"><ele>77.5</ele></trkpt>
<trkpt lat="41.895401" lon="-8.861803"><ele>76.7</ele></trkpt>
<trkpt lat="41.89553" lon="-8.861737"><ele>75.2</ele></trkpt>
<trkpt lat="41.895674" lon="-8.861674"><ele>74.6</ele></trkpt>
<trkpt lat="41.895819" lon="-8.861613"><ele>73.4</ele></trkpt>
<trkpt lat="41.895965" lon="-8.86154"><ele>72.1</ele></trkpt>
<trkpt lat="41.896168" lon="-8.861439"><ele>70.5</ele></trkpt>
<trkpt lat="41.896238" lon="-8.861303"><ele>70.0</ele></trkpt>
<trkpt lat="41.896344" lon="-8.86118"><ele>68.4</ele></trkpt>
<trkpt lat="41.896424" lon="-8.86111"><ele>67.0</ele></trkpt>
<trkpt lat="41.896582" lon="-8.861056"><ele>66.6</ele></trkpt>
<trkpt lat="41.896822" lon="-8.860945"><ele>65.2</ele></trkpt>
<trkpt lat="41.89692" lon="-8.860922"><ele>65.0</ele></trkpt>
<trkpt lat="41.896994" lon="-8.860947"><ele>65.1</ele></trkpt>
<trkpt lat="41.897158" lon="-8.861002"><ele>65.1</ele></trkpt>
<trkpt lat="41.89725" lon="-8.861019"><ele>65.1</ele></trkpt>
<trkpt lat="41.897332" lon="-8.861074"><ele>65.2</ele></trkpt>
<trkpt lat="41.897435" lon="-8.861153"><ele>65.6</ele></trkpt>
<trkpt lat="41.897646" lon="-8.861261"><ele>65.1</ele></trkpt>
<trkpt lat="41.897799" lon="-8.86135"><ele>64.6</ele></trkpt>
<trkpt lat="41.898022" lon="-8.861397"><ele>60.9</ele></trkpt>
<trkpt lat="41.898115" lon="-8.861394"><ele>59.8</ele></trkpt>
<trkpt lat="41.898254" lon="-8.861473"><ele>58.1</ele></trkpt>
<trkpt lat="41.898348" lon="-8.861497"><ele>56.4</ele></trkpt>
<trkpt lat="41.898411" lon="-8.861513"><ele>55.9</ele></trkpt>
<trkpt lat="41.898545" lon="-8.861391"><ele>55.5</ele></trkpt>
<trkpt lat="41.898606" lon="-8.861474"><ele>54.2</ele></trkpt>
<trkpt lat="41.898709" lon="-8.861628"><ele>53.1</ele></trkpt>
<trkpt lat="41.898821" lon="-8.86177"><ele>52.1</ele></trkpt>
<trkpt lat="41.898859" lon="-8.861815"><ele>51.4</ele></trkpt>
<trkpt lat="41.898922" lon="-8.861883"><ele>50.7</ele></trkpt>
<trkpt lat="41.898978" lon="-8.86193"><ele>50.6</ele></trkpt>
<trkpt lat="41.89909" lon="-8.862008"><ele>50.4</ele></trkpt>
<trkpt lat="41.899233" lon="-8.862083"><ele>50.3</ele></trkpt>
<trkpt lat="41.899561" lon="-8.862224"><ele>50.0</ele></trkpt>
<trkpt lat="41.900012" lon="-8.862428"><ele>52.7</ele></trkpt>
<trkpt lat="41.900088" lon="-8.862469"><ele>53.3</ele></trkpt>
<trkpt lat="41.900159" lon="-8.862515"><ele>53.9</ele></trkpt>
<trkpt lat="41.900267" lon="-8.862598"><ele>53.9</ele></trkpt>
<trkpt lat="41.900347" lon="-8.862672"><ele>53.9</ele></trkpt>
<trkpt lat="41.900467" lon="-8.86277"><ele>54.1</ele></trkpt>
<trkpt lat="41.900561" lon="-8.862876"><ele>55.0</ele></trkpt>
<trkpt lat="41.9008" lon="-8.863126"><ele>55.5</ele></trkpt>
<trkpt lat="41.901072" lon="-8.863415"><ele>52.5</ele></trkpt>
<trkpt lat="41.901226" lon="-8.863579"><ele>50.2</ele></trkpt>
<trkpt lat="41.901397" lon="-8.863796"><ele>49.5</ele></trkpt>
<trkpt lat="41.901495" lon="-8.863907"><ele>48.6</ele></trkpt>
<trkpt lat="41.901563" lon="-8.863971"><ele>48.6</ele></trkpt>
<trkpt lat="41.901629" lon="-8.86403"><ele>48.6</ele></trkpt>
<trkpt lat="41.901719" lon="-8.864079"><ele>48.1</ele></trkpt>
<trkpt lat="41.901811" lon="-8.86411"><ele>48.1</ele></trkpt>
<trkpt lat="41.90193" lon="-8.864143"><ele>47.8</ele></trkpt>
<trkpt lat="41.902213" lon="-8.864214"><ele>46.6</ele></trkpt>
<trkpt lat="41.902392" lon="-8.864271"><ele>45.9</ele></trkpt>
<trkpt lat="41.902545" lon="-8.86432"><ele>45.6</ele></trkpt>
<trkpt lat="41.902691" lon="-8.864376"><ele>45.4</ele></trkpt>
<trkpt lat="41.902774" lon="-8.864414"><ele>45.3</ele></trkpt>
<trkpt lat="41.902868" lon="-8.864456"><ele>45.4</ele></trkpt>
<trkpt lat="41.902934" lon="-8.864509"><ele>45.3</ele></trkpt>
<trkpt lat="41.90298" lon="-8.864547"><ele>45.3</ele></trkpt>
<trkpt lat="41.903013" lon="-8.86461"><ele>45.4</ele></trkpt>
<trkpt lat="41.903038" lon="-8.864649"><ele>45.4</ele></trkpt>
<trkpt lat="41.903065" lon="-8.864709"><ele>45.5</ele></trkpt>
<trkpt lat="41.903093" lon="-8.864789"><ele>45.5</ele></trkpt>
<trkpt lat="41.903115" lon="-8.864874"><ele>45.6</ele></trkpt>
<trkpt lat="41.903128" lon="-8.86495"><ele>45.6</ele></trkpt>
<trkpt lat="41.903138" lon="-8.865031"><ele>45.6</ele></trkpt>
<trkpt lat="41.903141" lon="-8.865101"><ele>45.8</ele></trkpt>
<trkpt lat="41.903137" lon="-8.865304"><ele>46.0</ele></trkpt>
<trkpt lat="41.903128" lon="-8.865402"><ele>46.5</ele></trkpt>
<trkpt lat="41.903084" lon="-8.86577"><ele>47.9</ele></trkpt>
<trkpt lat="41.90305" lon="-8.866063"><ele>48.3</ele></trkpt>
<trkpt lat="41.903041" lon="-8.866186"><ele>48.3</ele></trkpt>
<trkpt lat="41.903044" lon="-8.86627"><ele>48.3</ele></trkpt>
<trkpt lat="41.903052" lon="-8.866332"><ele>48.3</ele></trkpt>
<trkpt lat="41.903074" lon="-8.866454"><ele>48.3</ele></trkpt>
<trkpt lat="41.903284" lon="-8.867487"><ele>47.2</ele></trkpt>
<trkpt lat="41.903281" lon="-8.867646"><ele>47.2</ele></trkpt>
<trkpt lat="41.903274" lon="-8.867749"><ele>46.7</ele></trkpt>
<trkpt lat="41.903255" lon="-8.867954"><ele>46.7</ele></trkpt>
<trkpt lat="41.903219" lon="-8.868037"><ele>46.1</ele></trkpt>
<trkpt lat="41.90307" lon="-8.868367"><ele>44.6</ele></trkpt>
<trkpt lat="41.902975" lon="-8.868593"><ele>43.0</ele></trkpt>
<trkpt lat="41.902937" lon="-8.868697"><ele>42.2</ele></trkpt>
<trkpt lat="41.902911" lon="-8.868837"><ele>41.7</ele></trkpt>
<trkpt lat="41.902843" lon="-8.869133"><ele>40.8</ele></trkpt>
<trkpt lat="41.90277" lon="-8.869474"><ele>39.6</ele></trkpt>
<trkpt lat="41.9027" lon="-8.869817"><ele>39.2</ele></trkpt>
<trkpt lat="41.902677" lon="-8.869921"><ele>39.0</ele></trkpt>
<trkpt lat="41.902535" lon="-8.870592"><ele>39.0</ele></trkpt>
<trkpt lat="41.902527" lon="-8.870664"><ele>39.2</ele></trkpt>
<trkpt lat="41.902525" lon="-8.870744"><ele>39.2</ele></trkpt>
<trkpt lat="41.902526" lon="-8.870805"><ele>39.2</ele></trkpt>
<trkpt lat="41.902528" lon="-8.870979"><ele>39.2</ele></trkpt>
<trkpt lat="41.902533" lon="-8.871377"><ele>40.1</ele></trkpt>
<trkpt lat="41.902537" lon="-8.871755"><ele>41.2</ele></trkpt>
<trkpt lat="41.902538" lon="-8.871858"><ele>41.2</ele></trkpt>
<trkpt lat="41.902543" lon="-8.871966"><ele>41.4</ele></trkpt>
<trkpt lat="41.902574" lon="-8.872601"><ele>42.0</ele></trkpt>
<trkpt lat="41.90258" lon="-8.872918"><ele>42.2</ele></trkpt>
<trkpt lat="41.902582" lon="-8.872933"><ele>42.2</ele></trkpt>
<trkpt lat="41.902585" lon="-8.873142"><ele>42.4</ele></trkpt>
<trkpt lat="41.902591" lon="-8.873266"><ele>42.6</ele></trkpt>
<trkpt lat="41.902599" lon="-8.873318"><ele>42.6</ele></trkpt>
<trkpt lat="41.902619" lon="-8.873399"><ele>42.8</ele></trkpt>
<trkpt lat="41.902641" lon="-8.873454"><ele>42.8</ele></trkpt>
<trkpt lat="41.902761" lon="-8.873659"><ele>43.2</ele></trkpt>
<trkpt lat="41.902834" lon="-8.873794"><ele>43.4</ele></trkpt>
<trkpt lat="41.902904" lon="-8.873917"><ele>43.8</ele></trkpt>
<trkpt lat="41.903021" lon="-8.87409"><ele>44.4</ele></trkpt>
<trkpt lat="41.903301" lon="-8.874518"><ele>44.0</ele></trkpt>
<trkpt lat="41.903523" lon="-8.874867"><ele>43.1</ele></trkpt>
<trkpt lat="41.903564" lon="-8.874923"><ele>43.0</ele></trkpt>
<trkpt lat="41.903542" lon="-8.874978"><ele>43.0</ele></trkpt>
<trkpt lat="41.903544" lon="-8.875019"><ele>43.0</ele></trkpt>
<trkpt lat="41.903556" lon="-8.875061"><ele>42.9</ele></trkpt>
<trkpt lat="41.903633" lon="-8.875161"><ele>42.2</ele></trkpt>
<trkpt lat="41.903671" lon="-8.875207"><ele>42.2</ele></trkpt>
<trkpt lat="41.903726" lon="-8.875269"><ele>42.1</ele></trkpt>
<trkpt lat="41.903811" lon="-8.875312"><ele>42.1</ele></trkpt>
<trkpt lat="41.903859" lon="-8.875356"><ele>41.8</ele></trkpt>
<trkpt lat="41.903886" lon="-8.875368"><ele>41.8</ele></trkpt>
<trkpt lat="41.903922" lon="-8.875381"><ele>41.7</ele></trkpt>
<trkpt lat="41.903999" lon="-8.875409"><ele>41.3</ele></trkpt>
<trkpt lat="41.904037" lon="-8.875422"><ele>40.9</ele></trkpt>
<trkpt lat="41.904076" lon="-8.87545"><ele>40.6</ele></trkpt>
<trkpt lat="41.904097" lon="-8.875477"><ele>40.6</ele></trkpt>
<trkpt lat="41.904147" lon="-8.87555"><ele>40.0</ele></trkpt>
<trkpt lat="41.904263" lon="-8.875735"><ele>39.5</ele></trkpt>
<trkpt lat="41.904394" lon="-8.875906"><ele>38.3</ele></trkpt>
<trkpt lat="41.904428" lon="-8.875939"><ele>37.8</ele></trkpt>
<trkpt lat="41.904495" lon="-8.875982"><ele>37.2</ele></trkpt>
<trkpt lat="41.904598" lon="-8.876056"><ele>36.9</ele></trkpt>
<trkpt lat="41.904803" lon="-8.876178"><ele>36.6</ele></trkpt>
<trkpt lat="41.90488" lon="-8.876227"><ele>36.3</ele></trkpt>
<trkpt lat="41.905007" lon="-8.87629"><ele>36.1</ele></trkpt>
<trkpt lat="41.905111" lon="-8.876336"><ele>35.4</ele></trkpt>
<trkpt lat="41.905276" lon="-8.87639"><ele>35.4</ele></trkpt>
<trkpt lat="41.905388" lon="-8.876423"><ele>35.3</ele></trkpt>
<trkpt lat="41.905542" lon="-8.876429"><ele>35.3</ele></trkpt>
<trkpt lat="41.905595" lon="-8.876436"><ele>35.3</ele></trkpt>
<trkpt lat="41.905624" lon="-8.876436"><ele>35.3</ele></trkpt>
<trkpt lat="41.905661" lon="-8.876414"><ele>35.3</ele></trkpt>
<trkpt lat="41.90568" lon="-8.876397"><ele>35.3</ele></trkpt>
<trkpt lat="41.905597" lon="-8.876268"><ele>35.3</ele></trkpt>
<trkpt lat="41.905477" lon="-8.876141"><ele>35.4</ele></trkpt>
<trkpt lat="41.905549" lon="-8.876047"><ele>35.3</ele></trkpt>
<trkpt lat="41.905625" lon="-8.875931"><ele>35.3</ele></trkpt>
<trkpt lat="41.905732" lon="-8.875836"><ele>35.1</ele></trkpt>
<trkpt lat="41.905847" lon="-8.875758"><ele>35.0</ele></trkpt>
<trkpt lat="41.905944" lon="-8.875717"><ele>34.8</ele></trkpt>
<trkpt lat="41.906135" lon="-8.87568"><ele>33.7</ele></trkpt>
<trkpt lat="41.906278" lon="-8.875647"><ele>32.6</ele></trkpt>
<trkpt lat="41.906404" lon="-8.875652"><ele>31.4</ele></trkpt>
<trkpt lat="41.90662" lon="-8.875686"><ele>30.1</ele></trkpt>
<trkpt lat="41.906764" lon="-8.87571"><ele>28.1</ele></trkpt>
<trkpt lat="41.906881" lon="-8.875741"><ele>27.5</ele></trkpt>
<trkpt lat="41.906997" lon="-8.875773"><ele>22.8</ele></trkpt>
<trkpt lat="41.907254" lon="-8.875945"><ele>16.8</ele></trkpt>
<trkpt lat="41.907393" lon="-8.876035"><ele>14.4</ele></trkpt>
<trkpt lat="41.907297" lon="-8.87624"><ele>15.2</ele></trkpt>
<trkpt lat="41.907169" lon="-8.876424"><ele>15.5</ele></trkpt>
<trkpt lat="41.907082" lon="-8.87655"><ele>15.4</ele></trkpt>
<trkpt lat="41.907116" lon="-8.876551"><ele>15.0</ele></trkpt>
<trkpt lat="41.907183" lon="-8.876533"><ele>14.7</ele></trkpt>
<trkpt lat="41.907273" lon="-8.876486"><ele>14.7</ele></trkpt>
<trkpt lat="41.907359" lon="-8.876432"><ele>14.4</ele></trkpt>
<trkpt lat="41.907426" lon="-8.876381"><ele>13.6</ele></trkpt>
<trkpt lat="41.9075" lon="-8.876313"><ele>13.3</ele></trkpt>
<trkpt lat="41.907574" lon="-8.876242"><ele>11.8</ele></trkpt>
<trkpt lat="41.907604" lon="-8.876202"><ele>11.3</ele></trkpt>
<trkpt lat="41.907726" lon="-8.875989"><ele>9.9</ele></trkpt>
<trkpt lat="41.907846" lon="-8.876102"><ele>8.8</ele></trkpt>
<trkpt lat="41.907876" lon="-8.876132"><ele>8.5</ele></trkpt>
<trkpt lat="41.907942" lon="-8.876012"><ele>8.2</ele></trkpt>
<trkpt lat="41.908178" lon="-8.876051"><ele>6.5</ele></trkpt>
<trkpt lat="41.908217" lon="-8.87597"><ele>6.9</ele></trkpt>
<trkpt lat="41.908301" lon="-8.87602"><ele>5.6</ele></trkpt>
<trkpt lat="41.908257" lon="-8.876133"><ele>5.6</ele></trkpt>
<trkpt lat="41.908332" lon="-8.876263"><ele>5.6</ele></trkpt>
<trkpt lat="41.908377" lon="-8.876357"><ele>5.4</ele></trkpt>
<trkpt lat="41.908413" lon="-8.876467"><ele>4.9</ele></trkpt>
<trkpt lat="41.908534" lon="-8.876567"><ele>3.6</ele></trkpt>
<trkpt lat="41.90858" lon="-8.876552"><ele>3.6</ele></trkpt>
<trkpt lat="41.908642" lon="-8.876501"><ele>3.4</ele></trkpt>
<trkpt lat="41.908886" lon="-8.876859"><ele>1.6</ele></trkpt>
<trkpt lat="41.908963" lon="-8.876964"><ele>1.6</ele></trkpt>
<trkpt lat="41.909023" lon="-8.877009"><ele>1.3</ele></trkpt>
<trkpt lat="41.909087" lon="-8.877045"><ele>1.0</ele></trkpt>
<trkpt lat="41.909133" lon="-8.877072"><ele>1.0</ele></trkpt>
<trkpt lat="41.909176" lon="-8.877031"><ele>1.0</ele></trkpt>
<trkpt lat="41.90956" lon="-8.876733"><ele>1.8</ele></trkpt>
<trkpt lat="41.909598" lon="-8.876715"><ele>1.9</ele></trkpt>
<trkpt lat="41.909639" lon="-8.876711"><ele>2.4</ele></trkpt>
<trkpt lat="41.909679" lon="-8.876694"><ele>2.9</ele></trkpt>
<trkpt lat="41.909708" lon="-8.876639"><ele>3.2</ele></trkpt>
<trkpt lat="41.909713" lon="-8.876597"><ele>3.4</ele></trkpt>
<trkpt lat="41.909762" lon="-8.876163"><ele>3.9</ele></trkpt>
<trkpt lat="41.909779" lon="-8.876132"><ele>4.1</ele></trkpt>
<trkpt lat="41.909837" lon="-8.876057"><ele>4.7</ele></trkpt>
<trkpt lat="41.909891" lon="-8.87604"><ele>5.0</ele></trkpt>
<trkpt lat="41.909962" lon="-8.876025"><ele>5.4</ele></trkpt>
<trkpt lat="41.910022" lon="-8.876024"><ele>5.7</ele></trkpt>
<trkpt lat="41.910117" lon="-8.876049"><ele>5.9</ele></trkpt>
<trkpt lat="41.910237" lon="-8.876107"><ele>5.7</ele></trkpt>
<trkpt lat="41.910304" lon="-8.87615"><ele>5.6</ele></trkpt>
<trkpt lat="41.91036" lon="-8.876208"><ele>5.6</ele></trkpt>
<trkpt lat="41.910404" lon="-8.876265"><ele>5.3</ele></trkpt>
<trkpt lat="41.910433" lon="-8.876339"><ele>5.3</ele></trkpt>
<trkpt lat="41.910441" lon="-8.876401"><ele>4.9</ele></trkpt>
<trkpt lat="41.910434" lon="-8.876434"><ele>4.9</ele></trkpt>
<trkpt lat="41.91042" lon="-8.8765"><ele>4.9</ele></trkpt>
<trkpt lat="41.910348" lon="-8.876814"><ele>4.2</ele></trkpt>
<trkpt lat="41.910397" lon="-8.876841"><ele>4.0</ele></trkpt>
<trkpt lat="41.910365" lon="-8.876987"><ele>3.5</ele></trkpt>
<trkpt lat="41.910278" lon="-8.877079"><ele>3.0</ele></trkpt>
<trkpt lat="41.91037" lon="-8.877419"><ele>2.0</ele></trkpt>
<trkpt lat="41.910428" lon="-8.877469"><ele>1.8</ele></trkpt>
<trkpt lat="41.910554" lon="-8.877558"><ele>1.6</ele></trkpt>
<trkpt lat="41.910663" lon="-8.877707"><ele>1.7</ele></trkpt>
<trkpt lat="41.910712" lon="-8.877775"><ele>1.8</ele></trkpt>
<trkpt lat="41.910761" lon="-8.877934"><ele>2.0</ele></trkpt>
<trkpt lat="41.910813" lon="-8.877968"><ele>2.0</ele></trkpt>
<trkpt lat="41.910834" lon="-8.878018"><ele>2.1</ele></trkpt>
<trkpt lat="41.910882" lon="-8.878126"><ele>2.2</ele></trkpt>
<trkpt lat="41.910929" lon="-8.878228"><ele>2.3</ele></trkpt>
<trkpt lat="41.910969" lon="-8.878284"><ele>2.6</ele></trkpt>
<trkpt lat="41.911006" lon="-8.878317"><ele>3.1</ele></trkpt>
<trkpt lat="41.911053" lon="-8.878349"><ele>3.4</ele></trkpt>
<trkpt lat="41.911115" lon="-8.878387"><ele>3.7</ele></trkpt>
<trkpt lat="41.911166" lon="-8.878413"><ele>3.9</ele></trkpt>
<trkpt lat="41.911228" lon="-8.878432"><ele>4.5</ele></trkpt>
<trkpt lat="41.911305" lon="-8.878443"><ele>5.0</ele></trkpt>
<trkpt lat="41.911371" lon="-8.878436"><ele>5.2</ele></trkpt>
<trkpt lat="41.911452" lon="-8.878424"><ele>5.5</ele></trkpt>
<trkpt lat="41.911507" lon="-8.87841"><ele>5.8</ele></trkpt>
<trkpt lat="41.911532" lon="-8.87844"><ele>5.8</ele></trkpt>
<trkpt lat="41.91157" lon="-8.878483"><ele>6.0</ele></trkpt>
<trkpt lat="41.911615" lon="-8.878553"><ele>6.3</ele></trkpt>
<trkpt lat="41.911651" lon="-8.878622"><ele>6.5</ele></trkpt>
<trkpt lat="41.911675" lon="-8.878716"><ele>6.8</ele></trkpt>
<trkpt lat="41.911685" lon="-8.878817"><ele>6.8</ele></trkpt>
<trkpt lat="41.911692" lon="-8.878872"><ele>7.0</ele></trkpt>
<trkpt lat="41.911709" lon="-8.878919"><ele>7.0</ele></trkpt>
<trkpt lat="41.911732" lon="-8.878961"><ele>7.2</ele></trkpt>
<trkpt lat="41.911761" lon="-8.878974"><ele>7.3</ele></trkpt>
<trkpt lat="41.911797" lon="-8.879017"><ele>7.4</ele></trkpt>
<trkpt lat="41.911841" lon="-8.879083"><ele>7.6</ele></trkpt>
<trkpt lat="41.91188" lon="-8.879227"><ele>7.9</ele></trkpt>
<trkpt lat="41.911915" lon="-8.879336"><ele>7.9</ele></trkpt>
<trkpt lat="41.911924" lon="-8.879472"><ele>7.9</ele></trkpt>
<trkpt lat="41.911965" lon="-8.879567"><ele>8.1</ele></trkpt>
<trkpt lat="41.912027" lon="-8.87962"><ele>8.1</ele></trkpt>
<trkpt lat="41.912084" lon="-8.879685"><ele>8.1</ele></trkpt>
<trkpt lat="41.912127" lon="-8.879742"><ele>7.6</ele></trkpt>
<trkpt lat="41.912145" lon="-8.879785"><ele>7.1</ele></trkpt>
<trkpt lat="41.912175" lon="-8.879944"><ele>5.7</ele></trkpt>
<trkpt lat="41.912219" lon="-8.880073"><ele>5.4</ele></trkpt>
<trkpt lat="41.912276" lon="-8.880199"><ele>5.0</ele></trkpt>
<trkpt lat="41.912325" lon="-8.880362"><ele>4.2</ele></trkpt>
<trkpt lat="41.912323" lon="-8.880395"><ele>4.1</ele></trkpt>
<trkpt lat="41.912317" lon="-8.880427"><ele>3.7</ele></trkpt>
<trkpt lat="41.912289" lon="-8.880467"><ele>3.7</ele></trkpt>
<trkpt lat="41.91226" lon="-8.880503"><ele>3.3</ele></trkpt>
<trkpt lat="41.912226" lon="-8.880538"><ele>3.3</ele></trkpt>
<trkpt lat="41.912214" lon="-8.880574"><ele>3.3</ele></trkpt>
<trkpt lat="41.912215" lon="-8.880661"><ele>3.3</ele></trkpt>
<trkpt lat="41.91223" lon="-8.880761"><ele>3.0</ele></trkpt>
<trkpt lat="41.912251" lon="-8.880883"><ele>2.8</ele></trkpt>
<trkpt lat="41.912289" lon="-8.881055"><ele>2.6</ele></trkpt>
<trkpt lat="41.912309" lon="-8.881078"><ele>2.8</ele></trkpt>
<trkpt lat="41.912335" lon="-8.881114"><ele>2.6</ele></trkpt>
<trkpt lat="41.912432" lon="-8.88121"><ele>2.5</ele></trkpt>
<trkpt lat="41.912523" lon="-8.88131"><ele>2.9</ele></trkpt>
<trkpt lat="41.912625" lon="-8.881365"><ele>3.0</ele></trkpt>
<trkpt lat="41.912781" lon="-8.881422"><ele>3.5</ele></trkpt>
<trkpt lat="41.913002" lon="-8.881479"><ele>3.7</ele></trkpt>
<trkpt lat="41.913182" lon="-8.881509"><ele>4.0</ele></trkpt>
<trkpt lat="41.913207" lon="-8.881514"><ele>4.0</ele></trkpt>
<trkpt lat="41.913237" lon="-8.881528"><ele>4.0</ele></trkpt>
<trkpt lat="41.913277" lon="-8.881569"><ele>4.0</ele></trkpt>
<trkpt lat="41.913354" lon="-8.881653"><ele>4.0</ele></trkpt>
<trkpt lat="41.913391" lon="-8.881695"><ele>4.0</ele></trkpt>
<trkpt lat="41.913437" lon="-8.881728"><ele>4.1</ele></trkpt>
<trkpt lat="41.913614" lon="-8.881777"><ele>4.7</ele></trkpt>
<trkpt lat="41.913644" lon="-8.881795"><ele>4.7</ele></trkpt>
<trkpt lat="41.913773" lon="-8.8819"><ele>4.7</ele></trkpt>
<trkpt lat="41.913903" lon="-8.88199"><ele>4.7</ele></trkpt>
<trkpt lat="41.913937" lon="-8.882006"><ele>4.7</ele></trkpt>
<trkpt lat="41.913957" lon="-8.882011"><ele>4.7</ele></trkpt>
<trkpt lat="41.913979" lon="-8.881993"><ele>4.7</ele></trkpt>
<trkpt lat="41.914007" lon="-8.881942"><ele>4.7</ele></trkpt>
<trkpt lat="41.914028" lon="-8.881884"><ele>4.7</ele></trkpt>
<trkpt lat="41.914057" lon="-8.881832"><ele>4.7</ele></trkpt>
<trkpt lat="41.91408" lon="-8.881813"><ele>4.7</ele></trkpt>
<trkpt lat="41.91411" lon="-8.881827"><ele>4.7</ele></trkpt>
<trkpt lat="41.914195" lon="-8.881887"><ele>4.5</ele></trkpt>
<trkpt lat="41.91422" lon="-8.881918"><ele>4.5</ele></trkpt>
<trkpt lat="41.914238" lon="-8.881955"><ele>4.5</ele></trkpt>
<trkpt lat="41.914256" lon="-8.882047"><ele>4.5</ele></trkpt>
<trkpt lat="41.914261" lon="-8.882086"><ele>4.5</ele></trkpt>
<trkpt lat="41.91427" lon="-8.882119"><ele>4.5</ele></trkpt>
<trkpt lat="41.914279" lon="-8.882146"><ele>4.5</ele></trkpt>
<trkpt lat="41.914313" lon="-8.882174"><ele>4.3</ele></trkpt>
<trkpt lat="41.914411" lon="-8.882213"><ele>4.1</ele></trkpt>
<trkpt lat="41.914553" lon="-8.882267"><ele>3.0</ele></trkpt>
<trkpt lat="41.914635" lon="-8.882285"><ele>2.9</ele></trkpt>
<trkpt lat="41.914771" lon="-8.882324"><ele>2.1</ele></trkpt>
<trkpt lat="41.914816" lon="-8.882334"><ele>2.0</ele></trkpt>
<trkpt lat="41.914855" lon="-8.882342"><ele>1.9</ele></trkpt>
<trkpt lat="41.914916" lon="-8.882403"><ele>1.9</ele></trkpt>
<trkpt lat="41.914989" lon="-8.882471"><ele>1.9</ele></trkpt>
<trkpt lat="41.915043" lon="-8.882529"><ele>1.9</ele></trkpt>
<trkpt lat="41.915087" lon="-8.882587"><ele>1.8</ele></trkpt>
<trkpt lat="41.915114" lon="-8.882621"><ele>1.8</ele></trkpt>
<trkpt lat="41.915146" lon="-8.882648"><ele>1.9</ele></trkpt>
<trkpt lat="41.915191" lon="-8.882661"><ele>1.9</ele></trkpt>
<trkpt lat="41.915294" lon="-8.882678"><ele>2.0</ele></trkpt>
<trkpt lat="41.915347" lon="-8.882688"><ele>2.1</ele></trkpt>
<trkpt lat="41.915398" lon="-8.882717"><ele>2.1</ele></trkpt>
<trkpt lat="41.91546" lon="-8.882735"><ele>2.2</ele></trkpt>
<trkpt lat="41.915502" lon="-8.882741"><ele>2.3</ele></trkpt>
<trkpt lat="41.915556" lon="-8.882723"><ele>2.3</ele></trkpt>
<trkpt lat="41.915628" lon="-8.88271"><ele>2.5</ele></trkpt>
<trkpt lat="41.915671" lon="-8.882697"><ele>2.6</ele></trkpt>
<trkpt lat="41.915717" lon="-8.882693"><ele>2.6</ele></trkpt>
<trkpt lat="41.915747" lon="-8.882712"><ele>2.7</ele></trkpt>
<trkpt lat="41.91577" lon="-8.882734"><ele>2.7</ele></trkpt>
<trkpt lat="41.915812" lon="-8.882755"><ele>2.7</ele></trkpt>
<trkpt lat="41.915863" lon="-8.88277"><ele>2.8</ele></trkpt>
<trkpt lat="41.915905" lon="-8.882787"><ele>2.8</ele></trkpt>
<trkpt lat="41.915955" lon="-8.88281"><ele>2.8</ele></trkpt>
<trkpt lat="41.916017" lon="-8.882863"><ele>2.8</ele></trkpt>
<trkpt lat="41.916047" lon="-8.882886"><ele>2.8</ele></trkpt>
<trkpt lat="41.916079" lon="-8.882931"><ele>2.8</ele></trkpt>
<trkpt lat="41.916124" lon="-8.883026"><ele>2.8</ele></trkpt>
<trkpt lat="41.916157" lon="-8.883119"><ele>2.6</ele></trkpt>
<trkpt lat="41.91619" lon="-8.883187"><ele>2.6</ele></trkpt>
<trkpt lat="41.916217" lon="-8.883259"><ele>2.6</ele></trkpt>
<trkpt lat="41.916231" lon="-8.883319"><ele>2.5</ele></trkpt>
<trkpt lat="41.916263" lon="-8.88339"><ele>2.5</ele></trkpt>
<trkpt lat="41.916307" lon="-8.883461"><ele>2.4</ele></trkpt>
<trkpt lat="41.916357" lon="-8.883521"><ele>2.4</ele></trkpt>
<trkpt lat="41.916401" lon="-8.883566"><ele>2.4</ele></trkpt>
<trkpt lat="41.916465" lon="-8.883613"><ele>2.4</ele></trkpt>
<trkpt lat="41.916497" lon="-8.883629"><ele>2.4</ele></trkpt>
<trkpt lat="41.916559" lon="-8.883627"><ele>2.4</ele></trkpt>
<trkpt lat="41.916743" lon="-8.883577"><ele>2.3</ele></trkpt>
<trkpt lat="41.916851" lon="-8.883541"><ele>2.3</ele></trkpt>
<trkpt lat="41.916991" lon="-8.883488"><ele>2.4</ele></trkpt>
<trkpt lat="41.917052" lon="-8.883476"><ele>2.5</ele></trkpt>
<trkpt lat="41.917112" lon="-8.883488"><ele>2.6</ele></trkpt>
<trkpt lat="41.917154" lon="-8.883499"><ele>2.6</ele></trkpt>
<trkpt lat="41.917239" lon="-8.883477"><ele>2.6</ele></trkpt>
<trkpt lat="41.917305" lon="-8.883415"><ele>2.8</ele></trkpt>
<trkpt lat="41.91744" lon="-8.883341"><ele>2.8</ele></trkpt>
<trkpt lat="41.917635" lon="-8.883341"><ele>2.8</ele></trkpt>
<trkpt lat="41.917706" lon="-8.883299"><ele>2.9</ele></trkpt>
<trkpt lat="41.917768" lon="-8.883294"><ele>3.0</ele></trkpt>
<trkpt lat="41.917811" lon="-8.883275"><ele>3.0</ele></trkpt>
<trkpt lat="41.917951" lon="-8.883265"><ele>3.1</ele></trkpt>
<trkpt lat="41.918061" lon="-8.8833"><ele>3.1</ele></trkpt>
<trkpt lat="41.918348" lon="-8.883451"><ele>3.2</ele></trkpt>
<trkpt lat="41.91845" lon="-8.883489"><ele>3.2</ele></trkpt>
<trkpt lat="41.918555" lon="-8.883514"><ele>3.0</ele></trkpt>
<trkpt lat="41.918754" lon="-8.883526"><ele>3.0</ele></trkpt>
<trkpt lat="41.919166" lon="-8.883526"><ele>4.8</ele></trkpt>
<trkpt lat="41.919257" lon="-8.883211"><ele>7.6</ele></trkpt>
<trkpt lat="41.919338" lon="-8.882935"><ele>10.5</ele></trkpt>
<trkpt lat="41.919394" lon="-8.882736"><ele>11.6</ele></trkpt>
<trkpt lat="41.919419" lon="-8.882618"><ele>12.6</ele></trkpt>
<trkpt lat="41.919437" lon="-8.882524"><ele>13.7</ele></trkpt>
<trkpt lat="41.919431" lon="-8.882438"><ele>13.7</ele></trkpt>
<trkpt lat="41.919391" lon="-8.882339"><ele>14.5</ele></trkpt>
<trkpt lat="41.919118" lon="-8.882035"><ele>19.5</ele></trkpt>
<trkpt lat="41.919028" lon="-8.881939"><ele>23.1</ele></trkpt>
<trkpt lat="41.918914" lon="-8.881773"><ele>23.8</ele></trkpt>
<trkpt lat="41.918892" lon="-8.881685"><ele>23.8</ele></trkpt>
<trkpt lat="41.918895" lon="-8.881605"><ele>24.6</ele></trkpt>
<trkpt lat="41.918912" lon="-8.881525"><ele>24.6</ele></trkpt>
<trkpt lat="41.918967" lon="-8.881405"><ele>25.4</ele></trkpt>
<trkpt lat="41.919032" lon="-8.881304"><ele>26.5</ele></trkpt>
<trkpt lat="41.919114" lon="-8.881242"><ele>26.5</ele></trkpt>
<trkpt lat="41.919292" lon="-8.881168"><ele>29.8</ele></trkpt>
<trkpt lat="41.919421" lon="-8.881114"><ele>32.4</ele></trkpt>
<trkpt lat="41.919531" lon="-8.881065"><ele>33.1</ele></trkpt>
<trkpt lat="41.919635" lon="-8.880977"><ele>36.0</ele></trkpt>
<trkpt lat="41.919713" lon="-8.880845"><ele>36.6</ele></trkpt>
<trkpt lat="41.919749" lon="-8.880746"><ele>37.1</ele></trkpt>
<trkpt lat="41.919773" lon="-8.88062"><ele>37.1</ele></trkpt>
<trkpt lat="41.919778" lon="-8.880402"><ele>38.9</ele></trkpt>
<trkpt lat="41.919782" lon="-8.880284"><ele>38.9</ele></trkpt>
<trkpt lat="41.920048" lon="-8.880358"><ele>39.6</ele></trkpt>
<trkpt lat="41.920303" lon="-8.88041"><ele>43.3</ele></trkpt>
<trkpt lat="41.920589" lon="-8.880468"><ele>46.2</ele></trkpt>
<trkpt lat="41.92075" lon="-8.880494"><ele>47.0</ele></trkpt>
<trkpt lat="41.920919" lon="-8.8805"><ele>45.7</ele></trkpt>
<trkpt lat="41.921085" lon="-8.880495"><ele>45.0</ele></trkpt>
<trkpt lat="41.921148" lon="-8.880499"><ele>45.0</ele></trkpt>
<trkpt lat="41.921204" lon="-8.88053"><ele>44.2</ele></trkpt>
<trkpt lat="41.921235" lon="-8.88058"><ele>44.2</ele></trkpt>
<trkpt lat="41.921261" lon="-8.880681"><ele>43.4</ele></trkpt>
<trkpt lat="41.921256" lon="-8.880803"><ele>42.4</ele></trkpt>
<trkpt lat="41.921248" lon="-8.880944"><ele>42.4</ele></trkpt>
<trkpt lat="41.921247" lon="-8.881035"><ele>42.4</ele></trkpt>
<trkpt lat="41.921255" lon="-8.881119"><ele>41.9</ele></trkpt>
<trkpt lat="41.921295" lon="-8.881226"><ele>39.9</ele></trkpt>
<trkpt lat="41.921365" lon="-8.881335"><ele>37.6</ele></trkpt>
<trkpt lat="41.921453" lon="-8.881391"><ele>36.4</ele></trkpt>
<trkpt lat="41.921812" lon="-8.88143"><ele>33.2</ele></trkpt>
<trkpt lat="41.921882" lon="-8.881446"><ele>33.0</ele></trkpt>
<trkpt lat="41.921968" lon="-8.881464"><ele>32.9</ele></trkpt>
<trkpt lat="41.922029" lon="-8.881496"><ele>32.8</ele></trkpt>
<trkpt lat="41.922134" lon="-8.881574"><ele>32.1</ele></trkpt>
<trkpt lat="41.922247" lon="-8.881626"><ele>31.5</ele></trkpt>
<trkpt lat="41.922563" lon="-8.881702"><ele>29.5</ele></trkpt>
<trkpt lat="41.922624" lon="-8.881714"><ele>29.5</ele></trkpt>
<trkpt lat="41.92269" lon="-8.881731"><ele>29.4</ele></trkpt>
<trkpt lat="41.922728" lon="-8.881735"><ele>29.2</ele></trkpt>
<trkpt lat="41.922753" lon="-8.881752"><ele>29.2</ele></trkpt>
<trkpt lat="41.922809" lon="-8.881849"><ele>28.7</ele></trkpt>
<trkpt lat="41.922836" lon="-8.88191"><ele>28.7</ele></trkpt>
<trkpt lat="41.922882" lon="-8.88195"><ele>28.7</ele></trkpt>
<trkpt lat="41.922994" lon="-8.882001"><ele>28.7</ele></trkpt>
<trkpt lat="41.923153" lon="-8.882122"><ele>26.9</ele></trkpt>
<trkpt lat="41.923225" lon="-8.882181"><ele>26.1</ele></trkpt>
<trkpt lat="41.923488" lon="-8.882391"><ele>23.0</ele></trkpt>
<trkpt lat="41.923618" lon="-8.882465"><ele>23.0</ele></trkpt>
<trkpt lat="41.923803" lon="-8.882505"><ele>22.0</ele></trkpt>
<trkpt lat="41.92393" lon="-8.882507"><ele>22.0</ele></trkpt>
<trkpt lat="41.924122" lon="-8.882445"><ele>22.5</ele></trkpt>
<trkpt lat="41.924293" lon="-8.882401"><ele>23.2</ele></trkpt>
<trkpt lat="41.924544" lon="-8.882378"><ele>26.4</ele></trkpt>
<trkpt lat="41.924749" lon="-8.882365"><ele>27.2</ele></trkpt>
<trkpt lat="41.924847" lon="-8.882354"><ele>28.0</ele></trkpt>
<trkpt lat="41.924895" lon="-8.882332"><ele>28.0</ele></trkpt>
<trkpt lat="41.924919" lon="-8.882296"><ele>28.0</ele></trkpt>
<trkpt lat="41.924933" lon="-8.882232"><ele>28.0</ele></trkpt>
<trkpt lat="41.924921" lon="-8.882157"><ele>28.6</ele></trkpt>
<trkpt lat="41.924893" lon="-8.881993"><ele>29.9</ele></trkpt>
<trkpt lat="41.92488" lon="-8.881856"><ele>31.1</ele></trkpt>
<trkpt lat="41.924876" lon="-8.881811"><ele>31.1</ele></trkpt>
<trkpt lat="41.924874" lon="-8.881769"><ele>32.0</ele></trkpt>
<trkpt lat="41.924884" lon="-8.881648"><ele>33.1</ele></trkpt>
<trkpt lat="41.924902" lon="-8.881502"><ele>35.5</ele></trkpt>
<trkpt lat="41.924929" lon="-8.881414"><ele>36.2</ele></trkpt>
<trkpt lat="41.924965" lon="-8.881294"><ele>36.2</ele></trkpt>
<trkpt lat="41.924971" lon="-8.881225"><ele>36.8</ele></trkpt>
<trkpt lat="41.924974" lon="-8.88116"><ele>36.8</ele></trkpt>
<trkpt lat="41.924962" lon="-8.881093"><ele>38.0</ele></trkpt>
<trkpt lat="41.924938" lon="-8.881"><ele>38.8</ele></trkpt>
<trkpt lat="41.926486" lon="-8.88125"><ele>43.0</ele></trkpt>
<trkpt lat="41.927219" lon="-8.88137"><ele>43.0</ele></trkpt>
<trkpt lat="41.92896" lon="-8.881654"><ele>40.0</ele></trkpt>
<trkpt lat="41.929339" lon="-8.881725"><ele>40.0</ele></trkpt>
<trkpt lat="41.930078" lon="-8.88184"><ele>48.0</ele></trkpt>
<trkpt lat="41.930222" lon="-8.881886"><ele>48.0</ele></trkpt>
<trkpt lat="41.930555" lon="-8.881977"><ele>47.8</ele></trkpt>
<trkpt lat="41.930874" lon="-8.882111"><ele>47.5</ele></trkpt>
<trkpt lat="41.931752" lon="-8.88254"><ele>43.5</ele></trkpt>
<trkpt lat="41.931975" lon="-8.882646"><ele>43.7</ele></trkpt>
<trkpt lat="41.932281" lon="-8.88279"><ele>43.5</ele></trkpt>
<trkpt lat="41.933672" lon="-8.883449"><ele>45.3</ele></trkpt>
<trkpt lat="41.93402" lon="-8.883614"><ele>45.3</ele></trkpt>
<trkpt lat="41.934172" lon="-8.883687"><ele>45.3</ele></trkpt>
<trkpt lat="41.934685" lon="-8.88393"><ele>42.0</ele></trkpt>
<trkpt lat="41.936305" lon="-8.884705"><ele>44.5</ele></trkpt>
<trkpt lat="41.936805" lon="-8.884966"><ele>44.3</ele></trkpt>
<trkpt lat="41.937021" lon="-8.885029"><ele>43.7</ele></trkpt>
<trkpt lat="41.937247" lon="-8.885041"><ele>43.5</ele></trkpt>
<trkpt lat="41.937278" lon="-8.885069"><ele>43.5</ele></trkpt>
<trkpt lat="41.937323" lon="-8.885143"><ele>43.3</ele></trkpt>
<trkpt lat="41.937356" lon="-8.885171"><ele>43.0</ele></trkpt>
<trkpt lat="41.937478" lon="-8.88518"><ele>42.7</ele></trkpt>
<trkpt lat="41.937653" lon="-8.885138"><ele>42.8</ele></trkpt>
<trkpt lat="41.937733" lon="-8.885108"><ele>42.9</ele></trkpt>
<trkpt lat="41.93777" lon="-8.885116"><ele>42.9</ele></trkpt>
<trkpt lat="41.937806" lon="-8.885127"><ele>42.8</ele></trkpt>
<trkpt lat="41.937845" lon="-8.885159"><ele>42.7</ele></trkpt>
<trkpt lat="41.937887" lon="-8.885177"><ele>42.7</ele></trkpt>
<trkpt lat="41.937928" lon="-8.885175"><ele>42.8</ele></trkpt>
<trkpt lat="41.937968" lon="-8.885158"><ele>42.8</ele></trkpt>
<trkpt lat="41.938038" lon="-8.885052"><ele>42.9</ele></trkpt>
<trkpt lat="41.938092" lon="-8.884961"><ele>42.9</ele></trkpt>
<trkpt lat="41.938145" lon="-8.884894"><ele>42.9</ele></trkpt>
<trkpt lat="41.938181" lon="-8.884868"><ele>42.9</ele></trkpt>
<trkpt lat="41.938442" lon="-8.884784"><ele>44.3</ele></trkpt>
<trkpt lat="41.938778" lon="-8.884663"><ele>44.5</ele></trkpt>
<trkpt lat="41.940733" lon="-8.884114"><ele>46.1</ele></trkpt>
<trkpt lat="41.940733" lon="-8.884159"><ele>46.1</ele></trkpt>
<trkpt lat="41.940725" lon="-8.884227"><ele>46.1</ele></trkpt>
<trkpt lat="41.940712" lon="-8.884272"><ele>46.1</ele></trkpt>
<trkpt lat="41.940687" lon="-8.884347"><ele>46.2</ele></trkpt>
<trkpt lat="41.940679" lon="-8.884393"><ele>46.2</ele></trkpt>
<trkpt lat="41.940721" lon="-8.884411"><ele>46.1</ele></trkpt>
<trkpt lat="41.940798" lon="-8.884417"><ele>46.1</ele></trkpt>
<trkpt lat="41.940845" lon="-8.884412"><ele>46.1</ele></trkpt>
<trkpt lat="41.940904" lon="-8.884393"><ele>46.1</ele></trkpt>
<trkpt lat="41.941008" lon="-8.884329"><ele>45.9</ele></trkpt>
<trkpt lat="41.941228" lon="-8.884198"><ele>44.5</ele></trkpt>
<trkpt lat="41.941403" lon="-8.884087"><ele>44.7</ele></trkpt>
<trkpt lat="41.941563" lon="-8.884002"><ele>44.8</ele></trkpt>
<trkpt lat="41.941748" lon="-8.883916"><ele>45.6</ele></trkpt>
<trkpt lat="41.941864" lon="-8.883876"><ele>45.7</ele></trkpt>
<trkpt lat="41.942014" lon="-8.883817"><ele>45.7</ele></trkpt>
<trkpt lat="41.942105" lon="-8.883769"><ele>45.7</ele></trkpt>
<trkpt lat="41.942167" lon="-8.883746"><ele>45.7</ele></trkpt>
<trkpt lat="41.942234" lon="-8.883738"><ele>45.7</ele></trkpt>
<trkpt lat="41.942298" lon="-8.883731"><ele>45.5</ele></trkpt>
<trkpt lat="41.942351" lon="-8.883722"><ele>45.5</ele></trkpt>
<trkpt lat="41.942394" lon="-8.8837"><ele>45.6</ele></trkpt>
<trkpt lat="41.942473" lon="-8.883648"><ele>45.3</ele></trkpt>
<trkpt lat="41.942607" lon="-8.883524"><ele>44.2</ele></trkpt>
<trkpt lat="41.942774" lon="-8.883396"><ele>43.3</ele></trkpt>
<trkpt lat="41.942884" lon="-8.88333"><ele>42.8</ele></trkpt>
<trkpt lat="41.942948" lon="-8.883295"><ele>42.6</ele></trkpt>
<trkpt lat="41.942978" lon="-8.883268"><ele>42.6</ele></trkpt>
<trkpt lat="41.943021" lon="-8.883204"><ele>42.6</ele></trkpt>
<trkpt lat="41.943068" lon="-8.883098"><ele>42.4</ele></trkpt>
<trkpt lat="41.943127" lon="-8.882967"><ele>42.8</ele></trkpt>
<trkpt lat="41.943186" lon="-8.88287"><ele>42.8</ele></trkpt>
<trkpt lat="41.943257" lon="-8.882813"><ele>42.8</ele></trkpt>
<trkpt lat="41.943525" lon="-8.882642"><ele>45.1</ele></trkpt>
<trkpt lat="41.943825" lon="-8.882479"><ele>45.1</ele></trkpt>
<trkpt lat="41.943919" lon="-8.882436"><ele>45.1</ele></trkpt>
<trkpt lat="41.943971" lon="-8.882418"><ele>44.8</ele></trkpt>
<trkpt lat="41.944055" lon="-8.882411"><ele>44.1</ele></trkpt>
<trkpt lat="41.944166" lon="-8.882411"><ele>43.8</ele></trkpt>
<trkpt lat="41.944323" lon="-8.882424"><ele>44.6</ele></trkpt>
<trkpt lat="41.944471" lon="-8.882439"><ele>44.8</ele></trkpt>
<trkpt lat="41.944539" lon="-8.882441"><ele>44.6</ele></trkpt>
<trkpt lat="41.944631" lon="-8.882432"><ele>44.6</ele></trkpt>
<trkpt lat="41.94469" lon="-8.882398"><ele>44.6</ele></trkpt>
<trkpt lat="41.944735" lon="-8.882329"><ele>44.7</ele></trkpt>
<trkpt lat="41.944773" lon="-8.882254"><ele>44.8</ele></trkpt>
<trkpt lat="41.94483" lon="-8.8822"><ele>44.8</ele></trkpt>
<trkpt lat="41.944931" lon="-8.882157"><ele>45.0</ele></trkpt>
<trkpt lat="41.94525" lon="-8.882063"><ele>45.8</ele></trkpt>
<trkpt lat="41.945302" lon="-8.882048"><ele>44.9</ele></trkpt>
<trkpt lat="41.94538" lon="-8.882036"><ele>44.3</ele></trkpt>
<trkpt lat="41.945471" lon="-8.882056"><ele>43.8</ele></trkpt>
<trkpt lat="41.945582" lon="-8.882085"><ele>43.9</ele></trkpt>
<trkpt lat="41.945716" lon="-8.882125"><ele>43.9</ele></trkpt>
<trkpt lat="41.945786" lon="-8.882155"><ele>43.8</ele></trkpt>
<trkpt lat="41.945819" lon="-8.882173"><ele>43.8</ele></trkpt>
<trkpt lat="41.945853" lon="-8.882192"><ele>43.7</ele></trkpt>
<trkpt lat="41.945972" lon="-8.882218"><ele>43.7</ele></trkpt>
<trkpt lat="41.946081" lon="-8.882234"><ele>43.7</ele></trkpt>
<trkpt lat="41.946306" lon="-8.882268"><ele>43.5</ele></trkpt>
<trkpt lat="41.946403" lon="-8.882279"><ele>43.3</ele></trkpt>
<trkpt lat="41.946706" lon="-8.882358"><ele>41.5</ele></trkpt>
<trkpt lat="41.946884" lon="-8.882411"><ele>40.3</ele></trkpt>
<trkpt lat="41.947005" lon="-8.8825"><ele>39.4</ele></trkpt>
<trkpt lat="41.947129" lon="-8.882631"><ele>39.4</ele></trkpt>
<trkpt lat="41.94724" lon="-8.882764"><ele>39.1</ele></trkpt>
<trkpt lat="41.947298" lon="-8.88283"><ele>39.1</ele></trkpt>
<trkpt lat="41.94736" lon="-8.882873"><ele>39.0</ele></trkpt>
<trkpt lat="41.947461" lon="-8.882916"><ele>39.0</ele></trkpt>
<trkpt lat="41.947636" lon="-8.882946"><ele>39.0</ele></trkpt>
<trkpt lat="41.947757" lon="-8.882961"><ele>39.0</ele></trkpt>
<trkpt lat="41.947829" lon="-8.882972"><ele>38.7</ele></trkpt>
<trkpt lat="41.947919" lon="-8.882973"><ele>38.7</ele></trkpt>
<trkpt lat="41.948013" lon="-8.882948"><ele>38.6</ele></trkpt>
<trkpt lat="41.948085" lon="-8.882933"><ele>38.4</ele></trkpt>
<trkpt lat="41.948136" lon="-8.882961"><ele>38.4</ele></trkpt>
<trkpt lat="41.94836" lon="-8.883041"><ele>38.0</ele></trkpt>
<trkpt lat="41.948552" lon="-8.883117"><ele>37.4</ele></trkpt>
<trkpt lat="41.948707" lon="-8.883162"><ele>36.8</ele></trkpt>
<trkpt lat="41.948818" lon="-8.883192"><ele>36.9</ele></trkpt>
<trkpt lat="41.948958" lon="-8.883248"><ele>37.0</ele></trkpt>
<trkpt lat="41.949122" lon="-8.883329"><ele>36.9</ele></trkpt>
<trkpt lat="41.94922" lon="-8.883387"><ele>36.8</ele></trkpt>
<trkpt lat="41.949337" lon="-8.883449"><ele>36.3</ele></trkpt>
<trkpt lat="41.94946" lon="-8.88353"><ele>36.0</ele></trkpt>
<trkpt lat="41.94959" lon="-8.883616"><ele>34.9</ele></trkpt>
<trkpt lat="41.949646" lon="-8.883646"><ele>34.3</ele></trkpt>
<trkpt lat="41.949742" lon="-8.883661"><ele>34.1</ele></trkpt>
<trkpt lat="41.949816" lon="-8.883666"><ele>34.1</ele></trkpt>
<trkpt lat="41.949895" lon="-8.883691"><ele>33.9</ele></trkpt>
<trkpt lat="41.949992" lon="-8.883744"><ele>33.7</ele></trkpt>
<trkpt lat="41.950058" lon="-8.883775"><ele>33.6</ele></trkpt>
<trkpt lat="41.950089" lon="-8.883778"><ele>33.6</ele></trkpt>
<trkpt lat="41.950116" lon="-8.883757"><ele>33.6</ele></trkpt>
<trkpt lat="41.950134" lon="-8.883714"><ele>33.5</ele></trkpt>
<trkpt lat="41.950136" lon="-8.883647"><ele>33.5</ele></trkpt>
<trkpt lat="41.950133" lon="-8.883596"><ele>33.3</ele></trkpt>
<trkpt lat="41.950125" lon="-8.883527"><ele>33.4</ele></trkpt>
<trkpt lat="41.950131" lon="-8.883461"><ele>33.3</ele></trkpt>
<trkpt lat="41.950138" lon="-8.883425"><ele>33.3</ele></trkpt>
<trkpt lat="41.950164" lon="-8.883392"><ele>33.2</ele></trkpt>
<trkpt lat="41.950219" lon="-8.88336"><ele>32.9</ele></trkpt>
<trkpt lat="41.950252" lon="-8.883352"><ele>32.8</ele></trkpt>
<trkpt lat="41.950351" lon="-8.883342"><ele>32.4</ele></trkpt>
<trkpt lat="41.950462" lon="-8.883321"><ele>31.9</ele></trkpt>
<trkpt lat="41.950612" lon="-8.883291"><ele>31.4</ele></trkpt>
<trkpt lat="41.950744" lon="-8.883263"><ele>29.0</ele></trkpt>
<trkpt lat="41.95088" lon="-8.883213"><ele>27.7</ele></trkpt>
<trkpt lat="41.950974" lon="-8.883171"><ele>27.0</ele></trkpt>
<trkpt lat="41.951032" lon="-8.883144"><ele>26.6</ele></trkpt>
<trkpt lat="41.951133" lon="-8.883073"><ele>26.2</ele></trkpt>
<trkpt lat="41.951177" lon="-8.883039"><ele>26.1</ele></trkpt>
<trkpt lat="41.951237" lon="-8.882998"><ele>26.1</ele></trkpt>
<trkpt lat="41.951284" lon="-8.882969"><ele>25.9</ele></trkpt>
<trkpt lat="41.951352" lon="-8.882928"><ele>25.9</ele></trkpt>
<trkpt lat="41.95146" lon="-8.882873"><ele>25.8</ele></trkpt>
<trkpt lat="41.951566" lon="-8.882822"><ele>25.8</ele></trkpt>
<trkpt lat="41.95168" lon="-8.88278"><ele>25.8</ele></trkpt>
<trkpt lat="41.951835" lon="-8.882731"><ele>25.6</ele></trkpt>
<trkpt lat="41.951903" lon="-8.882714"><ele>25.5</ele></trkpt>
<trkpt lat="41.951964" lon="-8.882707"><ele>25.4</ele></trkpt>
<trkpt lat="41.952067" lon="-8.88269"><ele>25.2</ele></trkpt>
<trkpt lat="41.952184" lon="-8.882678"><ele>25.0</ele></trkpt>
<trkpt lat="41.952325" lon="-8.88267"><ele>24.7</ele></trkpt>
<trkpt lat="41.952393" lon="-8.882675"><ele>24.4</ele></trkpt>
<trkpt lat="41.952467" lon="-8.882686"><ele>24.2</ele></trkpt>
<trkpt lat="41.952527" lon="-8.8827"><ele>24.0</ele></trkpt>
<trkpt lat="41.95262" lon="-8.882733"><ele>23.8</ele></trkpt>
<trkpt lat="41.952775" lon="-8.882802"><ele>23.2</ele></trkpt>
<trkpt lat="41.952862" lon="-8.882838"><ele>22.9</ele></trkpt>
<trkpt lat="41.953183" lon="-8.883002"><ele>21.7</ele></trkpt>
<trkpt lat="41.95332" lon="-8.883077"><ele>21.3</ele></trkpt>
<trkpt lat="41.953519" lon="-8.883174"><ele>19.7</ele></trkpt>
<trkpt lat="41.953673" lon="-8.883217"><ele>18.2</ele></trkpt>
<trkpt lat="41.953726" lon="-8.883246"><ele>17.4</ele></trkpt>
<trkpt lat="41.953783" lon="-8.883297"><ele>17.1</ele></trkpt>
<trkpt lat="41.953839" lon="-8.883367"><ele>16.4</ele></trkpt>
<trkpt lat="41.953912" lon="-8.883522"><ele>15.9</ele></trkpt>
<trkpt lat="41.953939" lon="-8.883577"><ele>15.8</ele></trkpt>
<trkpt lat="41.953959" lon="-8.883609"><ele>15.2</ele></trkpt>
<trkpt lat="41.953984" lon="-8.88364"><ele>15.2</ele></trkpt>
<trkpt lat="41.954061" lon="-8.883705"><ele>15.0</ele></trkpt>
<trkpt lat="41.954089" lon="-8.883732"><ele>14.6</ele></trkpt>
<trkpt lat="41.954137" lon="-8.883777"><ele>14.2</ele></trkpt>
<trkpt lat="41.954192" lon="-8.883837"><ele>13.9</ele></trkpt>
<trkpt lat="41.95427" lon="-8.883911"><ele>13.5</ele></trkpt>
<trkpt lat="41.954315" lon="-8.883954"><ele>13.5</ele></trkpt>
<trkpt lat="41.954349" lon="-8.883978"><ele>13.4</ele></trkpt>
<trkpt lat="41.954393" lon="-8.884"><ele>13.2</ele></trkpt>
<trkpt lat="41.954449" lon="-8.884018"><ele>13.2</ele></trkpt>
<trkpt lat="41.954526" lon="-8.884035"><ele>13.2</ele></trkpt>
<trkpt lat="41.954725" lon="-8.884057"><ele>13.4</ele></trkpt>
<trkpt lat="41.954952" lon="-8.884074"><ele>14.0</ele></trkpt>
<trkpt lat="41.955188" lon="-8.884095"><ele>14.4</ele></trkpt>
<trkpt lat="41.955333" lon="-8.884115"><ele>14.6</ele></trkpt>
<trkpt lat="41.955612" lon="-8.884178"><ele>15.2</ele></trkpt>
<trkpt lat="41.955824" lon="-8.88422"><ele>15.8</ele></trkpt>
<trkpt lat="41.956096" lon="-8.884261"><ele>16.9</ele></trkpt>
<trkpt lat="41.956274" lon="-8.884285"><ele>17.6</ele></trkpt>
<trkpt lat="41.956404" lon="-8.884314"><ele>18.0</ele></trkpt>
<trkpt lat="41.956519" lon="-8.884342"><ele>18.4</ele></trkpt>
<trkpt lat="41.956585" lon="-8.884349"><ele>18.9</ele></trkpt>
<trkpt lat="41.956719" lon="-8.884352"><ele>19.5</ele></trkpt>
<trkpt lat="41.956982" lon="-8.884351"><ele>21.1</ele></trkpt>
<trkpt lat="41.957102" lon="-8.884365"><ele>21.9</ele></trkpt>
<trkpt lat="41.957179" lon="-8.884364"><ele>22.4</ele></trkpt>
<trkpt lat="41.957276" lon="-8.884359"><ele>23.1</ele></trkpt>
<trkpt lat="41.957362" lon="-8.884362"><ele>23.1</ele></trkpt>
<trkpt lat="41.957461" lon="-8.884354"><ele>23.4</ele></trkpt>
<trkpt lat="41.95762" lon="-8.88435"><ele>24.1</ele></trkpt>
<trkpt lat="41.957766" lon="-8.884322"><ele>25.1</ele></trkpt>
<trkpt lat="41.957943" lon="-8.884288"><ele>26.3</ele></trkpt>
<trkpt lat="41.958102" lon="-8.884261"><ele>26.7</ele></trkpt>
<trkpt lat="41.958204" lon="-8.884262"><ele>27.7</ele></trkpt>
<trkpt lat="41.958394" lon="-8.884278"><ele>28.2</ele></trkpt>
<trkpt lat="41.958716" lon="-8.884261"><ele>29.7</ele></trkpt>
<trkpt lat="41.958949" lon="-8.884256"><ele>30.8</ele></trkpt>
<trkpt lat="41.959025" lon="-8.884257"><ele>31.7</ele></trkpt>
<trkpt lat="41.959138" lon="-8.884239"><ele>32.9</ele></trkpt>
<trkpt lat="41.959317" lon="-8.884183"><ele>34.0</ele></trkpt>
<trkpt lat="41.959508" lon="-8.884111"><ele>33.6</ele></trkpt>
<trkpt lat="41.95959" lon="-8.884079"><ele>33.6</ele></trkpt>
<trkpt lat="41.959651" lon="-8.884076"><ele>33.4</ele></trkpt>
<trkpt lat="41.959706" lon="-8.884081"><ele>33.6</ele></trkpt>
<trkpt lat="41.959751" lon="-8.884089"><ele>33.6</ele></trkpt>
<trkpt lat="41.959795" lon="-8.884105"><ele>33.6</ele></trkpt>
<trkpt lat="41.959843" lon="-8.884138"><ele>33.5</ele></trkpt>
<trkpt lat="41.959898" lon="-8.884172"><ele>33.6</ele></trkpt>
<trkpt lat="41.959964" lon="-8.884196"><ele>33.6</ele></trkpt>
<trkpt lat="41.959995" lon="-8.884209"><ele>33.6</ele></trkpt>
<trkpt lat="41.960038" lon="-8.884217"><ele>33.7</ele></trkpt>
<trkpt lat="41.960086" lon="-8.88421"><ele>33.6</ele></trkpt>
<trkpt lat="41.960182" lon="-8.884163"><ele>33.8</ele></trkpt>
<trkpt lat="41.960338" lon="-8.884057"><ele>33.8</ele></trkpt>
<trkpt lat="41.960444" lon="-8.883976"><ele>34.3</ele></trkpt>
<trkpt lat="41.960508" lon="-8.883937"><ele>34.8</ele></trkpt>
<trkpt lat="41.960556" lon="-8.883916"><ele>35.1</ele></trkpt>
<trkpt lat="41.960593" lon="-8.883909"><ele>35.6</ele></trkpt>
<trkpt lat="41.960677" lon="-8.883909"><ele>36.1</ele></trkpt>
<trkpt lat="41.96076" lon="-8.883915"><ele>37.1</ele></trkpt>
<trkpt lat="41.960859" lon="-8.883907"><ele>37.4</ele></trkpt>
<trkpt lat="41.960927" lon="-8.883893"><ele>38.2</ele></trkpt>
<trkpt lat="41.96117" lon="-8.883861"><ele>39.8</ele></trkpt>
<trkpt lat="41.961292" lon="-8.883849"><ele>40.4</ele></trkpt>
<trkpt lat="41.96136" lon="-8.883846"><ele>40.9</ele></trkpt>
<trkpt lat="41.961401" lon="-8.883851"><ele>41.2</ele></trkpt>
<trkpt lat="41.961776" lon="-8.883902"><ele>40.8</ele></trkpt>
<trkpt lat="41.961836" lon="-8.883914"><ele>40.4</ele></trkpt>
<trkpt lat="41.961907" lon="-8.883938"><ele>40.3</ele></trkpt>
<trkpt lat="41.961973" lon="-8.883968"><ele>39.8</ele></trkpt>
<trkpt lat="41.962034" lon="-8.884011"><ele>39.3</ele></trkpt>
<trkpt lat="41.962069" lon="-8.884039"><ele>39.3</ele></trkpt>
<trkpt lat="41.962232" lon="-8.884112"><ele>38.9</ele></trkpt>
<trkpt lat="41.96231" lon="-8.88414"><ele>38.6</ele></trkpt>
<trkpt lat="41.962427" lon="-8.884171"><ele>37.2</ele></trkpt>
<trkpt lat="41.962518" lon="-8.88419"><ele>36.3</ele></trkpt>
<trkpt lat="41.962605" lon="-8.88421"><ele>35.0</ele></trkpt>
<trkpt lat="41.962897" lon="-8.884274"><ele>33.8</ele></trkpt>
<trkpt lat="41.963038" lon="-8.884293"><ele>33.4</ele></trkpt>
<trkpt lat="41.963119" lon="-8.884305"><ele>33.1</ele></trkpt>
<trkpt lat="41.963199" lon="-8.884325"><ele>32.9</ele></trkpt>
<trkpt lat="41.963296" lon="-8.884351"><ele>32.7</ele></trkpt>
<trkpt lat="41.963416" lon="-8.884387"><ele>32.4</ele></trkpt>
<trkpt lat="41.9635" lon="-8.884404"><ele>32.2</ele></trkpt>
<trkpt lat="41.9636" lon="-8.884423"><ele>32.1</ele></trkpt>
<trkpt lat="41.963771" lon="-8.884438"><ele>31.7</ele></trkpt>
<trkpt lat="41.963887" lon="-8.884428"><ele>31.6</ele></trkpt>
<trkpt lat="41.964035" lon="-8.884398"><ele>31.6</ele></trkpt>
<trkpt lat="41.964212" lon="-8.884359"><ele>31.8</ele></trkpt>
<trkpt lat="41.964266" lon="-8.884339"><ele>31.8</ele></trkpt>
<trkpt lat="41.96433" lon="-8.884314"><ele>32.1</ele></trkpt>
<trkpt lat="41.964383" lon="-8.884307"><ele>32.1</ele></trkpt>
<trkpt lat="41.964491" lon="-8.884302"><ele>32.5</ele></trkpt>
<trkpt lat="41.964579" lon="-8.884292"><ele>32.9</ele></trkpt>
<trkpt lat="41.964672" lon="-8.884264"><ele>33.2</ele></trkpt>
<trkpt lat="41.964841" lon="-8.884199"><ele>33.8</ele></trkpt>
<trkpt lat="41.964947" lon="-8.884153"><ele>33.9</ele></trkpt>
<trkpt lat="41.965043" lon="-8.884111"><ele>33.9</ele></trkpt>
<trkpt lat="41.965108" lon="-8.884099"><ele>34.0</ele></trkpt>
<trkpt lat="41.965166" lon="-8.884111"><ele>33.9</ele></trkpt>
<trkpt lat="41.965218" lon="-8.88414"><ele>33.9</ele></trkpt>
<trkpt lat="41.965266" lon="-8.884176"><ele>33.9</ele></trkpt>
<trkpt lat="41.965354" lon="-8.884242"><ele>33.9</ele></trkpt>
<trkpt lat="41.965396" lon="-8.884273"><ele>33.9</ele></trkpt>
<trkpt lat="41.965453" lon="-8.884298"><ele>33.9</ele></trkpt>
<trkpt lat="41.965545" lon="-8.884324"><ele>33.9</ele></trkpt>
<trkpt lat="41.965679" lon="-8.884335"><ele>33.8</ele></trkpt>
<trkpt lat="41.96577" lon="-8.884325"><ele>33.7</ele></trkpt>
<trkpt lat="41.965923" lon="-8.884295"><ele>33.6</ele></trkpt>
<trkpt lat="41.966149" lon="-8.884213"><ele>34.7</ele></trkpt>
<trkpt lat="41.966452" lon="-8.884136"><ele>35.8</ele></trkpt>
<trkpt lat="41.966618" lon="-8.884097"><ele>35.8</ele></trkpt>
<trkpt lat="41.966776" lon="-8.884065"><ele>36.0</ele></trkpt>
<trkpt lat="41.96715" lon="-8.883915"><ele>35.3</ele></trkpt>
<trkpt lat="41.967218" lon="-8.883885"><ele>35.0</ele></trkpt>
<trkpt lat="41.967303" lon="-8.883842"><ele>34.5</ele></trkpt>
<trkpt lat="41.967356" lon="-8.883828"><ele>34.2</ele></trkpt>
<trkpt lat="41.967487" lon="-8.883832"><ele>33.9</ele></trkpt>
<trkpt lat="41.967624" lon="-8.883848"><ele>33.9</ele></trkpt>
<trkpt lat="41.967717" lon="-8.883869"><ele>33.6</ele></trkpt>
<trkpt lat="41.967802" lon="-8.883901"><ele>33.3</ele></trkpt>
<trkpt lat="41.967866" lon="-8.883888"><ele>33.0</ele></trkpt>
<trkpt lat="41.967992" lon="-8.883895"><ele>32.8</ele></trkpt>
<trkpt lat="41.968193" lon="-8.883877"><ele>32.5</ele></trkpt>
<trkpt lat="41.968408" lon="-8.883877"><ele>33.2</ele></trkpt>
<trkpt lat="41.968785" lon="-8.883909"><ele>34.2</ele></trkpt>
<trkpt lat="41.969014" lon="-8.883934"><ele>34.3</ele></trkpt>
<trkpt lat="41.969306" lon="-8.883966"><ele>35.0</ele></trkpt>
<trkpt lat="41.969794" lon="-8.884022"><ele>35.5</ele></trkpt>
<trkpt lat="41.97044" lon="-8.884087"><ele>35.5</ele></trkpt>
<trkpt lat="41.970876" lon="-8.884148"><ele>37.0</ele></trkpt>
<trkpt lat="41.971204" lon="-8.884199"><ele>37.5</ele></trkpt>
<trkpt lat="41.971333" lon="-8.884229"><ele>37.4</ele></trkpt>
<trkpt lat="41.971351" lon="-8.884243"><ele>37.4</ele></trkpt>
<trkpt lat="41.971365" lon="-8.884261"><ele>37.4</ele></trkpt>
<trkpt lat="41.971365" lon="-8.88432"><ele>37.4</ele></trkpt>
<trkpt lat="41.971369" lon="-8.88435"><ele>37.4</ele></trkpt>
<trkpt lat="41.971395" lon="-8.88437"><ele>37.6</ele></trkpt>
<trkpt lat="41.971603" lon="-8.884402"><ele>38.1</ele></trkpt>
<trkpt lat="41.971631" lon="-8.884419"><ele>38.1</ele></trkpt>
<trkpt lat="41.971647" lon="-8.884443"><ele>38.4</ele></trkpt>
<trkpt lat="41.971661" lon="-8.884474"><ele>38.4</ele></trkpt>
<trkpt lat="41.971693" lon="-8.884526"><ele>38.4</ele></trkpt>
<trkpt lat="41.971747" lon="-8.884557"><ele>38.4</ele></trkpt>
<trkpt lat="41.971805" lon="-8.884557"><ele>38.7</ele></trkpt>
<trkpt lat="41.971843" lon="-8.884533"><ele>38.7</ele></trkpt>
<trkpt lat="41.971887" lon="-8.884482"><ele>38.8</ele></trkpt>
<trkpt lat="41.971923" lon="-8.884447"><ele>39.0</ele></trkpt>
<trkpt lat="41.971969" lon="-8.884434"><ele>39.1</ele></trkpt>
<trkpt lat="41.972019" lon="-8.88441"><ele>39.1</ele></trkpt>
<trkpt lat="41.97205" lon="-8.884364"><ele>39.1</ele></trkpt>
<trkpt lat="41.972096" lon="-8.884329"><ele>39.1</ele></trkpt>
<trkpt lat="41.972179" lon="-8.884325"><ele>39.5</ele></trkpt>
<trkpt lat="41.972311" lon="-8.884347"><ele>40.3</ele></trkpt>
<trkpt lat="41.972641" lon="-8.884347"><ele>43.3</ele></trkpt>
<trkpt lat="41.973624" lon="-8.884439"><ele>41.0</ele></trkpt>
<trkpt lat="41.974543" lon="-8.88454"><ele>46.5</ele></trkpt>
<trkpt lat="41.975029" lon="-8.884603"><ele>46.0</ele></trkpt>
<trkpt lat="41.97524" lon="-8.884622"><ele>46.0</ele></trkpt>
<trkpt lat="41.975466" lon="-8.884644"><ele>45.5</ele></trkpt>
<trkpt lat="41.975793" lon="-8.884678"><ele>44.0</ele></trkpt>
<trkpt lat="41.976143" lon="-8.884717"><ele>43.5</ele></trkpt>
<trkpt lat="41.977216" lon="-8.884837"><ele>42.3</ele></trkpt>
<trkpt lat="41.977458" lon="-8.884864"><ele>42.3</ele></trkpt>
<trkpt lat="41.977604" lon="-8.884882"><ele>42.5</ele></trkpt>
<trkpt lat="41.978057" lon="-8.884933"><ele>38.1</ele></trkpt>
<trkpt lat="41.978369" lon="-8.884958"><ele>35.7</ele></trkpt>
<trkpt lat="41.978281" lon="-8.885061"><ele>35.7</ele></trkpt>
<trkpt lat="41.978263" lon="-8.88509"><ele>35.7</ele></trkpt>
<trkpt lat="41.978262" lon="-8.885118"><ele>35.7</ele></trkpt>
<trkpt lat="41.978281" lon="-8.885386"><ele>35.3</ele></trkpt>
<trkpt lat="41.97829" lon="-8.885441"><ele>35.3</ele></trkpt>
<trkpt lat="41.978302" lon="-8.88548"><ele>34.8</ele></trkpt>
<trkpt lat="41.978336" lon="-8.885509"><ele>34.8</ele></trkpt>
<trkpt lat="41.978386" lon="-8.885527"><ele>33.7</ele></trkpt>
<trkpt lat="41.978458" lon="-8.885544"><ele>33.2</ele></trkpt>
<trkpt lat="41.978511" lon="-8.885552"><ele>33.2</ele></trkpt>
<trkpt lat="41.978597" lon="-8.885582"><ele>32.8</ele></trkpt>
<trkpt lat="41.978676" lon="-8.885607"><ele>30.5</ele></trkpt>
<trkpt lat="41.978807" lon="-8.88566"><ele>29.8</ele></trkpt>
<trkpt lat="41.978871" lon="-8.88569"><ele>28.6</ele></trkpt>
<trkpt lat="41.978947" lon="-8.885744"><ele>28.2</ele></trkpt>
<trkpt lat="41.979027" lon="-8.885815"><ele>25.7</ele></trkpt>
<trkpt lat="41.979307" lon="-8.886063"><ele>23.3</ele></trkpt>
<trkpt lat="41.979427" lon="-8.886168"><ele>21.7</ele></trkpt>
<trkpt lat="41.97945" lon="-8.886199"><ele>21.2</ele></trkpt>
<trkpt lat="41.979449" lon="-8.886228"><ele>21.2</ele></trkpt>
<trkpt lat="41.97952" lon="-8.886274"><ele>20.7</ele></trkpt>
<trkpt lat="41.979697" lon="-8.886373"><ele>19.2</ele></trkpt>
<trkpt lat="41.979786" lon="-8.886423"><ele>18.8</ele></trkpt>
<trkpt lat="41.979811" lon="-8.886439"><ele>18.5</ele></trkpt>
<trkpt lat="41.979922" lon="-8.886493"><ele>18.2</ele></trkpt>
<trkpt lat="41.980047" lon="-8.88652"><ele>16.7</ele></trkpt>
<trkpt lat="41.980106" lon="-8.886523"><ele>16.7</ele></trkpt>
<trkpt lat="41.980178" lon="-8.886506"><ele>16.7</ele></trkpt>
<trkpt lat="41.980334" lon="-8.886434"><ele>15.3</ele></trkpt>
<trkpt lat="41.980481" lon="-8.886387"><ele>14.4</ele></trkpt>
<trkpt lat="41.980725" lon="-8.886323"><ele>13.8</ele></trkpt>
<trkpt lat="41.980862" lon="-8.886309"><ele>13.6</ele></trkpt>
<trkpt lat="41.981004" lon="-8.886317"><ele>12.7</ele></trkpt>
<trkpt lat="41.981123" lon="-8.886315"><ele>12.2</ele></trkpt>
<trkpt lat="41.981366" lon="-8.886298"><ele>11.5</ele></trkpt>
<trkpt lat="41.981409" lon="-8.886291"><ele>11.2</ele></trkpt>
<trkpt lat="41.981452" lon="-8.886284"><ele>11.1</ele></trkpt>
<trkpt lat="41.981539" lon="-8.886265"><ele>11.3</ele></trkpt>
<trkpt lat="41.981613" lon="-8.886231"><ele>11.3</ele></trkpt>
<trkpt lat="41.981722" lon="-8.886205"><ele>11.2</ele></trkpt>
<trkpt lat="41.981815" lon="-8.886183"><ele>11.3</ele></trkpt>
<trkpt lat="41.981864" lon="-8.886179"><ele>11.3</ele></trkpt>
<trkpt lat="41.981905" lon="-8.886156"><ele>11.5</ele></trkpt>
<trkpt lat="41.98193" lon="-8.886133"><ele>11.5</ele></trkpt>
<trkpt lat="41.981957" lon="-8.88609"><ele>11.8</ele></trkpt>
<trkpt lat="41.981967" lon="-8.886014"><ele>11.9</ele></trkpt>
<trkpt lat="41.981969" lon="-8.885962"><ele>11.9</ele></trkpt>
<trkpt lat="41.981997" lon="-8.885916"><ele>12.3</ele></trkpt>
<trkpt lat="41.982047" lon="-8.885869"><ele>12.4</ele></trkpt>
<trkpt lat="41.982176" lon="-8.885805"><ele>13.7</ele></trkpt>
<trkpt lat="41.982328" lon="-8.885745"><ele>16.5</ele></trkpt>
<trkpt lat="41.982389" lon="-8.885702"><ele>17.5</ele></trkpt>
<trkpt lat="41.982487" lon="-8.885634"><ele>18.9</ele></trkpt>
<trkpt lat="41.98259" lon="-8.885584"><ele>20.1</ele></trkpt>
<trkpt lat="41.982643" lon="-8.885562"><ele>20.1</ele></trkpt>
<trkpt lat="41.982688" lon="-8.885542"><ele>20.7</ele></trkpt>
<trkpt lat="41.982732" lon="-8.885538"><ele>20.9</ele></trkpt>
<trkpt lat="41.982762" lon="-8.885564"><ele>20.9</ele></trkpt>
<trkpt lat="41.982777" lon="-8.885579"><ele>21.1</ele></trkpt>
<trkpt lat="41.982843" lon="-8.885609"><ele>21.1</ele></trkpt>
<trkpt lat="41.982928" lon="-8.885676"><ele>21.4</ele></trkpt>
<trkpt lat="41.982987" lon="-8.885695"><ele>21.9</ele></trkpt>
<trkpt lat="41.983031" lon="-8.885688"><ele>22.4</ele></trkpt>
<trkpt lat="41.983126" lon="-8.885612"><ele>22.6</ele></trkpt>
<trkpt lat="41.983205" lon="-8.885558"><ele>23.4</ele></trkpt>
<trkpt lat="41.98324" lon="-8.885534"><ele>23.5</ele></trkpt>
<trkpt lat="41.983308" lon="-8.885491"><ele>23.9</ele></trkpt>
<trkpt lat="41.983455" lon="-8.88543"><ele>25.0</ele></trkpt>
<trkpt lat="41.983496" lon="-8.885392"><ele>25.4</ele></trkpt>
<trkpt lat="41.983591" lon="-8.885329"><ele>26.0</ele></trkpt>
<trkpt lat="41.983642" lon="-8.885276"><ele>26.5</ele></trkpt>
<trkpt lat="41.983682" lon="-8.885244"><ele>26.8</ele></trkpt>
<trkpt lat="41.983753" lon="-8.885226"><ele>27.4</ele></trkpt>
<trkpt lat="41.983833" lon="-8.885208"><ele>28.0</ele></trkpt>
<trkpt lat="41.983952" lon="-8.88518"><ele>28.4</ele></trkpt>
<trkpt lat="41.984062" lon="-8.885153"><ele>29.7</ele></trkpt>
<trkpt lat="41.984114" lon="-8.88512"><ele>30.3</ele></trkpt>
<trkpt lat="41.984184" lon="-8.885063"><ele>30.8</ele></trkpt>
<trkpt lat="41.984288" lon="-8.884978"><ele>31.6</ele></trkpt>
<trkpt lat="41.984396" lon="-8.884907"><ele>32.4</ele></trkpt>
<trkpt lat="41.984446" lon="-8.88487"><ele>32.7</ele></trkpt>
<trkpt lat="41.984517" lon="-8.88483"><ele>32.9</ele></trkpt>
<trkpt lat="41.984572" lon="-8.884812"><ele>33.2</ele></trkpt>
<trkpt lat="41.984649" lon="-8.884789"><ele>33.9</ele></trkpt>
<trkpt lat="41.984729" lon="-8.88475"><ele>34.6</ele></trkpt>
<trkpt lat="41.984836" lon="-8.884679"><ele>35.5</ele></trkpt>
<trkpt lat="41.984879" lon="-8.88465"><ele>35.9</ele></trkpt>
<trkpt lat="41.984956" lon="-8.884597"><ele>37.0</ele></trkpt>
<trkpt lat="41.985082" lon="-8.884521"><ele>37.6</ele></trkpt>
<trkpt lat="41.985201" lon="-8.884479"><ele>37.8</ele></trkpt>
<trkpt lat="41.985256" lon="-8.884451"><ele>37.9</ele></trkpt>
<trkpt lat="41.985312" lon="-8.884412"><ele>37.9</ele></trkpt>
<trkpt lat="41.985364" lon="-8.884388"><ele>38.0</ele></trkpt>
<trkpt lat="41.985395" lon="-8.884368"><ele>38.2</ele></trkpt>
<trkpt lat="41.985436" lon="-8.884373"><ele>38.2</ele></trkpt>
<trkpt lat="41.985472" lon="-8.884398"><ele>38.0</ele></trkpt>
<trkpt lat="41.985511" lon="-8.884453"><ele>38.1</ele></trkpt>
<trkpt lat="41.985536" lon="-8.884479"><ele>38.1</ele></trkpt>
<trkpt lat="41.98557" lon="-8.884529"><ele>37.9</ele></trkpt>
<trkpt lat="41.985643" lon="-8.884579"><ele>37.9</ele></trkpt>
<trkpt lat="41.985755" lon="-8.884608"><ele>37.9</ele></trkpt>
<trkpt lat="41.985847" lon="-8.88462"><ele>37.6</ele></trkpt>
<trkpt lat="41.985968" lon="-8.884636"><ele>36.9</ele></trkpt>
<trkpt lat="41.986097" lon="-8.884634"><ele>36.0</ele></trkpt>
<trkpt lat="41.986373" lon="-8.884545"><ele>35.4</ele></trkpt>
<trkpt lat="41.986721" lon="-8.884416"><ele>36.7</ele></trkpt>
<trkpt lat="41.986914" lon="-8.884348"><ele>37.2</ele></trkpt>
<trkpt lat="41.987033" lon="-8.884308"><ele>37.5</ele></trkpt>
<trkpt lat="41.987144" lon="-8.884257"><ele>37.2</ele></trkpt>
<trkpt lat="41.987202" lon="-8.884222"><ele>37.1</ele></trkpt>
<trkpt lat="41.98727" lon="-8.884178"><ele>36.8</ele></trkpt>
<trkpt lat="41.987324" lon="-8.884164"><ele>36.6</ele></trkpt>
<trkpt lat="41.987379" lon="-8.88415"><ele>36.5</ele></trkpt>
<trkpt lat="41.987455" lon="-8.884111"><ele>36.5</ele></trkpt>
<trkpt lat="41.987477" lon="-8.884125"><ele>36.5</ele></trkpt>
<trkpt lat="41.987509" lon="-8.884133"><ele>36.5</ele></trkpt>
<trkpt lat="41.987565" lon="-8.884106"><ele>36.4</ele></trkpt>
<trkpt lat="41.987585" lon="-8.884105"><ele>36.4</ele></trkpt>
<trkpt lat="41.987608" lon="-8.884107"><ele>36.4</ele></trkpt>
<trkpt lat="41.987638" lon="-8.884135"><ele>36.4</ele></trkpt>
<trkpt lat="41.98767" lon="-8.884162"><ele>36.4</ele></trkpt>
<trkpt lat="41.987702" lon="-8.884178"><ele>36.3</ele></trkpt>
<trkpt lat="41.987751" lon="-8.884177"><ele>36.2</ele></trkpt>
<trkpt lat="41.987799" lon="-8.884158"><ele>36.2</ele></trkpt>
<trkpt lat="41.987841" lon="-8.884103"><ele>36.2</ele></trkpt>
<trkpt lat="41.987863" lon="-8.884032"><ele>36.3</ele></trkpt>
<trkpt lat="41.987875" lon="-8.883999"><ele>36.4</ele></trkpt>
<trkpt lat="41.987898" lon="-8.883983"><ele>36.6</ele></trkpt>
<trkpt lat="41.987959" lon="-8.883952"><ele>36.7</ele></trkpt>
<trkpt lat="41.988082" lon="-8.883886"><ele>36.6</ele></trkpt>
<trkpt lat="41.988276" lon="-8.883733"><ele>37.1</ele></trkpt>
<trkpt lat="41.988298" lon="-8.883698"><ele>37.4</ele></trkpt>
<trkpt lat="41.988311" lon="-8.883674"><ele>37.4</ele></trkpt>
<trkpt lat="41.988313" lon="-8.883644"><ele>37.4</ele></trkpt>
<trkpt lat="41.988322" lon="-8.8836"><ele>37.6</ele></trkpt>
<trkpt lat="41.988331" lon="-8.883574"><ele>37.7</ele></trkpt>
<trkpt lat="41.988393" lon="-8.88353"><ele>37.9</ele></trkpt>
<trkpt lat="41.988462" lon="-8.883475"><ele>38.2</ele></trkpt>
<trkpt lat="41.989027" lon="-8.883062"><ele>38.0</ele></trkpt>
<trkpt lat="41.989335" lon="-8.882837"><ele>38.0</ele></trkpt>
<trkpt lat="41.989661" lon="-8.882599"><ele>40.3</ele></trkpt>
<trkpt lat="41.989978" lon="-8.88237"><ele>44.3</ele></trkpt>
<trkpt lat="41.990197" lon="-8.882212"><ele>49.0</ele></trkpt>
<trkpt lat="41.990511" lon="-8.881994"><ele>51.3</ele></trkpt>
<trkpt lat="41.990778" lon="-8.881792"><ele>52.0</ele></trkpt>
<trkpt lat="41.991273" lon="-8.881454"><ele>52.0</ele></trkpt>
<trkpt lat="41.991547" lon="-8.881243"><ele>49.7</ele></trkpt>
<trkpt lat="41.99178" lon="-8.881078"><ele>45.3</ele></trkpt>
<trkpt lat="41.992045" lon="-8.880881"><ele>41.3</ele></trkpt>
<trkpt lat="41.992306" lon="-8.880694"><ele>38.3</ele></trkpt>
<trkpt lat="41.992567" lon="-8.880506"><ele>37.8</ele></trkpt>
<trkpt lat="41.992818" lon="-8.880326"><ele>38.3</ele></trkpt>
<trkpt lat="41.992982" lon="-8.880216"><ele>38.0</ele></trkpt>
<trkpt lat="41.993108" lon="-8.880134"><ele>38.3</ele></trkpt>
<trkpt lat="41.993148" lon="-8.880149"><ele>38.3</ele></trkpt>
<trkpt lat="41.993248" lon="-8.880166"><ele>38.1</ele></trkpt>
<trkpt lat="41.993352" lon="-8.880174"><ele>38.1</ele></trkpt>
<trkpt lat="41.993483" lon="-8.880172"><ele>38.0</ele></trkpt>
<trkpt lat="41.993753" lon="-8.880129"><ele>37.1</ele></trkpt>
<trkpt lat="41.993923" lon="-8.880127"><ele>36.7</ele></trkpt>
<trkpt lat="41.994059" lon="-8.880126"><ele>36.2</ele></trkpt>
<trkpt lat="41.994152" lon="-8.880136"><ele>35.7</ele></trkpt>
<trkpt lat="41.994433" lon="-8.880223"><ele>34.2</ele></trkpt>
<trkpt lat="41.994545" lon="-8.880256"><ele>33.4</ele></trkpt>
<trkpt lat="41.994632" lon="-8.880281"><ele>32.9</ele></trkpt>
<trkpt lat="41.994833" lon="-8.88034"><ele>31.7</ele></trkpt>
<trkpt lat="41.994935" lon="-8.880353"><ele>31.7</ele></trkpt>
<trkpt lat="41.995061" lon="-8.880352"><ele>30.9</ele></trkpt>
<trkpt lat="41.995207" lon="-8.880328"><ele>29.8</ele></trkpt>
<trkpt lat="41.99547" lon="-8.880238"><ele>27.8</ele></trkpt>
<trkpt lat="41.995735" lon="-8.880144"><ele>26.6</ele></trkpt>
<trkpt lat="41.995837" lon="-8.880081"><ele>26.6</ele></trkpt>
<trkpt lat="41.995872" lon="-8.880058"><ele>26.6</ele></trkpt>
<trkpt lat="41.996203" lon="-8.879837"><ele>26.0</ele></trkpt>
<trkpt lat="41.996971" lon="-8.87929"><ele>21.0</ele></trkpt>
<trkpt lat="41.997202" lon="-8.879138"><ele>20.0</ele></trkpt>
<trkpt lat="41.997299" lon="-8.879096"><ele>20.0</ele></trkpt>
<trkpt lat="41.99761" lon="-8.879018"><ele>16.7</ele></trkpt>
<trkpt lat="41.997925" lon="-8.878941"><ele>14.8</ele></trkpt>
<trkpt lat="41.998028" lon="-8.878904"><ele>14.8</ele></trkpt>
<trkpt lat="41.99809" lon="-8.878864"><ele>14.8</ele></trkpt>
<trkpt lat="41.998145" lon="-8.878804"><ele>14.7</ele></trkpt>
<trkpt lat="41.998202" lon="-8.878731"><ele>14.7</ele></trkpt>
<trkpt lat="41.998238" lon="-8.878682"><ele>14.7</ele></trkpt>
<trkpt lat="41.998284" lon="-8.878635"><ele>14.7</ele></trkpt>
<trkpt lat="41.998362" lon="-8.878585"><ele>14.7</ele></trkpt>
<trkpt lat="41.998579" lon="-8.878486"><ele>15.3</ele></trkpt>
<trkpt lat="41.998873" lon="-8.878333"><ele>17.2</ele></trkpt>
<trkpt lat="41.999089" lon="-8.878178"><ele>16.7</ele></trkpt>
<trkpt lat="41.999178" lon="-8.878117"><ele>16.7</ele></trkpt>
<trkpt lat="41.999358" lon="-8.878017"><ele>15.1</ele></trkpt>
<trkpt lat="41.999483" lon="-8.877975"><ele>14.6</ele></trkpt>
<trkpt lat="41.999599" lon="-8.877948"><ele>14.7</ele></trkpt>
<trkpt lat="41.999717" lon="-8.877912"><ele>14.6</ele></trkpt>
<trkpt lat="41.999794" lon="-8.877883"><ele>14.9</ele></trkpt>
<trkpt lat="41.999831" lon="-8.877865"><ele>15.1</ele></trkpt>
<trkpt lat="41.999866" lon="-8.877836"><ele>15.1</ele></trkpt>
<trkpt lat="41.999913" lon="-8.877769"><ele>15.1</ele></trkpt>
<trkpt lat="41.999932" lon="-8.877726"><ele>15.1</ele></trkpt>
<trkpt lat="41.999943" lon="-8.877673"><ele>15.2</ele></trkpt>
<trkpt lat="41.999972" lon="-8.877503"><ele>15.1</ele></trkpt>
<trkpt lat="42.00001" lon="-8.877424"><ele>15.3</ele></trkpt>
<trkpt lat="42.000062" lon="-8.877381"><ele>15.3</ele></trkpt>
<trkpt lat="42.000104" lon="-8.877351"><ele>15.5</ele></trkpt>
<trkpt lat="42.000183" lon="-8.877335"><ele>15.7</ele></trkpt>
<trkpt lat="42.00031" lon="-8.877331"><ele>16.3</ele></trkpt>
<trkpt lat="42.00039" lon="-8.87733"><ele>16.8</ele></trkpt>
<trkpt lat="42.000527" lon="-8.877331"><ele>17.1</ele></trkpt>
<trkpt lat="42.000601" lon="-8.877319"><ele>17.0</ele></trkpt>
<trkpt lat="42.00069" lon="-8.87728"><ele>16.9</ele></trkpt>
<trkpt lat="42.00073" lon="-8.877262"><ele>16.8</ele></trkpt>
<trkpt lat="42.000876" lon="-8.877194"><ele>16.8</ele></trkpt>
<trkpt lat="42.001001" lon="-8.877162"><ele>16.5</ele></trkpt>
<trkpt lat="42.001075" lon="-8.877138"><ele>16.5</ele></trkpt>
<trkpt lat="42.001145" lon="-8.877098"><ele>16.3</ele></trkpt>
<trkpt lat="42.001171" lon="-8.87706"><ele>15.9</ele></trkpt>
<trkpt lat="42.001391" lon="-8.876925"><ele>14.5</ele></trkpt>
<trkpt lat="42.001475" lon="-8.87689"><ele>14.5</ele></trkpt>
<trkpt lat="42.001534" lon="-8.876871"><ele>13.9</ele></trkpt>
<trkpt lat="42.00159" lon="-8.876866"><ele>13.6</ele></trkpt>
<trkpt lat="42.001671" lon="-8.876893"><ele>12.9</ele></trkpt>
<trkpt lat="42.001708" lon="-8.876902"><ele>12.5</ele></trkpt>
<trkpt lat="42.001743" lon="-8.876899"><ele>12.2</ele></trkpt>
<trkpt lat="42.001882" lon="-8.876772"><ele>11.9</ele></trkpt>
<trkpt lat="42.002014" lon="-8.87667"><ele>11.0</ele></trkpt>
<trkpt lat="42.002129" lon="-8.876603"><ele>10.1</ele></trkpt>
<trkpt lat="42.002205" lon="-8.876587"><ele>9.6</ele></trkpt>
<trkpt lat="42.002368" lon="-8.876592"><ele>9.4</ele></trkpt>
<trkpt lat="42.002515" lon="-8.876602"><ele>9.1</ele></trkpt>
<trkpt lat="42.002627" lon="-8.876629"><ele>9.0</ele></trkpt>
<trkpt lat="42.002758" lon="-8.876694"><ele>9.0</ele></trkpt>
<trkpt lat="42.00296" lon="-8.876831"><ele>8.2</ele></trkpt>
<trkpt lat="42.003371" lon="-8.877168"><ele>6.8</ele></trkpt>
<trkpt lat="42.003426" lon="-8.877211"><ele>6.2</ele></trkpt>
<trkpt lat="42.003591" lon="-8.877384"><ele>7.7</ele></trkpt>
<trkpt lat="42.00376" lon="-8.87758"><ele>8.9</ele></trkpt>
<trkpt lat="42.003837" lon="-8.87772"><ele>10.4</ele></trkpt>
<trkpt lat="42.003949" lon="-8.877908"><ele>10.8</ele></trkpt>
<trkpt lat="42.003987" lon="-8.877989"><ele>11.3</ele></trkpt>
<trkpt lat="42.004068" lon="-8.878093"><ele>11.3</ele></trkpt>
<trkpt lat="42.004101" lon="-8.878243"><ele>11.6</ele></trkpt>
<trkpt lat="42.004144" lon="-8.878318"><ele>11.8</ele></trkpt>
<trkpt lat="42.00419" lon="-8.878386"><ele>11.6</ele></trkpt>
<trkpt lat="42.004233" lon="-8.878471"><ele>11.6</ele></trkpt>
<trkpt lat="42.004269" lon="-8.878573"><ele>11.4</ele></trkpt>
<trkpt lat="42.004385" lon="-8.878981"><ele>10.6</ele></trkpt>
<trkpt lat="42.004438" lon="-8.879241"><ele>10.1</ele></trkpt>
<trkpt lat="42.004479" lon="-8.879378"><ele>10.0</ele></trkpt>
<trkpt lat="42.004604" lon="-8.879634"><ele>10.0</ele></trkpt>
<trkpt lat="42.004684" lon="-8.879761"><ele>9.9</ele></trkpt>
<trkpt lat="42.004764" lon="-8.879801"><ele>9.9</ele></trkpt>
<trkpt lat="42.004838" lon="-8.879823"><ele>9.8</ele></trkpt>
<trkpt lat="42.004931" lon="-8.87987"><ele>9.6</ele></trkpt>
<trkpt lat="42.005003" lon="-8.87992"><ele>9.6</ele></trkpt>
<trkpt lat="42.005111" lon="-8.879963"><ele>9.5</ele></trkpt>
<trkpt lat="42.005189" lon="-8.879998"><ele>9.5</ele></trkpt>
<trkpt lat="42.005282" lon="-8.88002"><ele>9.4</ele></trkpt>
<trkpt lat="42.005374" lon="-8.880038"><ele>9.4</ele></trkpt>
<trkpt lat="42.005448" lon="-8.88007"><ele>9.2</ele></trkpt>
<trkpt lat="42.005607" lon="-8.880154"><ele>8.8</ele></trkpt>
<trkpt lat="42.005882" lon="-8.880317"><ele>8.2</ele></trkpt>
<trkpt lat="42.00608" lon="-8.880448"><ele>8.2</ele></trkpt>
<trkpt lat="42.006285" lon="-8.880555"><ele>8.0</ele></trkpt>
<trkpt lat="42.006392" lon="-8.880628"><ele>8.0</ele></trkpt>
<trkpt lat="42.00656" lon="-8.88073"><ele>8.0</ele></trkpt>
<trkpt lat="42.006758" lon="-8.88083"><ele>8.3</ele></trkpt>
<trkpt lat="42.006935" lon="-8.880912"><ele>8.3</ele></trkpt>
<trkpt lat="42.007091" lon="-8.880968"><ele>8.4</ele></trkpt>
<trkpt lat="42.007269" lon="-8.881019"><ele>8.7</ele></trkpt>
<trkpt lat="42.007359" lon="-8.881043"><ele>8.9</ele></trkpt>
<trkpt lat="42.007642" lon="-8.881125"><ele>8.9</ele></trkpt>
<trkpt lat="42.007702" lon="-8.88121"><ele>8.9</ele></trkpt>
<trkpt lat="42.007769" lon="-8.881298"><ele>8.9</ele></trkpt>
<trkpt lat="42.007783" lon="-8.88131"><ele>8.9</ele></trkpt>
<trkpt lat="42.007901" lon="-8.881406"><ele>8.9</ele></trkpt>
<trkpt lat="42.008098" lon="-8.881489"><ele>8.9</ele></trkpt>
<trkpt lat="42.00833" lon="-8.881585"><ele>8.7</ele></trkpt>
<trkpt lat="42.008547" lon="-8.881681"><ele>8.8</ele></trkpt>
<trkpt lat="42.008669" lon="-8.881754"><ele>9.0</ele></trkpt>
<trkpt lat="42.008806" lon="-8.881846"><ele>9.0</ele></trkpt>
<trkpt lat="42.00891" lon="-8.881905"><ele>9.0</ele></trkpt>
<trkpt lat="42.009069" lon="-8.881959"><ele>8.9</ele></trkpt>
<trkpt lat="42.009167" lon="-8.881993"><ele>8.7</ele></trkpt>
<trkpt lat="42.00931" lon="-8.88202"><ele>8.6</ele></trkpt>
<trkpt lat="42.009446" lon="-8.882064"><ele>8.4</ele></trkpt>
<trkpt lat="42.009603" lon="-8.882113"><ele>8.4</ele></trkpt>
<trkpt lat="42.009689" lon="-8.882141"><ele>8.4</ele></trkpt>
<trkpt lat="42.009814" lon="-8.882149"><ele>8.6</ele></trkpt>
<trkpt lat="42.01008" lon="-8.882115"><ele>9.2</ele></trkpt>
<trkpt lat="42.010325" lon="-8.88209"><ele>10.7</ele></trkpt>
<trkpt lat="42.010544" lon="-8.882072"><ele>11.7</ele></trkpt>
<trkpt lat="42.01071" lon="-8.882062"><ele>12.6</ele></trkpt>
<trkpt lat="42.010843" lon="-8.882065"><ele>12.6</ele></trkpt>
<trkpt lat="42.010965" lon="-8.882086"><ele>13.5</ele></trkpt>
<trkpt lat="42.011064" lon="-8.882108"><ele>13.5</ele></trkpt>
<trkpt lat="42.011127" lon="-8.882102"><ele>14.2</ele></trkpt>
<trkpt lat="42.011211" lon="-8.882063"><ele>14.8</ele></trkpt>
<trkpt lat="42.011435" lon="-8.881884"><ele>16.8</ele></trkpt>
<trkpt lat="42.011567" lon="-8.881744"><ele>18.0</ele></trkpt>
<trkpt lat="42.01167" lon="-8.88169"><ele>18.6</ele></trkpt>
<trkpt lat="42.011734" lon="-8.881689"><ele>19.1</ele></trkpt>
<trkpt lat="42.011806" lon="-8.881732"><ele>19.1</ele></trkpt>
<trkpt lat="42.011879" lon="-8.881776"><ele>19.1</ele></trkpt>
<trkpt lat="42.011977" lon="-8.881844"><ele>19.2</ele></trkpt>
<trkpt lat="42.012095" lon="-8.881918"><ele>19.3</ele></trkpt>
<trkpt lat="42.012218" lon="-8.881966"><ele>19.1</ele></trkpt>
<trkpt lat="42.012311" lon="-8.881971"><ele>18.8</ele></trkpt>
<trkpt lat="42.012495" lon="-8.882014"><ele>18.1</ele></trkpt>
<trkpt lat="42.01268" lon="-8.882038"><ele>17.7</ele></trkpt>
<trkpt lat="42.01281" lon="-8.882041"><ele>17.2</ele></trkpt>
<trkpt lat="42.012998" lon="-8.88208"><ele>16.7</ele></trkpt>
<trkpt lat="42.013304" lon="-8.882176"><ele>15.9</ele></trkpt>
<trkpt lat="42.013486" lon="-8.882244"><ele>15.6</ele></trkpt>
<trkpt lat="42.01356" lon="-8.882288"><ele>15.6</ele></trkpt>
<trkpt lat="42.013619" lon="-8.88235"><ele>15.6</ele></trkpt>
<trkpt lat="42.013696" lon="-8.882531"><ele>15.6</ele></trkpt>
<trkpt lat="42.013728" lon="-8.882595"><ele>15.6</ele></trkpt>
<trkpt lat="42.013741" lon="-8.882621"><ele>15.6</ele></trkpt>
<trkpt lat="42.013794" lon="-8.882742"><ele>15.6</ele></trkpt>
<trkpt lat="42.013876" lon="-8.882835"><ele>15.5</ele></trkpt>
<trkpt lat="42.014003" lon="-8.8829"><ele>15.2</ele></trkpt>
<trkpt lat="42.014188" lon="-8.882977"><ele>15.0</ele></trkpt>
<trkpt lat="42.014326" lon="-8.883062"><ele>14.7</ele></trkpt>
<trkpt lat="42.01447" lon="-8.883189"><ele>14.4</ele></trkpt>
<trkpt lat="42.014547" lon="-8.883279"><ele>14.1</ele></trkpt>
<trkpt lat="42.014592" lon="-8.883333"><ele>14.1</ele></trkpt>
<trkpt lat="42.014655" lon="-8.883431"><ele>13.8</ele></trkpt>
<trkpt lat="42.014698" lon="-8.883494"><ele>13.8</ele></trkpt>
<trkpt lat="42.014741" lon="-8.883522"><ele>13.8</ele></trkpt>
<trkpt lat="42.014845" lon="-8.883543"><ele>13.6</ele></trkpt>
<trkpt lat="42.014988" lon="-8.883554"><ele>13.4</ele></trkpt>
<trkpt lat="42.015132" lon="-8.883593"><ele>13.1</ele></trkpt>
<trkpt lat="42.015279" lon="-8.883664"><ele>12.6</ele></trkpt>
<trkpt lat="42.015396" lon="-8.88372"><ele>12.6</ele></trkpt>
<trkpt lat="42.015522" lon="-8.883761"><ele>12.6</ele></trkpt>
<trkpt lat="42.015699" lon="-8.883798"><ele>12.6</ele></trkpt>
<trkpt lat="42.015847" lon="-8.883801"><ele>12.4</ele></trkpt>
<trkpt lat="42.016016" lon="-8.883782"><ele>12.3</ele></trkpt>
<trkpt lat="42.016164" lon="-8.883755"><ele>12.1</ele></trkpt>
<trkpt lat="42.016253" lon="-8.883763"><ele>11.9</ele></trkpt>
<trkpt lat="42.016425" lon="-8.883834"><ele>11.2</ele></trkpt>
<trkpt lat="42.016582" lon="-8.883919"><ele>10.9</ele></trkpt>
<trkpt lat="42.01671" lon="-8.883976"><ele>10.6</ele></trkpt>
<trkpt lat="42.016823" lon="-8.884023"><ele>10.3</ele></trkpt>
<trkpt lat="42.016922" lon="-8.884038"><ele>10.2</ele></trkpt>
<trkpt lat="42.017098" lon="-8.884021"><ele>10.2</ele></trkpt>
<trkpt lat="42.017262" lon="-8.883999"><ele>10.3</ele></trkpt>
<trkpt lat="42.017439" lon="-8.883951"><ele>10.1</ele></trkpt>
<trkpt lat="42.017551" lon="-8.883932"><ele>10.1</ele></trkpt>
<trkpt lat="42.017674" lon="-8.883924"><ele>10.0</ele></trkpt>
<trkpt lat="42.017808" lon="-8.883946"><ele>10.0</ele></trkpt>
<trkpt lat="42.017959" lon="-8.883922"><ele>10.1</ele></trkpt>
<trkpt lat="42.018131" lon="-8.883872"><ele>10.3</ele></trkpt>
<trkpt lat="42.018316" lon="-8.88384"><ele>10.2</ele></trkpt>
<trkpt lat="42.018449" lon="-8.883809"><ele>10.2</ele></trkpt>
<trkpt lat="42.018627" lon="-8.8838"><ele>11.0</ele></trkpt>
<trkpt lat="42.018997" lon="-8.883849"><ele>12.8</ele></trkpt>
<trkpt lat="42.019228" lon="-8.8839"><ele>13.3</ele></trkpt>
<trkpt lat="42.019372" lon="-8.883927"><ele>13.3</ele></trkpt>
<trkpt lat="42.019472" lon="-8.883922"><ele>13.5</ele></trkpt>
<trkpt lat="42.019572" lon="-8.883899"><ele>13.6</ele></trkpt>
<trkpt lat="42.019681" lon="-8.883865"><ele>13.9</ele></trkpt>
<trkpt lat="42.019756" lon="-8.883838"><ele>14.1</ele></trkpt>
<trkpt lat="42.019964" lon="-8.883833"><ele>14.6</ele></trkpt>
<trkpt lat="42.020147" lon="-8.883819"><ele>15.3</ele></trkpt>
<trkpt lat="42.020265" lon="-8.883817"><ele>15.4</ele></trkpt>
<trkpt lat="42.020458" lon="-8.883822"><ele>15.4</ele></trkpt>
<trkpt lat="42.020526" lon="-8.883825"><ele>15.3</ele></trkpt>
<trkpt lat="42.020687" lon="-8.883836"><ele>15.0</ele></trkpt>
<trkpt lat="42.020763" lon="-8.883833"><ele>15.0</ele></trkpt>
<trkpt lat="42.020898" lon="-8.883825"><ele>14.5</ele></trkpt>
<trkpt lat="42.020966" lon="-8.883838"><ele>14.5</ele></trkpt>
<trkpt lat="42.02103" lon="-8.883868"><ele>14.2</ele></trkpt>
<trkpt lat="42.021173" lon="-8.883951"><ele>14.0</ele></trkpt>
<trkpt lat="42.021295" lon="-8.884006"><ele>13.6</ele></trkpt>
<trkpt lat="42.021386" lon="-8.884029"><ele>13.6</ele></trkpt>
<trkpt lat="42.021514" lon="-8.884039"><ele>13.1</ele></trkpt>
<trkpt lat="42.021779" lon="-8.884039"><ele>12.8</ele></trkpt>
<trkpt lat="42.021907" lon="-8.884066"><ele>12.6</ele></trkpt>
<trkpt lat="42.022114" lon="-8.884143"><ele>12.3</ele></trkpt>
<trkpt lat="42.022325" lon="-8.884238"><ele>12.0</ele></trkpt>
<trkpt lat="42.022415" lon="-8.884273"><ele>12.0</ele></trkpt>
<trkpt lat="42.02251" lon="-8.884286"><ele>11.8</ele></trkpt>
<trkpt lat="42.02276" lon="-8.884269"><ele>11.8</ele></trkpt>
<trkpt lat="42.023137" lon="-8.884245"><ele>12.5</ele></trkpt>
<trkpt lat="42.023314" lon="-8.88421"><ele>13.2</ele></trkpt>
<trkpt lat="42.023523" lon="-8.884162"><ele>13.4</ele></trkpt>
<trkpt lat="42.023714" lon="-8.884081"><ele>13.8</ele></trkpt>
<trkpt lat="42.023858" lon="-8.884078"><ele>13.8</ele></trkpt>
<trkpt lat="42.024353" lon="-8.88408"><ele>14.2</ele></trkpt>
<trkpt lat="42.024505" lon="-8.884082"><ele>14.2</ele></trkpt>
<trkpt lat="42.024665" lon="-8.884073"><ele>14.1</ele></trkpt>
<trkpt lat="42.02481" lon="-8.884076"><ele>14.1</ele></trkpt>
<trkpt lat="42.024877" lon="-8.884077"><ele>14.1</ele></trkpt>
<trkpt lat="42.024992" lon="-8.884119"><ele>14.4</ele></trkpt>
<trkpt lat="42.025124" lon="-8.884163"><ele>14.5</ele></trkpt>
<trkpt lat="42.025248" lon="-8.884219"><ele>14.5</ele></trkpt>
<trkpt lat="42.025345" lon="-8.884258"><ele>14.4</ele></trkpt>
<trkpt lat="42.025404" lon="-8.884272"><ele>14.4</ele></trkpt>
<trkpt lat="42.025464" lon="-8.884272"><ele>14.4</ele></trkpt>
<trkpt lat="42.025501" lon="-8.884269"><ele>14.4</ele></trkpt>
<trkpt lat="42.025535" lon="-8.884254"><ele>14.4</ele></trkpt>
<trkpt lat="42.02555" lon="-8.884237"><ele>14.4</ele></trkpt>
<trkpt lat="42.025773" lon="-8.8845"><ele>14.2</ele></trkpt>
<trkpt lat="42.025883" lon="-8.884606"><ele>14.2</ele></trkpt>
<trkpt lat="42.025962" lon="-8.884666"><ele>14.1</ele></trkpt>
<trkpt lat="42.02605" lon="-8.884724"><ele>14.0</ele></trkpt>
<trkpt lat="42.026136" lon="-8.88477"><ele>14.0</ele></trkpt>
<trkpt lat="42.026234" lon="-8.884806"><ele>14.1</ele></trkpt>
<trkpt lat="42.026356" lon="-8.884838"><ele>14.1</ele></trkpt>
<trkpt lat="42.026468" lon="-8.884849"><ele>14.1</ele></trkpt>
<trkpt lat="42.026578" lon="-8.884853"><ele>14.1</ele></trkpt>
<trkpt lat="42.026692" lon="-8.884841"><ele>14.4</ele></trkpt>
<trkpt lat="42.026831" lon="-8.884804"><ele>14.4</ele></trkpt>
<trkpt lat="42.026968" lon="-8.884752"><ele>14.5</ele></trkpt>
<trkpt lat="42.027111" lon="-8.884691"><ele>14.5</ele></trkpt>
<trkpt lat="42.028104" lon="-8.884248"><ele>13.5</ele></trkpt>
<trkpt lat="42.02834" lon="-8.884134"><ele>13.5</ele></trkpt>
<trkpt lat="42.029392" lon="-8.88369"><ele>12.0</ele></trkpt>
<trkpt lat="42.029858" lon="-8.883471"><ele>11.8</ele></trkpt>
<trkpt lat="42.030151" lon="-8.883347"><ele>11.7</ele></trkpt>
<trkpt lat="42.030361" lon="-8.883258"><ele>11.7</ele></trkpt>
<trkpt lat="42.031269" lon="-8.88287"><ele>15.0</ele></trkpt>
<trkpt lat="42.031431" lon="-8.882813"><ele>14.7</ele></trkpt>
<trkpt lat="42.031815" lon="-8.882653"><ele>14.3</ele></trkpt>
<trkpt lat="42.031996" lon="-8.882569"><ele>14.0</ele></trkpt>
<trkpt lat="42.032691" lon="-8.882271"><ele>14.8</ele></trkpt>
<trkpt lat="42.032799" lon="-8.882226"><ele>15.4</ele></trkpt>
<trkpt lat="42.032907" lon="-8.882178"><ele>15.4</ele></trkpt>
<trkpt lat="42.033092" lon="-8.882132"><ele>16.1</ele></trkpt>
<trkpt lat="42.033305" lon="-8.882065"><ele>16.6</ele></trkpt>
<trkpt lat="42.033471" lon="-8.882029"><ele>16.5</ele></trkpt>
<trkpt lat="42.033591" lon="-8.882002"><ele>16.6</ele></trkpt>
<trkpt lat="42.033673" lon="-8.881984"><ele>16.7</ele></trkpt>
<trkpt lat="42.033865" lon="-8.88196"><ele>17.0</ele></trkpt>
<trkpt lat="42.033886" lon="-8.88195"><ele>17.0</ele></trkpt>
<trkpt lat="42.03389" lon="-8.881935"><ele>17.0</ele></trkpt>
<trkpt lat="42.033889" lon="-8.881913"><ele>17.0</ele></trkpt>
<trkpt lat="42.033886" lon="-8.881883"><ele>17.0</ele></trkpt>
<trkpt lat="42.033877" lon="-8.881803"><ele>17.0</ele></trkpt>
<trkpt lat="42.033882" lon="-8.881768"><ele>17.0</ele></trkpt>
<trkpt lat="42.033892" lon="-8.881736"><ele>17.0</ele></trkpt>
<trkpt lat="42.033916" lon="-8.88171"><ele>17.2</ele></trkpt>
<trkpt lat="42.033982" lon="-8.881669"><ele>17.3</ele></trkpt>
<trkpt lat="42.03405" lon="-8.881611"><ele>17.4</ele></trkpt>
<trkpt lat="42.034119" lon="-8.881549"><ele>17.7</ele></trkpt>
<trkpt lat="42.034211" lon="-8.881478"><ele>17.9</ele></trkpt>
<trkpt lat="42.034253" lon="-8.881456"><ele>17.9</ele></trkpt>
<trkpt lat="42.034371" lon="-8.881392"><ele>19.5</ele></trkpt>
<trkpt lat="42.034451" lon="-8.881336"><ele>20.0</ele></trkpt>
<trkpt lat="42.034518" lon="-8.881279"><ele>20.3</ele></trkpt>
<trkpt lat="42.034569" lon="-8.881239"><ele>20.6</ele></trkpt>
<trkpt lat="42.034527" lon="-8.881082"><ele>20.6</ele></trkpt>
<trkpt lat="42.034575" lon="-8.881023"><ele>20.9</ele></trkpt>
<trkpt lat="42.034653" lon="-8.880886"><ele>21.2</ele></trkpt>
<trkpt lat="42.034701" lon="-8.880814"><ele>21.4</ele></trkpt>
<trkpt lat="42.034754" lon="-8.880761"><ele>21.4</ele></trkpt>
<trkpt lat="42.034814" lon="-8.880715"><ele>21.5</ele></trkpt>
<trkpt lat="42.034903" lon="-8.880673"><ele>21.8</ele></trkpt>
<trkpt lat="42.034998" lon="-8.880644"><ele>22.2</ele></trkpt>
<trkpt lat="42.035085" lon="-8.880621"><ele>22.4</ele></trkpt>
<trkpt lat="42.03519" lon="-8.880593"><ele>22.7</ele></trkpt>
<trkpt lat="42.035302" lon="-8.880538"><ele>22.9</ele></trkpt>
<trkpt lat="42.035381" lon="-8.880491"><ele>23.1</ele></trkpt>
<trkpt lat="42.035457" lon="-8.88044"><ele>23.2</ele></trkpt>
<trkpt lat="42.035554" lon="-8.880362"><ele>23.2</ele></trkpt>
<trkpt lat="42.035596" lon="-8.880326"><ele>23.4</ele></trkpt>
<trkpt lat="42.035649" lon="-8.88028"><ele>23.4</ele></trkpt>
<trkpt lat="42.035708" lon="-8.880262"><ele>23.5</ele></trkpt>
<trkpt lat="42.035815" lon="-8.880225"><ele>23.5</ele></trkpt>
<trkpt lat="42.035891" lon="-8.880207"><ele>23.5</ele></trkpt>
<trkpt lat="42.03602" lon="-8.880169"><ele>23.7</ele></trkpt>
<trkpt lat="42.036232" lon="-8.880144"><ele>23.7</ele></trkpt>
<trkpt lat="42.036311" lon="-8.880134"><ele>23.7</ele></trkpt>
<trkpt lat="42.036378" lon="-8.880106"><ele>23.6</ele></trkpt>
<trkpt lat="42.036455" lon="-8.88005"><ele>23.7</ele></trkpt>
<trkpt lat="42.03654" lon="-8.879987"><ele>23.8</ele></trkpt>
<trkpt lat="42.036646" lon="-8.879941"><ele>23.9</ele></trkpt>
<trkpt lat="42.036989" lon="-8.879859"><ele>23.6</ele></trkpt>
<trkpt lat="42.037087" lon="-8.879838"><ele>23.3</ele></trkpt>
<trkpt lat="42.037284" lon="-8.879793"><ele>22.5</ele></trkpt>
<trkpt lat="42.037435" lon="-8.879753"><ele>22.3</ele></trkpt>
<trkpt lat="42.037521" lon="-8.87974"><ele>22.1</ele></trkpt>
<trkpt lat="42.037666" lon="-8.879715"><ele>21.6</ele></trkpt>
<trkpt lat="42.037714" lon="-8.879709"><ele>21.6</ele></trkpt>
<trkpt lat="42.037763" lon="-8.879712"><ele>21.6</ele></trkpt>
<trkpt lat="42.037789" lon="-8.879724"><ele>21.5</ele></trkpt>
<trkpt lat="42.03781" lon="-8.879743"><ele>21.5</ele></trkpt>
<trkpt lat="42.037833" lon="-8.879781"><ele>21.4</ele></trkpt>
<trkpt lat="42.037854" lon="-8.879831"><ele>21.4</ele></trkpt>
<trkpt lat="42.037919" lon="-8.879983"><ele>21.4</ele></trkpt>
<trkpt lat="42.037951" lon="-8.88005"><ele>21.4</ele></trkpt>
<trkpt lat="42.03799" lon="-8.880115"><ele>21.4</ele></trkpt>
<trkpt lat="42.038034" lon="-8.880164"><ele>21.4</ele></trkpt>
<trkpt lat="42.038159" lon="-8.880247"><ele>21.3</ele></trkpt>
<trkpt lat="42.038447" lon="-8.880477"><ele>22.5</ele></trkpt>
<trkpt lat="42.038528" lon="-8.880536"><ele>22.8</ele></trkpt>
<trkpt lat="42.038574" lon="-8.880575"><ele>22.8</ele></trkpt>
<trkpt lat="42.038623" lon="-8.880632"><ele>22.9</ele></trkpt>
<trkpt lat="42.03866" lon="-8.880577"><ele>23.1</ele></trkpt>
<trkpt lat="42.038702" lon="-8.880522"><ele>23.1</ele></trkpt>
<trkpt lat="42.038732" lon="-8.880491"><ele>23.1</ele></trkpt>
<trkpt lat="42.03878" lon="-8.880443"><ele>23.3</ele></trkpt>
<trkpt lat="42.038811" lon="-8.880407"><ele>23.5</ele></trkpt>
<trkpt lat="42.038831" lon="-8.880374"><ele>23.5</ele></trkpt>
<trkpt lat="42.038842" lon="-8.880329"><ele>23.6</ele></trkpt>
<trkpt lat="42.038843" lon="-8.880264"><ele>23.6</ele></trkpt>
<trkpt lat="42.038848" lon="-8.880185"><ele>23.7</ele></trkpt>
<trkpt lat="42.038868" lon="-8.880101"><ele>23.8</ele></trkpt>
<trkpt lat="42.038923" lon="-8.87995"><ele>24.4</ele></trkpt>
<trkpt lat="42.038976" lon="-8.879825"><ele>24.9</ele></trkpt>
<trkpt lat="42.039017" lon="-8.879767"><ele>25.1</ele></trkpt>
<trkpt lat="42.039082" lon="-8.87971"><ele>25.4</ele></trkpt>
<trkpt lat="42.039154" lon="-8.879664"><ele>25.7</ele></trkpt>
<trkpt lat="42.039244" lon="-8.879617"><ele>26.1</ele></trkpt>
<trkpt lat="42.039299" lon="-8.879579"><ele>26.5</ele></trkpt>
<trkpt lat="42.039398" lon="-8.879466"><ele>26.9</ele></trkpt>
<trkpt lat="42.039618" lon="-8.879182"><ele>28.8</ele></trkpt>
<trkpt lat="42.0397" lon="-8.879096"><ele>29.2</ele></trkpt>
<trkpt lat="42.039777" lon="-8.879048"><ele>29.7</ele></trkpt>
<trkpt lat="42.039921" lon="-8.87904"><ele>30.4</ele></trkpt>
<trkpt lat="42.040017" lon="-8.879032"><ele>30.6</ele></trkpt>
<trkpt lat="42.040116" lon="-8.878997"><ele>30.5</ele></trkpt>
<trkpt lat="42.040315" lon="-8.878908"><ele>30.6</ele></trkpt>
<trkpt lat="42.040455" lon="-8.878866"><ele>30.3</ele></trkpt>
<trkpt lat="42.040534" lon="-8.878844"><ele>30.3</ele></trkpt>
<trkpt lat="42.04062" lon="-8.878841"><ele>30.3</ele></trkpt>
<trkpt lat="42.04076" lon="-8.878836"><ele>30.6</ele></trkpt>
<trkpt lat="42.040851" lon="-8.878833"><ele>30.9</ele></trkpt>
<trkpt lat="42.040945" lon="-8.878793"><ele>31.2</ele></trkpt>
<trkpt lat="42.041092" lon="-8.878664"><ele>32.1</ele></trkpt>
<trkpt lat="42.041216" lon="-8.878524"><ele>33.3</ele></trkpt>
<trkpt lat="42.041297" lon="-8.878434"><ele>34.1</ele></trkpt>
<trkpt lat="42.041365" lon="-8.878351"><ele>34.9</ele></trkpt>
<trkpt lat="42.041421" lon="-8.878254"><ele>35.5</ele></trkpt>
<trkpt lat="42.041447" lon="-8.878155"><ele>35.5</ele></trkpt>
<trkpt lat="42.041463" lon="-8.87805"><ele>36.0</ele></trkpt>
<trkpt lat="42.041469" lon="-8.877885"><ele>36.0</ele></trkpt>
<trkpt lat="42.041614" lon="-8.877947"><ele>36.5</ele></trkpt>
<trkpt lat="42.041799" lon="-8.878016"><ele>36.8</ele></trkpt>
<trkpt lat="42.042061" lon="-8.878106"><ele>37.3</ele></trkpt>
<trkpt lat="42.042135" lon="-8.878135"><ele>37.3</ele></trkpt>
<trkpt lat="42.042201" lon="-8.878178"><ele>37.2</ele></trkpt>
<trkpt lat="42.042365" lon="-8.878316"><ele>37.0</ele></trkpt>
</trkseg></trk></gpx>