<?xml version="1.0" encoding="UTF-8"?>
<gpx version="1.1" creator="caminho-in-october (OpenStreetMap data, ODbL)" xmlns="http://www.topografix.com/GPX/1/1">
<metadata><name>Caminho Portugues da Costa - stage 4</name><copyright author="OpenStreetMap contributors"><license>https://www.openstreetmap.org/copyright</license></copyright></metadata>
<trk><name>stage 4</name><trkseg>
<trkpt lat="41.693327" lon="-8.833106"><ele>12.0</ele></trkpt>
<trkpt lat="41.693001" lon="-8.833701"><ele>13.4</ele></trkpt>
<trkpt lat="41.692986" lon="-8.833741"><ele>13.4</ele></trkpt>
<trkpt lat="41.692974" lon="-8.833785"><ele>13.4</ele></trkpt>
<trkpt lat="41.692967" lon="-8.83383"><ele>13.4</ele></trkpt>
<trkpt lat="41.692965" lon="-8.833869"><ele>13.4</ele></trkpt>
<trkpt lat="41.692965" lon="-8.834088"><ele>13.4</ele></trkpt>
<trkpt lat="41.692973" lon="-8.834193"><ele>13.4</ele></trkpt>
<trkpt lat="41.692976" lon="-8.834251"><ele>13.4</ele></trkpt>
<trkpt lat="41.692973" lon="-8.834315"><ele>13.4</ele></trkpt>
<trkpt lat="41.692968" lon="-8.834351"><ele>13.4</ele></trkpt>
<trkpt lat="41.692959" lon="-8.834392"><ele>13.8</ele></trkpt>
<trkpt lat="41.692764" lon="-8.835024"><ele>14.6</ele></trkpt>
<trkpt lat="41.692755" lon="-8.835053"><ele>14.3</ele></trkpt>
<trkpt lat="41.692721" lon="-8.835094"><ele>14.4</ele></trkpt>
<trkpt lat="41.692682" lon="-8.835118"><ele>14.4</ele></trkpt>
<trkpt lat="41.692687" lon="-8.835158"><ele>14.4</ele></trkpt>
<trkpt lat="41.69268" lon="-8.835209"><ele>14.4</ele></trkpt>
<trkpt lat="41.692638" lon="-8.8353"><ele>14.4</ele></trkpt>
<trkpt lat="41.692478" lon="-8.835645"><ele>14.0</ele></trkpt>
<trkpt lat="41.692224" lon="-8.836102"><ele>12.5</ele></trkpt>
<trkpt lat="41.692815" lon="-8.837292"><ele>13.0</ele></trkpt>
<trkpt lat="41.692812" lon="-8.837354"><ele>13.0</ele></trkpt>
<trkpt lat="41.692803" lon="-8.837492"><ele>13.0</ele></trkpt>
<trkpt lat="41.692733" lon="-8.837597"><ele>13.2</ele></trkpt>
<trkpt lat="41.692516" lon="-8.83788"><ele>13.2</ele></trkpt>
<trkpt lat="41.692718" lon="-8.838239"><ele>14.5</ele></trkpt>
<trkpt lat="41.692847" lon="-8.838463"><ele>15.2</ele></trkpt>
<trkpt lat="41.692917" lon="-8.838578"><ele>15.2</ele></trkpt>
<trkpt lat="41.692951" lon="-8.838634"><ele>15.2</ele></trkpt>
<trkpt lat="41.6934" lon="-8.837968"><ele>20.8</ele></trkpt>
<trkpt lat="41.693523" lon="-8.837833"><ele>20.8</ele></trkpt>
<trkpt lat="41.693592" lon="-8.837799"><ele>20.8</ele></trkpt>
<trkpt lat="41.693763" lon="-8.837734"><ele>22.1</ele></trkpt>
<trkpt lat="41.694141" lon="-8.83758"><ele>27.3</ele></trkpt>
<trkpt lat="41.694206" lon="-8.837527"><ele>27.9</ele></trkpt>
<trkpt lat="41.694241" lon="-8.837488"><ele>28.4</ele></trkpt>
<trkpt lat="41.694302" lon="-8.83741"><ele>29.1</ele></trkpt>
<trkpt lat="41.694404" lon="-8.837486"><ele>29.6</ele></trkpt>
<trkpt lat="41.694435" lon="-8.837483"><ele>29.6</ele></trkpt>
<trkpt lat="41.694577" lon="-8.837463"><ele>30.1</ele></trkpt>
<trkpt lat="41.694643" lon="-8.837448"><ele>30.1</ele></trkpt>
<trkpt lat="41.694665" lon="-8.837481"><ele>30.1</ele></trkpt>
<trkpt lat="41.694721" lon="-8.837428"><ele>30.7</ele></trkpt>
<trkpt lat="41.694776" lon="-8.837405"><ele>31.3</ele></trkpt>
<trkpt lat="41.694872" lon="-8.837382"><ele>33.0</ele></trkpt>
<trkpt lat="41.695053" lon="-8.837566"><ele>35.1</ele></trkpt>
<trkpt lat="41.695272" lon="-8.837796"><ele>37.7</ele></trkpt>
<trkpt lat="41.695331" lon="-8.837845"><ele>38.0</ele></trkpt>
<trkpt lat="41.695413" lon="-8.837907"><ele>38.0</ele></trkpt>
<trkpt lat="41.695439" lon="-8.837926"><ele>38.0</ele></trkpt>
<trkpt lat="41.695594" lon="-8.837922"><ele>38.3</ele></trkpt>
<trkpt lat="41.695617" lon="-8.837892"><ele>38.3</ele></trkpt>
<trkpt lat="41.695701" lon="-8.837798"><ele>38.3</ele></trkpt>
<trkpt lat="41.696317" lon="-8.837219"><ele>43.0</ele></trkpt>
<trkpt lat="41.696911" lon="-8.836818"><ele>50.3</ele></trkpt>
<trkpt lat="41.697227" lon="-8.836613"><ele>51.4</ele></trkpt>
<trkpt lat="41.697356" lon="-8.836488"><ele>51.4</ele></trkpt>
<trkpt lat="41.697424" lon="-8.836454"><ele>52.2</ele></trkpt>
<trkpt lat="41.697469" lon="-8.836503"><ele>52.2</ele></trkpt>
<trkpt lat="41.698144" lon="-8.837261"><ele>53.0</ele></trkpt>
<trkpt lat="41.699098" lon="-8.838327"><ele>51.0</ele></trkpt>
<trkpt lat="41.700142" lon="-8.839818"><ele>50.0</ele></trkpt>
<trkpt lat="41.700434" lon="-8.840113"><ele>50.5</ele></trkpt>
<trkpt lat="41.700622" lon="-8.8403"><ele>50.8</ele></trkpt>
<trkpt lat="41.700767" lon="-8.840431"><ele>50.8</ele></trkpt>
<trkpt lat="41.701016" lon="-8.840616"><ele>50.7</ele></trkpt>
<trkpt lat="41.701887" lon="-8.841224"><ele>51.0</ele></trkpt>
<trkpt lat="41.701931" lon="-8.841255"><ele>51.0</ele></trkpt>
<trkpt lat="41.702663" lon="-8.841767"><ele>55.0</ele></trkpt>
<trkpt lat="41.703069" lon="-8.842043"><ele>56.0</ele></trkpt>
<trkpt lat="41.703193" lon="-8.842157"><ele>56.5</ele></trkpt>
<trkpt lat="41.703356" lon="-8.842311"><ele>56.2</ele></trkpt>
<trkpt lat="41.70357" lon="-8.842471"><ele>56.0</ele></trkpt>
<trkpt lat="41.703812" lon="-8.842621"><ele>56.0</ele></trkpt>
<trkpt lat="41.70406" lon="-8.842752"><ele>56.0</ele></trkpt>
<trkpt lat="41.704166" lon="-8.842797"><ele>56.2</ele></trkpt>
<trkpt lat="41.704387" lon="-8.842927"><ele>56.5</ele></trkpt>
<trkpt lat="41.704553" lon="-8.843034"><ele>56.0</ele></trkpt>
<trkpt lat="41.70502" lon="-8.843358"><ele>55.0</ele></trkpt>
<trkpt lat="41.705208" lon="-8.84349"><ele>53.5</ele></trkpt>
<trkpt lat="41.705552" lon="-8.843727"><ele>53.6</ele></trkpt>
<trkpt lat="41.705654" lon="-8.843818"><ele>53.8</ele></trkpt>
<trkpt lat="41.705708" lon="-8.843867"><ele>53.6</ele></trkpt>
<trkpt lat="41.705784" lon="-8.843916"><ele>53.9</ele></trkpt>
<trkpt lat="41.705907" lon="-8.843989"><ele>53.9</ele></trkpt>
<trkpt lat="41.706011" lon="-8.844037"><ele>53.9</ele></trkpt>
<trkpt lat="41.706117" lon="-8.844074"><ele>54.4</ele></trkpt>
<trkpt lat="41.706269" lon="-8.844118"><ele>55.1</ele></trkpt>
<trkpt lat="41.706563" lon="-8.84418"><ele>55.6</ele></trkpt>
<trkpt lat="41.706676" lon="-8.844194"><ele>55.2</ele></trkpt>
<trkpt lat="41.706786" lon="-8.844215"><ele>55.0</ele></trkpt>
<trkpt lat="41.706887" lon="-8.844257"><ele>54.8</ele></trkpt>
<trkpt lat="41.707006" lon="-8.844308"><ele>54.1</ele></trkpt>
<trkpt lat="41.70709" lon="-8.844346"><ele>53.7</ele></trkpt>
<trkpt lat="41.707108" lon="-8.844418"><ele>53.3</ele></trkpt>
<trkpt lat="41.707127" lon="-8.84447"><ele>53.3</ele></trkpt>
<trkpt lat="41.707142" lon="-8.844489"><ele>53.0</ele></trkpt>
<trkpt lat="41.707173" lon="-8.844519"><ele>52.8</ele></trkpt>
<trkpt lat="41.70723" lon="-8.844544"><ele>52.8</ele></trkpt>
<trkpt lat="41.707278" lon="-8.84456"><ele>52.3</ele></trkpt>
<trkpt lat="41.707376" lon="-8.844619"><ele>51.9</ele></trkpt>
<trkpt lat="41.707407" lon="-8.844665"><ele>51.9</ele></trkpt>
<trkpt lat="41.707417" lon="-8.844753"><ele>51.9</ele></trkpt>
<trkpt lat="41.707423" lon="-8.844886"><ele>51.7</ele></trkpt>
<trkpt lat="41.707432" lon="-8.844966"><ele>51.2</ele></trkpt>
<trkpt lat="41.707493" lon="-8.845021"><ele>50.7</ele></trkpt>
<trkpt lat="41.707597" lon="-8.845078"><ele>49.5</ele></trkpt>
<trkpt lat="41.707701" lon="-8.845116"><ele>48.9</ele></trkpt>
<trkpt lat="41.707911" lon="-8.845257"><ele>47.5</ele></trkpt>
<trkpt lat="41.708041" lon="-8.845349"><ele>47.0</ele></trkpt>
<trkpt lat="41.708168" lon="-8.845451"><ele>46.9</ele></trkpt>
<trkpt lat="41.708332" lon="-8.845591"><ele>46.8</ele></trkpt>
<trkpt lat="41.708405" lon="-8.845644"><ele>46.8</ele></trkpt>
<trkpt lat="41.708486" lon="-8.845667"><ele>46.5</ele></trkpt>
<trkpt lat="41.708666" lon="-8.845662"><ele>46.4</ele></trkpt>
<trkpt lat="41.70876" lon="-8.845663"><ele>46.4</ele></trkpt>
<trkpt lat="41.70881" lon="-8.845657"><ele>46.4</ele></trkpt>
<trkpt lat="41.708841" lon="-8.845665"><ele>46.1</ele></trkpt>
<trkpt lat="41.708878" lon="-8.845676"><ele>46.1</ele></trkpt>
<trkpt lat="41.708925" lon="-8.845696"><ele>46.1</ele></trkpt>
<trkpt lat="41.708947" lon="-8.845714"><ele>46.1</ele></trkpt>
<trkpt lat="41.708952" lon="-8.845748"><ele>46.1</ele></trkpt>
<trkpt lat="41.70895" lon="-8.845796"><ele>45.7</ele></trkpt>
<trkpt lat="41.708937" lon="-8.845894"><ele>45.7</ele></trkpt>
<trkpt lat="41.708898" lon="-8.846032"><ele>45.4</ele></trkpt>
<trkpt lat="41.708866" lon="-8.846169"><ele>45.0</ele></trkpt>
<trkpt lat="41.708853" lon="-8.846379"><ele>43.7</ele></trkpt>
<trkpt lat="41.70885" lon="-8.846491"><ele>41.7</ele></trkpt>
<trkpt lat="41.708866" lon="-8.84665"><ele>40.7</ele></trkpt>
<trkpt lat="41.70889" lon="-8.84687"><ele>39.8</ele></trkpt>
<trkpt lat="41.708917" lon="-8.846999"><ele>39.3</ele></trkpt>
<trkpt lat="41.708972" lon="-8.847054"><ele>39.2</ele></trkpt>
<trkpt lat="41.709083" lon="-8.847123"><ele>38.9</ele></trkpt>
<trkpt lat="41.709231" lon="-8.847194"><ele>38.4</ele></trkpt>
<trkpt lat="41.709281" lon="-8.84724"><ele>38.4</ele></trkpt>
<trkpt lat="41.709371" lon="-8.847288"><ele>38.3</ele></trkpt>
<trkpt lat="41.709467" lon="-8.847328"><ele>38.2</ele></trkpt>
<trkpt lat="41.709525" lon="-8.847356"><ele>38.2</ele></trkpt>
<trkpt lat="41.709654" lon="-8.847158"><ele>38.4</ele></trkpt>
<trkpt lat="41.709697" lon="-8.847137"><ele>38.7</ele></trkpt>
<trkpt lat="41.709749" lon="-8.84714"><ele>39.5</ele></trkpt>
<trkpt lat="41.709806" lon="-8.847193"><ele>40.1</ele></trkpt>
<trkpt lat="41.70991" lon="-8.847323"><ele>40.5</ele></trkpt>
<trkpt lat="41.709992" lon="-8.847404"><ele>40.6</ele></trkpt>
<trkpt lat="41.710034" lon="-8.847393"><ele>40.7</ele></trkpt>
<trkpt lat="41.710131" lon="-8.847302"><ele>40.8</ele></trkpt>
<trkpt lat="41.710166" lon="-8.847276"><ele>40.8</ele></trkpt>
<trkpt lat="41.710197" lon="-8.847253"><ele>40.9</ele></trkpt>
<trkpt lat="41.710217" lon="-8.847241"><ele>40.9</ele></trkpt>
<trkpt lat="41.710246" lon="-8.847231"><ele>41.0</ele></trkpt>
<trkpt lat="41.710265" lon="-8.847227"><ele>41.0</ele></trkpt>
<trkpt lat="41.710266" lon="-8.84724"><ele>41.0</ele></trkpt>
<trkpt lat="41.71027" lon="-8.847253"><ele>41.0</ele></trkpt>
<trkpt lat="41.710275" lon="-8.847264"><ele>41.0</ele></trkpt>
<trkpt lat="41.710283" lon="-8.847273"><ele>41.1</ele></trkpt>
<trkpt lat="41.710291" lon="-8.84728"><ele>41.1</ele></trkpt>
<trkpt lat="41.710301" lon="-8.847284"><ele>41.1</ele></trkpt>
<trkpt lat="41.710311" lon="-8.847285"><ele>41.1</ele></trkpt>
<trkpt lat="41.710321" lon="-8.847282"><ele>41.1</ele></trkpt>
<trkpt lat="41.71033" lon="-8.847277"><ele>41.1</ele></trkpt>
<trkpt lat="41.710338" lon="-8.847269"><ele>41.1</ele></trkpt>
<trkpt lat="41.710382" lon="-8.847349"><ele>41.2</ele></trkpt>
<trkpt lat="41.71039" lon="-8.847376"><ele>41.2</ele></trkpt>
<trkpt lat="41.710397" lon="-8.847413"><ele>41.2</ele></trkpt>
<trkpt lat="41.710488" lon="-8.847471"><ele>41.3</ele></trkpt>
<trkpt lat="41.71054" lon="-8.847513"><ele>41.4</ele></trkpt>
<trkpt lat="41.710611" lon="-8.847582"><ele>41.5</ele></trkpt>
<trkpt lat="41.710728" lon="-8.847668"><ele>41.4</ele></trkpt>
<trkpt lat="41.710788" lon="-8.84769"><ele>41.1</ele></trkpt>
<trkpt lat="41.710869" lon="-8.847728"><ele>40.9</ele></trkpt>
<trkpt lat="41.710925" lon="-8.84776"><ele>40.8</ele></trkpt>
<trkpt lat="41.710971" lon="-8.847822"><ele>40.7</ele></trkpt>
<trkpt lat="41.710991" lon="-8.847905"><ele>40.7</ele></trkpt>
<trkpt lat="41.711017" lon="-8.848058"><ele>40.6</ele></trkpt>
<trkpt lat="41.711035" lon="-8.84814"><ele>40.6</ele></trkpt>
<trkpt lat="41.711057" lon="-8.848214"><ele>40.6</ele></trkpt>
<trkpt lat="41.711101" lon="-8.848288"><ele>40.7</ele></trkpt>
<trkpt lat="41.711235" lon="-8.848414"><ele>40.8</ele></trkpt>
<trkpt lat="41.711307" lon="-8.848468"><ele>40.8</ele></trkpt>
<trkpt lat="41.711421" lon="-8.848548"><ele>41.0</ele></trkpt>
<trkpt lat="41.711473" lon="-8.848595"><ele>41.2</ele></trkpt>
<trkpt lat="41.711564" lon="-8.848609"><ele>41.5</ele></trkpt>
<trkpt lat="41.711658" lon="-8.848635"><ele>41.7</ele></trkpt>
<trkpt lat="41.711802" lon="-8.848682"><ele>42.1</ele></trkpt>
<trkpt lat="41.711888" lon="-8.848699"><ele>42.4</ele></trkpt>
<trkpt lat="41.711958" lon="-8.848696"><ele>42.7</ele></trkpt>
<trkpt lat="41.712038" lon="-8.848653"><ele>43.1</ele></trkpt>
<trkpt lat="41.712136" lon="-8.848578"><ele>43.4</ele></trkpt>
<trkpt lat="41.712272" lon="-8.84849"><ele>43.8</ele></trkpt>
<trkpt lat="41.712364" lon="-8.848441"><ele>43.9</ele></trkpt>
<trkpt lat="41.712437" lon="-8.848405"><ele>44.3</ele></trkpt>
<trkpt lat="41.712508" lon="-8.848398"><ele>44.8</ele></trkpt>
<trkpt lat="41.712571" lon="-8.848401"><ele>45.0</ele></trkpt>
<trkpt lat="41.712684" lon="-8.848447"><ele>45.2</ele></trkpt>
<trkpt lat="41.712779" lon="-8.848495"><ele>45.2</ele></trkpt>
<trkpt lat="41.712907" lon="-8.848573"><ele>45.6</ele></trkpt>
<trkpt lat="41.712992" lon="-8.848631"><ele>45.7</ele></trkpt>
<trkpt lat="41.713007" lon="-8.848664"><ele>45.7</ele></trkpt>
<trkpt lat="41.713016" lon="-8.848698"><ele>45.8</ele></trkpt>
<trkpt lat="41.713103" lon="-8.848739"><ele>45.9</ele></trkpt>
<trkpt lat="41.713351" lon="-8.848849"><ele>46.0</ele></trkpt>
<trkpt lat="41.713591" lon="-8.848965"><ele>45.7</ele></trkpt>
<trkpt lat="41.713712" lon="-8.849021"><ele>45.7</ele></trkpt>
<trkpt lat="41.713808" lon="-8.849061"><ele>45.7</ele></trkpt>
<trkpt lat="41.71392" lon="-8.84909"><ele>45.6</ele></trkpt>
<trkpt lat="41.714009" lon="-8.8491"><ele>45.6</ele></trkpt>
<trkpt lat="41.714258" lon="-8.849066"><ele>45.7</ele></trkpt>
<trkpt lat="41.714388" lon="-8.849054"><ele>47.0</ele></trkpt>
<trkpt lat="41.714756" lon="-8.849309"><ele>47.8</ele></trkpt>
<trkpt lat="41.714843" lon="-8.849357"><ele>47.9</ele></trkpt>
<trkpt lat="41.714847" lon="-8.849345"><ele>47.9</ele></trkpt>
<trkpt lat="41.714853" lon="-8.849335"><ele>47.9</ele></trkpt>
<trkpt lat="41.71486" lon="-8.849326"><ele>47.9</ele></trkpt>
<trkpt lat="41.714868" lon="-8.849319"><ele>47.9</ele></trkpt>
<trkpt lat="41.714877" lon="-8.849314"><ele>47.9</ele></trkpt>
<trkpt lat="41.714887" lon="-8.849311"><ele>47.9</ele></trkpt>
<trkpt lat="41.714897" lon="-8.84931"><ele>48.0</ele></trkpt>
<trkpt lat="41.714906" lon="-8.849312"><ele>48.0</ele></trkpt>
<trkpt lat="41.714916" lon="-8.849316"><ele>48.0</ele></trkpt>
<trkpt lat="41.714924" lon="-8.849321"><ele>48.0</ele></trkpt>
<trkpt lat="41.714932" lon="-8.849329"><ele>48.0</ele></trkpt>
<trkpt lat="41.714939" lon="-8.849339"><ele>48.0</ele></trkpt>
<trkpt lat="41.714945" lon="-8.849353"><ele>48.0</ele></trkpt>
<trkpt lat="41.714949" lon="-8.849368"><ele>48.0</ele></trkpt>
<trkpt lat="41.71495" lon="-8.849385"><ele>48.0</ele></trkpt>
<trkpt lat="41.714949" lon="-8.849401"><ele>48.0</ele></trkpt>
<trkpt lat="41.714945" lon="-8.849416"><ele>48.0</ele></trkpt>
<trkpt lat="41.715167" lon="-8.849581"><ele>48.0</ele></trkpt>
<trkpt lat="41.715456" lon="-8.849759"><ele>47.8</ele></trkpt>
<trkpt lat="41.715642" lon="-8.849879"><ele>47.5</ele></trkpt>
<trkpt lat="41.715732" lon="-8.849938"><ele>47.2</ele></trkpt>
<trkpt lat="41.715828" lon="-8.849978"><ele>47.2</ele></trkpt>
<trkpt lat="41.71612" lon="-8.850059"><ele>47.0</ele></trkpt>
<trkpt lat="41.716359" lon="-8.850128"><ele>47.0</ele></trkpt>
<trkpt lat="41.716559" lon="-8.850187"><ele>47.5</ele></trkpt>
<trkpt lat="41.716735" lon="-8.850236"><ele>47.8</ele></trkpt>
<trkpt lat="41.716925" lon="-8.850289"><ele>48.3</ele></trkpt>
<trkpt lat="41.717064" lon="-8.850334"><ele>48.4</ele></trkpt>
<trkpt lat="41.717178" lon="-8.850338"><ele>48.6</ele></trkpt>
<trkpt lat="41.717368" lon="-8.850348"><ele>48.8</ele></trkpt>
<trkpt lat="41.717456" lon="-8.850354"><ele>48.8</ele></trkpt>
<trkpt lat="41.71754" lon="-8.850378"><ele>48.8</ele></trkpt>
<trkpt lat="41.717639" lon="-8.850425"><ele>48.9</ele></trkpt>
<trkpt lat="41.71773" lon="-8.85048"><ele>49.0</ele></trkpt>
<trkpt lat="41.717854" lon="-8.850563"><ele>49.2</ele></trkpt>
<trkpt lat="41.717964" lon="-8.850625"><ele>49.3</ele></trkpt>
<trkpt lat="41.718027" lon="-8.850654"><ele>49.6</ele></trkpt>
<trkpt lat="41.71809" lon="-8.850678"><ele>49.6</ele></trkpt>
<trkpt lat="41.718136" lon="-8.850688"><ele>49.6</ele></trkpt>
<trkpt lat="41.718168" lon="-8.850638"><ele>50.1</ele></trkpt>
<trkpt lat="41.71821" lon="-8.850595"><ele>50.8</ele></trkpt>
<trkpt lat="41.718251" lon="-8.850544"><ele>50.8</ele></trkpt>
<trkpt lat="41.718269" lon="-8.850512"><ele>51.2</ele></trkpt>
<trkpt lat="41.718287" lon="-8.850464"><ele>51.7</ele></trkpt>
<trkpt lat="41.718303" lon="-8.850402"><ele>51.7</ele></trkpt>
<trkpt lat="41.71832" lon="-8.850327"><ele>52.0</ele></trkpt>
<trkpt lat="41.718368" lon="-8.850104"><ele>52.4</ele></trkpt>
<trkpt lat="41.718395" lon="-8.849987"><ele>53.1</ele></trkpt>
<trkpt lat="41.718442" lon="-8.849986"><ele>53.8</ele></trkpt>
<trkpt lat="41.718512" lon="-8.85"><ele>53.8</ele></trkpt>
<trkpt lat="41.718632" lon="-8.850032"><ele>55.6</ele></trkpt>
<trkpt lat="41.718718" lon="-8.850053"><ele>56.6</ele></trkpt>
<trkpt lat="41.718809" lon="-8.85006"><ele>57.6</ele></trkpt>
<trkpt lat="41.718945" lon="-8.850054"><ele>59.0</ele></trkpt>
<trkpt lat="41.719052" lon="-8.850029"><ele>59.5</ele></trkpt>
<trkpt lat="41.719112" lon="-8.850009"><ele>59.5</ele></trkpt>
<trkpt lat="41.719154" lon="-8.849994"><ele>59.3</ele></trkpt>
<trkpt lat="41.719191" lon="-8.849973"><ele>59.5</ele></trkpt>
<trkpt lat="41.719231" lon="-8.849945"><ele>59.5</ele></trkpt>
<trkpt lat="41.719411" lon="-8.849774"><ele>59.3</ele></trkpt>
<trkpt lat="41.719527" lon="-8.8499"><ele>58.0</ele></trkpt>
<trkpt lat="41.719598" lon="-8.849962"><ele>57.2</ele></trkpt>
<trkpt lat="41.719663" lon="-8.850047"><ele>55.6</ele></trkpt>
<trkpt lat="41.719763" lon="-8.850192"><ele>52.5</ele></trkpt>
<trkpt lat="41.719816" lon="-8.850313"><ele>51.1</ele></trkpt>
<trkpt lat="41.719833" lon="-8.850391"><ele>51.1</ele></trkpt>
<trkpt lat="41.719868" lon="-8.850469"><ele>50.2</ele></trkpt>
<trkpt lat="41.719916" lon="-8.850568"><ele>49.5</ele></trkpt>
<trkpt lat="41.719942" lon="-8.850622"><ele>49.5</ele></trkpt>
<trkpt lat="41.720001" lon="-8.850635"><ele>48.9</ele></trkpt>
<trkpt lat="41.720109" lon="-8.850635"><ele>48.9</ele></trkpt>
<trkpt lat="41.720191" lon="-8.850632"><ele>48.9</ele></trkpt>
<trkpt lat="41.720249" lon="-8.850511"><ele>48.5</ele></trkpt>
<trkpt lat="41.720297" lon="-8.850389"><ele>48.5</ele></trkpt>
<trkpt lat="41.720381" lon="-8.850302"><ele>48.3</ele></trkpt>
<trkpt lat="41.720535" lon="-8.850227"><ele>48.8</ele></trkpt>
<trkpt lat="41.720631" lon="-8.850185"><ele>49.7</ele></trkpt>
<trkpt lat="41.720739" lon="-8.850147"><ele>50.4</ele></trkpt>
<trkpt lat="41.720807" lon="-8.850104"><ele>51.2</ele></trkpt>
<trkpt lat="41.720837" lon="-8.850048"><ele>51.2</ele></trkpt>
<trkpt lat="41.720857" lon="-8.849976"><ele>51.7</ele></trkpt>
<trkpt lat="41.720869" lon="-8.849877"><ele>53.0</ele></trkpt>
<trkpt lat="41.720869" lon="-8.84976"><ele>53.0</ele></trkpt>
<trkpt lat="41.720879" lon="-8.84964"><ele>53.6</ele></trkpt>
<trkpt lat="41.720905" lon="-8.849521"><ele>54.0</ele></trkpt>
<trkpt lat="41.720945" lon="-8.849407"><ele>54.7</ele></trkpt>
<trkpt lat="41.720997" lon="-8.849337"><ele>55.7</ele></trkpt>
<trkpt lat="41.721054" lon="-8.849289"><ele>56.3</ele></trkpt>
<trkpt lat="41.72113" lon="-8.849265"><ele>56.3</ele></trkpt>
<trkpt lat="41.721326" lon="-8.849268"><ele>56.6</ele></trkpt>
<trkpt lat="41.721471" lon="-8.84928"><ele>56.2</ele></trkpt>
<trkpt lat="41.721706" lon="-8.849326"><ele>51.3</ele></trkpt>
<trkpt lat="41.72185" lon="-8.849349"><ele>50.8</ele></trkpt>
<trkpt lat="41.721948" lon="-8.849356"><ele>50.2</ele></trkpt>
<trkpt lat="41.722008" lon="-8.849375"><ele>49.5</ele></trkpt>
<trkpt lat="41.722025" lon="-8.849391"><ele>49.5</ele></trkpt>
<trkpt lat="41.722121" lon="-8.849474"><ele>49.5</ele></trkpt>
<trkpt lat="41.722166" lon="-8.849522"><ele>49.1</ele></trkpt>
<trkpt lat="41.722103" lon="-8.849697"><ele>48.8</ele></trkpt>
<trkpt lat="41.722066" lon="-8.849835"><ele>48.0</ele></trkpt>
<trkpt lat="41.72205" lon="-8.849967"><ele>47.1</ele></trkpt>
<trkpt lat="41.722008" lon="-8.85019"><ele>44.8</ele></trkpt>
<trkpt lat="41.721972" lon="-8.850361"><ele>44.4</ele></trkpt>
<trkpt lat="41.721942" lon="-8.850456"><ele>44.2</ele></trkpt>
<trkpt lat="41.721938" lon="-8.850524"><ele>44.2</ele></trkpt>
<trkpt lat="41.721958" lon="-8.850603"><ele>44.0</ele></trkpt>
<trkpt lat="41.72202" lon="-8.850732"><ele>43.8</ele></trkpt>
<trkpt lat="41.722062" lon="-8.850815"><ele>43.8</ele></trkpt>
<trkpt lat="41.722095" lon="-8.850901"><ele>43.7</ele></trkpt>
<trkpt lat="41.722113" lon="-8.851003"><ele>43.5</ele></trkpt>
<trkpt lat="41.722115" lon="-8.851094"><ele>43.3</ele></trkpt>
<trkpt lat="41.722105" lon="-8.851191"><ele>43.2</ele></trkpt>
<trkpt lat="41.722074" lon="-8.851338"><ele>43.2</ele></trkpt>
<trkpt lat="41.722007" lon="-8.851566"><ele>43.0</ele></trkpt>
<trkpt lat="41.721982" lon="-8.851649"><ele>42.7</ele></trkpt>
<trkpt lat="41.721944" lon="-8.851869"><ele>41.9</ele></trkpt>
<trkpt lat="41.721898" lon="-8.85214"><ele>41.9</ele></trkpt>
<trkpt lat="41.721854" lon="-8.852317"><ele>42.1</ele></trkpt>
<trkpt lat="41.721819" lon="-8.852453"><ele>42.1</ele></trkpt>
<trkpt lat="41.721798" lon="-8.852525"><ele>42.1</ele></trkpt>
<trkpt lat="41.721995" lon="-8.852611"><ele>43.1</ele></trkpt>
<trkpt lat="41.722151" lon="-8.852674"><ele>43.9</ele></trkpt>
<trkpt lat="41.722268" lon="-8.852699"><ele>44.8</ele></trkpt>
<trkpt lat="41.722336" lon="-8.852723"><ele>46.2</ele></trkpt>
<trkpt lat="41.722433" lon="-8.852768"><ele>46.3</ele></trkpt>
<trkpt lat="41.722531" lon="-8.852837"><ele>46.6</ele></trkpt>
<trkpt lat="41.722616" lon="-8.85291"><ele>46.6</ele></trkpt>
<trkpt lat="41.722667" lon="-8.852953"><ele>46.8</ele></trkpt>
<trkpt lat="41.722705" lon="-8.852972"><ele>46.8</ele></trkpt>
<trkpt lat="41.722741" lon="-8.852966"><ele>46.8</ele></trkpt>
<trkpt lat="41.722815" lon="-8.852923"><ele>47.0</ele></trkpt>
<trkpt lat="41.722883" lon="-8.852861"><ele>47.1</ele></trkpt>
<trkpt lat="41.722957" lon="-8.852805"><ele>47.1</ele></trkpt>
<trkpt lat="41.723025" lon="-8.852805"><ele>47.1</ele></trkpt>
<trkpt lat="41.723128" lon="-8.852886"><ele>47.0</ele></trkpt>
<trkpt lat="41.723358" lon="-8.853089"><ele>47.4</ele></trkpt>
<trkpt lat="41.72363" lon="-8.853286"><ele>48.0</ele></trkpt>
<trkpt lat="41.723714" lon="-8.853342"><ele>48.2</ele></trkpt>
<trkpt lat="41.723788" lon="-8.853388"><ele>48.2</ele></trkpt>
<trkpt lat="41.723901" lon="-8.853422"><ele>48.3</ele></trkpt>
<trkpt lat="41.724229" lon="-8.853462"><ele>47.9</ele></trkpt>
<trkpt lat="41.724408" lon="-8.853488"><ele>47.7</ele></trkpt>
<trkpt lat="41.724602" lon="-8.853508"><ele>47.6</ele></trkpt>
<trkpt lat="41.724735" lon="-8.853532"><ele>47.6</ele></trkpt>
<trkpt lat="41.724823" lon="-8.853556"><ele>47.3</ele></trkpt>
<trkpt lat="41.724953" lon="-8.853602"><ele>47.2</ele></trkpt>
<trkpt lat="41.72504" lon="-8.853655"><ele>48.0</ele></trkpt>
<trkpt lat="41.725437" lon="-8.85394"><ele>51.0</ele></trkpt>
<trkpt lat="41.725685" lon="-8.854121"><ele>51.8</ele></trkpt>
<trkpt lat="41.725904" lon="-8.854296"><ele>51.8</ele></trkpt>
<trkpt lat="41.726078" lon="-8.854432"><ele>51.8</ele></trkpt>
<trkpt lat="41.726295" lon="-8.854553"><ele>51.8</ele></trkpt>
<trkpt lat="41.726793" lon="-8.854777"><ele>52.7</ele></trkpt>
<trkpt lat="41.727096" lon="-8.854929"><ele>55.0</ele></trkpt>
<trkpt lat="41.727308" lon="-8.855017"><ele>56.0</ele></trkpt>
<trkpt lat="41.727442" lon="-8.855069"><ele>56.2</ele></trkpt>
<trkpt lat="41.727536" lon="-8.855077"><ele>56.4</ele></trkpt>
<trkpt lat="41.727668" lon="-8.855066"><ele>57.4</ele></trkpt>
<trkpt lat="41.727878" lon="-8.855029"><ele>58.4</ele></trkpt>
<trkpt lat="41.727997" lon="-8.854994"><ele>59.3</ele></trkpt>
<trkpt lat="41.728149" lon="-8.85491"><ele>59.9</ele></trkpt>
<trkpt lat="41.728291" lon="-8.854838"><ele>60.3</ele></trkpt>
<trkpt lat="41.72844" lon="-8.854798"><ele>61.0</ele></trkpt>
<trkpt lat="41.728546" lon="-8.854779"><ele>61.2</ele></trkpt>
<trkpt lat="41.729059" lon="-8.854707"><ele>61.2</ele></trkpt>
<trkpt lat="41.729349" lon="-8.854632"><ele>61.1</ele></trkpt>
<trkpt lat="41.729439" lon="-8.854624"><ele>61.1</ele></trkpt>
<trkpt lat="41.729509" lon="-8.854618"><ele>61.1</ele></trkpt>
<trkpt lat="41.729571" lon="-8.854629"><ele>61.1</ele></trkpt>
<trkpt lat="41.729752" lon="-8.854718"><ele>60.8</ele></trkpt>
<trkpt lat="41.729862" lon="-8.854793"><ele>60.6</ele></trkpt>
<trkpt lat="41.730158" lon="-8.855018"><ele>59.1</ele></trkpt>
<trkpt lat="41.730236" lon="-8.855033"><ele>59.1</ele></trkpt>
<trkpt lat="41.730298" lon="-8.855042"><ele>58.9</ele></trkpt>
<trkpt lat="41.730352" lon="-8.85508"><ele>58.9</ele></trkpt>
<trkpt lat="41.730384" lon="-8.855131"><ele>58.8</ele></trkpt>
<trkpt lat="41.730435" lon="-8.855225"><ele>58.9</ele></trkpt>
<trkpt lat="41.730496" lon="-8.855276"><ele>59.0</ele></trkpt>
<trkpt lat="41.730579" lon="-8.855311"><ele>58.8</ele></trkpt>
<trkpt lat="41.730836" lon="-8.855425"><ele>54.8</ele></trkpt>
<trkpt lat="41.730887" lon="-8.85546"><ele>54.1</ele></trkpt>
<trkpt lat="41.730933" lon="-8.855509"><ele>53.0</ele></trkpt>
<trkpt lat="41.731009" lon="-8.855632"><ele>52.0</ele></trkpt>
<trkpt lat="41.731035" lon="-8.855679"><ele>51.7</ele></trkpt>
<trkpt lat="41.731052" lon="-8.855728"><ele>51.4</ele></trkpt>
<trkpt lat="41.731063" lon="-8.855783"><ele>51.4</ele></trkpt>
<trkpt lat="41.731059" lon="-8.855839"><ele>50.9</ele></trkpt>
<trkpt lat="41.731054" lon="-8.855883"><ele>50.9</ele></trkpt>
<trkpt lat="41.731039" lon="-8.855918"><ele>50.9</ele></trkpt>
<trkpt lat="41.731023" lon="-8.855948"><ele>50.9</ele></trkpt>
<trkpt lat="41.731" lon="-8.856"><ele>50.9</ele></trkpt>
<trkpt lat="41.730989" lon="-8.856059"><ele>50.5</ele></trkpt>
<trkpt lat="41.730989" lon="-8.8561"><ele>50.5</ele></trkpt>
<trkpt lat="41.731007" lon="-8.856135"><ele>50.0</ele></trkpt>
<trkpt lat="41.731052" lon="-8.856165"><ele>49.5</ele></trkpt>
<trkpt lat="41.73112" lon="-8.856176"><ele>49.5</ele></trkpt>
<trkpt lat="41.731168" lon="-8.8562"><ele>48.4</ele></trkpt>
<trkpt lat="41.7312" lon="-8.856241"><ele>48.4</ele></trkpt>
<trkpt lat="41.731218" lon="-8.856308"><ele>46.9</ele></trkpt>
<trkpt lat="41.73121" lon="-8.85652"><ele>44.0</ele></trkpt>
<trkpt lat="41.731203" lon="-8.856677"><ele>41.5</ele></trkpt>
<trkpt lat="41.731174" lon="-8.856913"><ele>39.8</ele></trkpt>
<trkpt lat="41.731191" lon="-8.85697"><ele>38.9</ele></trkpt>
<trkpt lat="41.731206" lon="-8.857022"><ele>38.9</ele></trkpt>
<trkpt lat="41.731222" lon="-8.857051"><ele>38.5</ele></trkpt>
<trkpt lat="41.73129" lon="-8.857088"><ele>38.8</ele></trkpt>
<trkpt lat="41.73135" lon="-8.857119"><ele>39.4</ele></trkpt>
<trkpt lat="41.731413" lon="-8.857147"><ele>39.6</ele></trkpt>
<trkpt lat="41.731457" lon="-8.857167"><ele>39.7</ele></trkpt>
<trkpt lat="41.731512" lon="-8.857168"><ele>39.9</ele></trkpt>
<trkpt lat="41.731633" lon="-8.857132"><ele>40.1</ele></trkpt>
<trkpt lat="41.731789" lon="-8.857147"><ele>41.2</ele></trkpt>
<trkpt lat="41.731835" lon="-8.857196"><ele>41.9</ele></trkpt>
<trkpt lat="41.731871" lon="-8.857252"><ele>41.9</ele></trkpt>
<trkpt lat="41.731919" lon="-8.857292"><ele>42.2</ele></trkpt>
<trkpt lat="41.731961" lon="-8.8573"><ele>42.8</ele></trkpt>
<trkpt lat="41.731997" lon="-8.857306"><ele>43.2</ele></trkpt>
<trkpt lat="41.7321" lon="-8.857291"><ele>43.8</ele></trkpt>
<trkpt lat="41.732235" lon="-8.857233"><ele>44.0</ele></trkpt>
<trkpt lat="41.732363" lon="-8.857211"><ele>44.1</ele></trkpt>
<trkpt lat="41.732484" lon="-8.857233"><ele>44.5</ele></trkpt>
<trkpt lat="41.732626" lon="-8.857299"><ele>44.9</ele></trkpt>
<trkpt lat="41.732786" lon="-8.857363"><ele>45.0</ele></trkpt>
<trkpt lat="41.73308" lon="-8.857413"><ele>45.2</ele></trkpt>
<trkpt lat="41.733238" lon="-8.857437"><ele>45.5</ele></trkpt>
<trkpt lat="41.73334" lon="-8.857458"><ele>45.8</ele></trkpt>
<trkpt lat="41.73356" lon="-8.857495"><ele>46.3</ele></trkpt>
<trkpt lat="41.733725" lon="-8.857514"><ele>46.6</ele></trkpt>
<trkpt lat="41.733935" lon="-8.857519"><ele>46.8</ele></trkpt>
<trkpt lat="41.734091" lon="-8.857537"><ele>46.6</ele></trkpt>
<trkpt lat="41.734243" lon="-8.857563"><ele>46.2</ele></trkpt>
<trkpt lat="41.734433" lon="-8.857632"><ele>46.4</ele></trkpt>
<trkpt lat="41.734614" lon="-8.857673"><ele>47.0</ele></trkpt>
<trkpt lat="41.734691" lon="-8.857693"><ele>47.4</ele></trkpt>
<trkpt lat="41.734758" lon="-8.857599"><ele>47.4</ele></trkpt>
<trkpt lat="41.734874" lon="-8.857499"><ele>48.0</ele></trkpt>
<trkpt lat="41.73498" lon="-8.857424"><ele>48.2</ele></trkpt>
<trkpt lat="41.73501" lon="-8.857395"><ele>48.5</ele></trkpt>
<trkpt lat="41.735048" lon="-8.857389"><ele>48.5</ele></trkpt>
<trkpt lat="41.735148" lon="-8.857452"><ele>49.2</ele></trkpt>
<trkpt lat="41.735201" lon="-8.85747"><ele>49.5</ele></trkpt>
<trkpt lat="41.735314" lon="-8.857495"><ele>50.3</ele></trkpt>
<trkpt lat="41.73541" lon="-8.857515"><ele>50.7</ele></trkpt>
<trkpt lat="41.73553" lon="-8.857526"><ele>51.6</ele></trkpt>
<trkpt lat="41.735605" lon="-8.857534"><ele>52.8</ele></trkpt>
<trkpt lat="41.735727" lon="-8.857543"><ele>53.9</ele></trkpt>
<trkpt lat="41.735883" lon="-8.857557"><ele>55.7</ele></trkpt>
<trkpt lat="41.736005" lon="-8.85758"><ele>56.2</ele></trkpt>
<trkpt lat="41.736121" lon="-8.857614"><ele>57.6</ele></trkpt>
<trkpt lat="41.736251" lon="-8.857652"><ele>58.9</ele></trkpt>
<trkpt lat="41.73633" lon="-8.857673"><ele>59.6</ele></trkpt>
<trkpt lat="41.736582" lon="-8.857724"><ele>59.1</ele></trkpt>
<trkpt lat="41.736725" lon="-8.857743"><ele>58.3</ele></trkpt>
<trkpt lat="41.736853" lon="-8.857775"><ele>57.1</ele></trkpt>
<trkpt lat="41.736926" lon="-8.857799"><ele>56.7</ele></trkpt>
<trkpt lat="41.736986" lon="-8.85782"><ele>56.7</ele></trkpt>
<trkpt lat="41.737026" lon="-8.857879"><ele>55.7</ele></trkpt>
<trkpt lat="41.737043" lon="-8.857993"><ele>55.7</ele></trkpt>
<trkpt lat="41.737061" lon="-8.858154"><ele>54.1</ele></trkpt>
<trkpt lat="41.7371" lon="-8.858397"><ele>51.6</ele></trkpt>
<trkpt lat="41.737132" lon="-8.858561"><ele>48.2</ele></trkpt>
<trkpt lat="41.737181" lon="-8.858713"><ele>45.9</ele></trkpt>
<trkpt lat="41.737237" lon="-8.858843"><ele>44.3</ele></trkpt>
<trkpt lat="41.737341" lon="-8.859"><ele>43.1</ele></trkpt>
<trkpt lat="41.737411" lon="-8.859086"><ele>42.3</ele></trkpt>
<trkpt lat="41.73748" lon="-8.859146"><ele>41.8</ele></trkpt>
<trkpt lat="41.73756" lon="-8.859248"><ele>41.2</ele></trkpt>
<trkpt lat="41.73761" lon="-8.859299"><ele>41.3</ele></trkpt>
<trkpt lat="41.737648" lon="-8.859385"><ele>40.9</ele></trkpt>
<trkpt lat="41.737678" lon="-8.859481"><ele>41.1</ele></trkpt>
<trkpt lat="41.737693" lon="-8.859548"><ele>41.1</ele></trkpt>
<trkpt lat="41.737753" lon="-8.85955"><ele>40.8</ele></trkpt>
<trkpt lat="41.737858" lon="-8.859527"><ele>40.8</ele></trkpt>
<trkpt lat="41.737995" lon="-8.859489"><ele>40.7</ele></trkpt>
<trkpt lat="41.738101" lon="-8.859486"><ele>40.7</ele></trkpt>
<trkpt lat="41.738196" lon="-8.859503"><ele>41.3</ele></trkpt>
<trkpt lat="41.738357" lon="-8.859572"><ele>43.3</ele></trkpt>
<trkpt lat="41.738656" lon="-8.859674"><ele>45.4</ele></trkpt>
<trkpt lat="41.738804" lon="-8.859717"><ele>46.4</ele></trkpt>
<trkpt lat="41.738831" lon="-8.859723"><ele>46.4</ele></trkpt>
<trkpt lat="41.738878" lon="-8.859733"><ele>46.4</ele></trkpt>
<trkpt lat="41.738931" lon="-8.859707"><ele>47.6</ele></trkpt>
<trkpt lat="41.739046" lon="-8.859574"><ele>48.2</ele></trkpt>
<trkpt lat="41.739145" lon="-8.859446"><ele>48.9</ele></trkpt>
<trkpt lat="41.739249" lon="-8.859334"><ele>49.9</ele></trkpt>
<trkpt lat="41.739317" lon="-8.859269"><ele>51.8</ele></trkpt>
<trkpt lat="41.73937" lon="-8.859231"><ele>53.1</ele></trkpt>
<trkpt lat="41.73957" lon="-8.859194"><ele>54.0</ele></trkpt>
<trkpt lat="41.739722" lon="-8.859167"><ele>54.6</ele></trkpt>
<trkpt lat="41.739879" lon="-8.859165"><ele>55.0</ele></trkpt>
<trkpt lat="41.740113" lon="-8.859245"><ele>53.7</ele></trkpt>
<trkpt lat="41.740272" lon="-8.859334"><ele>52.7</ele></trkpt>
<trkpt lat="41.740441" lon="-8.859443"><ele>52.2</ele></trkpt>
<trkpt lat="41.740591" lon="-8.859526"><ele>52.6</ele></trkpt>
<trkpt lat="41.740734" lon="-8.859586"><ele>52.9</ele></trkpt>
<trkpt lat="41.740876" lon="-8.859615"><ele>53.4</ele></trkpt>
<trkpt lat="41.741085" lon="-8.859599"><ele>54.3</ele></trkpt>
<trkpt lat="41.74116" lon="-8.859588"><ele>54.8</ele></trkpt>
<trkpt lat="41.741277" lon="-8.85959"><ele>55.3</ele></trkpt>
<trkpt lat="41.741472" lon="-8.859699"><ele>54.7</ele></trkpt>
<trkpt lat="41.741737" lon="-8.859889"><ele>51.5</ele></trkpt>
<trkpt lat="41.741929" lon="-8.860042"><ele>49.3</ele></trkpt>
<trkpt lat="41.742039" lon="-8.860114"><ele>47.8</ele></trkpt>
<trkpt lat="41.742159" lon="-8.860176"><ele>47.5</ele></trkpt>
<trkpt lat="41.742361" lon="-8.860227"><ele>46.7</ele></trkpt>
<trkpt lat="41.742631" lon="-8.860192"><ele>47.8</ele></trkpt>
<trkpt lat="41.742846" lon="-8.860154"><ele>49.1</ele></trkpt>
<trkpt lat="41.743073" lon="-8.860132"><ele>50.2</ele></trkpt>
<trkpt lat="41.743163" lon="-8.860143"><ele>50.3</ele></trkpt>
<trkpt lat="41.74324" lon="-8.860189"><ele>51.0</ele></trkpt>
<trkpt lat="41.74335" lon="-8.860283"><ele>51.2</ele></trkpt>
<trkpt lat="41.743492" lon="-8.86044"><ele>51.4</ele></trkpt>
<trkpt lat="41.743506" lon="-8.860455"><ele>51.4</ele></trkpt>
<trkpt lat="41.74357" lon="-8.860522"><ele>51.4</ele></trkpt>
<trkpt lat="41.74363" lon="-8.860545"><ele>51.4</ele></trkpt>
<trkpt lat="41.743683" lon="-8.860542"><ele>51.2</ele></trkpt>
<trkpt lat="41.743745" lon="-8.86056"><ele>51.2</ele></trkpt>
<trkpt lat="41.743819" lon="-8.860598"><ele>50.9</ele></trkpt>
<trkpt lat="41.74388" lon="-8.860632"><ele>50.7</ele></trkpt>
<trkpt lat="41.743958" lon="-8.860723"><ele>50.5</ele></trkpt>
<trkpt lat="41.744098" lon="-8.860919"><ele>50.0</ele></trkpt>
<trkpt lat="41.744195" lon="-8.861065"><ele>48.8</ele></trkpt>
<trkpt lat="41.74426" lon="-8.861059"><ele>48.4</ele></trkpt>
<trkpt lat="41.744334" lon="-8.861106"><ele>47.8</ele></trkpt>
<trkpt lat="41.744445" lon="-8.861245"><ele>47.4</ele></trkpt>
<trkpt lat="41.744552" lon="-8.861394"><ele>46.8</ele></trkpt>
<trkpt lat="41.744561" lon="-8.861407"><ele>46.8</ele></trkpt>
<trkpt lat="41.744629" lon="-8.861474"><ele>46.3</ele></trkpt>
<trkpt lat="41.744657" lon="-8.861546"><ele>46.2</ele></trkpt>
<trkpt lat="41.744673" lon="-8.861655"><ele>46.0</ele></trkpt>
<trkpt lat="41.744683" lon="-8.861805"><ele>45.8</ele></trkpt>
<trkpt lat="41.744702" lon="-8.861983"><ele>45.2</ele></trkpt>
<trkpt lat="41.744715" lon="-8.862047"><ele>45.2</ele></trkpt>
<trkpt lat="41.744755" lon="-8.862112"><ele>44.6</ele></trkpt>
<trkpt lat="41.744802" lon="-8.862156"><ele>44.2</ele></trkpt>
<trkpt lat="41.745039" lon="-8.862353"><ele>42.7</ele></trkpt>
<trkpt lat="41.745136" lon="-8.862386"><ele>42.9</ele></trkpt>
<trkpt lat="41.745221" lon="-8.862407"><ele>42.6</ele></trkpt>
<trkpt lat="41.745261" lon="-8.862423"><ele>42.5</ele></trkpt>
<trkpt lat="41.745222" lon="-8.862526"><ele>42.3</ele></trkpt>
<trkpt lat="41.745175" lon="-8.862638"><ele>41.2</ele></trkpt>
<trkpt lat="41.745119" lon="-8.862751"><ele>41.2</ele></trkpt>
<trkpt lat="41.745075" lon="-8.862833"><ele>41.2</ele></trkpt>
<trkpt lat="41.745007" lon="-8.86292"><ele>41.2</ele></trkpt>
<trkpt lat="41.744901" lon="-8.863039"><ele>40.7</ele></trkpt>
<trkpt lat="41.744856" lon="-8.863087"><ele>40.5</ele></trkpt>
<trkpt lat="41.744945" lon="-8.863228"><ele>40.5</ele></trkpt>
<trkpt lat="41.744989" lon="-8.863279"><ele>40.5</ele></trkpt>
<trkpt lat="41.745059" lon="-8.863309"><ele>40.3</ele></trkpt>
<trkpt lat="41.745131" lon="-8.863293"><ele>40.3</ele></trkpt>
<trkpt lat="41.745199" lon="-8.863234"><ele>40.5</ele></trkpt>
<trkpt lat="41.745287" lon="-8.863196"><ele>40.2</ele></trkpt>
<trkpt lat="41.745353" lon="-8.863204"><ele>40.2</ele></trkpt>
<trkpt lat="41.745435" lon="-8.863261"><ele>39.0</ele></trkpt>
<trkpt lat="41.745581" lon="-8.863438"><ele>37.5</ele></trkpt>
<trkpt lat="41.745691" lon="-8.863633"><ele>35.5</ele></trkpt>
<trkpt lat="41.745769" lon="-8.863735"><ele>34.2</ele></trkpt>
<trkpt lat="41.745857" lon="-8.863759"><ele>33.7</ele></trkpt>
<trkpt lat="41.745953" lon="-8.863749"><ele>33.8</ele></trkpt>
<trkpt lat="41.746009" lon="-8.863775"><ele>33.8</ele></trkpt>
<trkpt lat="41.746092" lon="-8.863888"><ele>33.4</ele></trkpt>
<trkpt lat="41.746144" lon="-8.863896"><ele>33.4</ele></trkpt>
<trkpt lat="41.746189" lon="-8.8639"><ele>33.6</ele></trkpt>
<trkpt lat="41.746227" lon="-8.863894"><ele>33.6</ele></trkpt>
<trkpt lat="41.746297" lon="-8.863855"><ele>33.6</ele></trkpt>
<trkpt lat="41.746436" lon="-8.863772"><ele>33.4</ele></trkpt>
<trkpt lat="41.746664" lon="-8.863653"><ele>36.8</ele></trkpt>
<trkpt lat="41.746744" lon="-8.863694"><ele>37.4</ele></trkpt>
<trkpt lat="41.747032" lon="-8.863475"><ele>39.4</ele></trkpt>
<trkpt lat="41.747057" lon="-8.863466"><ele>39.4</ele></trkpt>
<trkpt lat="41.74708" lon="-8.863462"><ele>39.4</ele></trkpt>
<trkpt lat="41.747103" lon="-8.863463"><ele>39.4</ele></trkpt>
<trkpt lat="41.747143" lon="-8.863467"><ele>39.4</ele></trkpt>
<trkpt lat="41.747178" lon="-8.86348"><ele>39.6</ele></trkpt>
<trkpt lat="41.747214" lon="-8.863505"><ele>39.9</ele></trkpt>
<trkpt lat="41.74731" lon="-8.863606"><ele>40.3</ele></trkpt>
<trkpt lat="41.747372" lon="-8.863665"><ele>40.3</ele></trkpt>
<trkpt lat="41.747452" lon="-8.863708"><ele>40.3</ele></trkpt>
<trkpt lat="41.747643" lon="-8.863746"><ele>40.4</ele></trkpt>
<trkpt lat="41.74778" lon="-8.863796"><ele>40.1</ele></trkpt>
<trkpt lat="41.747914" lon="-8.863815"><ele>39.9</ele></trkpt>
<trkpt lat="41.747904" lon="-8.864019"><ele>38.8</ele></trkpt>
<trkpt lat="41.74788" lon="-8.864302"><ele>37.4</ele></trkpt>
<trkpt lat="41.747869" lon="-8.864483"><ele>36.4</ele></trkpt>
<trkpt lat="41.747859" lon="-8.86465"><ele>35.4</ele></trkpt>
<trkpt lat="41.747958" lon="-8.864664"><ele>35.4</ele></trkpt>
<trkpt lat="41.748095" lon="-8.864758"><ele>34.5</ele></trkpt>
<trkpt lat="41.748087" lon="-8.864832"><ele>34.5</ele></trkpt>
<trkpt lat="41.748322" lon="-8.86484"><ele>34.0</ele></trkpt>
<trkpt lat="41.748585" lon="-8.864862"><ele>33.7</ele></trkpt>
<trkpt lat="41.748756" lon="-8.86488"><ele>34.9</ele></trkpt>
<trkpt lat="41.748944" lon="-8.864915"><ele>35.8</ele></trkpt>
<trkpt lat="41.749058" lon="-8.864952"><ele>36.0</ele></trkpt>
<trkpt lat="41.749157" lon="-8.864997"><ele>36.4</ele></trkpt>
<trkpt lat="41.749224" lon="-8.865048"><ele>36.4</ele></trkpt>
<trkpt lat="41.749291" lon="-8.865106"><ele>36.7</ele></trkpt>
<trkpt lat="41.749355" lon="-8.865167"><ele>36.7</ele></trkpt>
<trkpt lat="41.749468" lon="-8.865309"><ele>37.0</ele></trkpt>
<trkpt lat="41.749607" lon="-8.86427"><ele>40.6</ele></trkpt>
<trkpt lat="41.749641" lon="-8.864149"><ele>40.8</ele></trkpt>
<trkpt lat="41.74969" lon="-8.86404"><ele>40.8</ele></trkpt>
<trkpt lat="41.749744" lon="-8.863968"><ele>40.8</ele></trkpt>
<trkpt lat="41.749801" lon="-8.863895"><ele>40.8</ele></trkpt>
<trkpt lat="41.749861" lon="-8.863847"><ele>41.0</ele></trkpt>
<trkpt lat="41.749961" lon="-8.863785"><ele>41.0</ele></trkpt>
<trkpt lat="41.750093" lon="-8.863761"><ele>41.4</ele></trkpt>
<trkpt lat="41.750383" lon="-8.863781"><ele>42.2</ele></trkpt>
<trkpt lat="41.750561" lon="-8.863787"><ele>42.7</ele></trkpt>
<trkpt lat="41.752241" lon="-8.86392"><ele>48.0</ele></trkpt>
<trkpt lat="41.752267" lon="-8.863869"><ele>48.0</ele></trkpt>
<trkpt lat="41.752297" lon="-8.863836"><ele>48.1</ele></trkpt>
<trkpt lat="41.75232" lon="-8.863807"><ele>48.1</ele></trkpt>
<trkpt lat="41.752345" lon="-8.863771"><ele>48.1</ele></trkpt>
<trkpt lat="41.752355" lon="-8.86375"><ele>48.1</ele></trkpt>
<trkpt lat="41.752361" lon="-8.863561"><ele>48.2</ele></trkpt>
<trkpt lat="41.752357" lon="-8.863511"><ele>48.2</ele></trkpt>
<trkpt lat="41.752346" lon="-8.863446"><ele>48.4</ele></trkpt>
<trkpt lat="41.752338" lon="-8.863404"><ele>48.4</ele></trkpt>
<trkpt lat="41.752324" lon="-8.863322"><ele>48.4</ele></trkpt>
<trkpt lat="41.752293" lon="-8.863125"><ele>49.3</ele></trkpt>
<trkpt lat="41.752264" lon="-8.862896"><ele>50.3</ele></trkpt>
<trkpt lat="41.752247" lon="-8.862762"><ele>51.3</ele></trkpt>
<trkpt lat="41.752211" lon="-8.862519"><ele>53.2</ele></trkpt>
<trkpt lat="41.752318" lon="-8.862414"><ele>54.1</ele></trkpt>
<trkpt lat="41.752449" lon="-8.86233"><ele>55.7</ele></trkpt>
<trkpt lat="41.752562" lon="-8.862226"><ele>57.2</ele></trkpt>
<trkpt lat="41.752661" lon="-8.862155"><ele>58.2</ele></trkpt>
<trkpt lat="41.752719" lon="-8.862103"><ele>58.5</ele></trkpt>
<trkpt lat="41.752747" lon="-8.862043"><ele>58.5</ele></trkpt>
<trkpt lat="41.752791" lon="-8.861911"><ele>59.4</ele></trkpt>
<trkpt lat="41.752827" lon="-8.86185"><ele>59.7</ele></trkpt>
<trkpt lat="41.752889" lon="-8.861796"><ele>60.1</ele></trkpt>
<trkpt lat="41.752973" lon="-8.861777"><ele>60.4</ele></trkpt>
<trkpt lat="41.753011" lon="-8.86177"><ele>60.8</ele></trkpt>
<trkpt lat="41.753279" lon="-8.861657"><ele>62.6</ele></trkpt>
<trkpt lat="41.753335" lon="-8.861639"><ele>63.0</ele></trkpt>
<trkpt lat="41.753413" lon="-8.861618"><ele>63.4</ele></trkpt>
<trkpt lat="41.753549" lon="-8.861591"><ele>63.6</ele></trkpt>
<trkpt lat="41.753713" lon="-8.861593"><ele>63.7</ele></trkpt>
<trkpt lat="41.753814" lon="-8.861589"><ele>63.7</ele></trkpt>
<trkpt lat="41.75387" lon="-8.861587"><ele>63.7</ele></trkpt>
<trkpt lat="41.75394" lon="-8.861573"><ele>63.6</ele></trkpt>
<trkpt lat="41.753984" lon="-8.861552"><ele>63.5</ele></trkpt>
<trkpt lat="41.754024" lon="-8.861506"><ele>63.4</ele></trkpt>
<trkpt lat="41.754127" lon="-8.861368"><ele>63.3</ele></trkpt>
<trkpt lat="41.754192" lon="-8.861294"><ele>63.2</ele></trkpt>
<trkpt lat="41.754254" lon="-8.861249"><ele>63.1</ele></trkpt>
<trkpt lat="41.754306" lon="-8.861235"><ele>63.0</ele></trkpt>
<trkpt lat="41.754379" lon="-8.86123"><ele>62.8</ele></trkpt>
<trkpt lat="41.754417" lon="-8.861245"><ele>62.7</ele></trkpt>
<trkpt lat="41.754463" lon="-8.861288"><ele>62.6</ele></trkpt>
<trkpt lat="41.754526" lon="-8.86134"><ele>62.5</ele></trkpt>
<trkpt lat="41.754594" lon="-8.861386"><ele>62.4</ele></trkpt>
<trkpt lat="41.754666" lon="-8.86141"><ele>62.3</ele></trkpt>
<trkpt lat="41.75475" lon="-8.861418"><ele>62.2</ele></trkpt>
<trkpt lat="41.754842" lon="-8.861416"><ele>61.9</ele></trkpt>
<trkpt lat="41.754918" lon="-8.861391"><ele>61.8</ele></trkpt>
<trkpt lat="41.755044" lon="-8.861318"><ele>61.7</ele></trkpt>
<trkpt lat="41.755252" lon="-8.861134"><ele>61.6</ele></trkpt>
<trkpt lat="41.755318" lon="-8.861092"><ele>61.6</ele></trkpt>
<trkpt lat="41.755618" lon="-8.860998"><ele>61.9</ele></trkpt>
<trkpt lat="41.755742" lon="-8.860955"><ele>62.1</ele></trkpt>
<trkpt lat="41.75589" lon="-8.860877"><ele>62.4</ele></trkpt>
<trkpt lat="41.756042" lon="-8.860767"><ele>62.5</ele></trkpt>
<trkpt lat="41.756115" lon="-8.860722"><ele>62.6</ele></trkpt>
<trkpt lat="41.756176" lon="-8.860696"><ele>62.6</ele></trkpt>
<trkpt lat="41.756238" lon="-8.860683"><ele>62.6</ele></trkpt>
<trkpt lat="41.75629" lon="-8.86069"><ele>62.7</ele></trkpt>
<trkpt lat="41.756372" lon="-8.860726"><ele>62.7</ele></trkpt>
<trkpt lat="41.75642" lon="-8.860749"><ele>62.8</ele></trkpt>
<trkpt lat="41.756467" lon="-8.860769"><ele>63.0</ele></trkpt>
<trkpt lat="41.756625" lon="-8.86084"><ele>63.2</ele></trkpt>
<trkpt lat="41.756882" lon="-8.860971"><ele>63.7</ele></trkpt>
<trkpt lat="41.756986" lon="-8.861019"><ele>63.7</ele></trkpt>
<trkpt lat="41.757143" lon="-8.861099"><ele>63.4</ele></trkpt>
<trkpt lat="41.757269" lon="-8.861142"><ele>63.4</ele></trkpt>
<trkpt lat="41.757423" lon="-8.861178"><ele>63.5</ele></trkpt>
<trkpt lat="41.757471" lon="-8.861186"><ele>63.6</ele></trkpt>
<trkpt lat="41.757526" lon="-8.861207"><ele>63.6</ele></trkpt>
<trkpt lat="41.757559" lon="-8.861229"><ele>63.6</ele></trkpt>
<trkpt lat="41.757575" lon="-8.861249"><ele>63.6</ele></trkpt>
<trkpt lat="41.757586" lon="-8.861281"><ele>63.6</ele></trkpt>
<trkpt lat="41.75768" lon="-8.861277"><ele>63.5</ele></trkpt>
<trkpt lat="41.75779" lon="-8.861268"><ele>63.3</ele></trkpt>
<trkpt lat="41.75787" lon="-8.861248"><ele>63.0</ele></trkpt>
<trkpt lat="41.757895" lon="-8.861239"><ele>63.0</ele></trkpt>
<trkpt lat="41.757937" lon="-8.861234"><ele>63.0</ele></trkpt>
<trkpt lat="41.75797" lon="-8.861238"><ele>62.9</ele></trkpt>
<trkpt lat="41.757995" lon="-8.861242"><ele>62.9</ele></trkpt>
<trkpt lat="41.758031" lon="-8.861284"><ele>62.6</ele></trkpt>
<trkpt lat="41.758066" lon="-8.86132"><ele>62.4</ele></trkpt>
<trkpt lat="41.758107" lon="-8.861367"><ele>62.1</ele></trkpt>
<trkpt lat="41.758148" lon="-8.861419"><ele>61.7</ele></trkpt>
<trkpt lat="41.758175" lon="-8.861447"><ele>61.7</ele></trkpt>
<trkpt lat="41.758197" lon="-8.86149"><ele>61.4</ele></trkpt>
<trkpt lat="41.758228" lon="-8.861579"><ele>61.1</ele></trkpt>
<trkpt lat="41.758254" lon="-8.861646"><ele>61.0</ele></trkpt>
<trkpt lat="41.758274" lon="-8.861705"><ele>61.0</ele></trkpt>
<trkpt lat="41.758306" lon="-8.861781"><ele>60.5</ele></trkpt>
<trkpt lat="41.758344" lon="-8.861871"><ele>59.9</ele></trkpt>
<trkpt lat="41.758366" lon="-8.861917"><ele>59.5</ele></trkpt>
<trkpt lat="41.758419" lon="-8.861948"><ele>59.2</ele></trkpt>
<trkpt lat="41.758481" lon="-8.861973"><ele>59.0</ele></trkpt>
<trkpt lat="41.758558" lon="-8.861988"><ele>58.5</ele></trkpt>
<trkpt lat="41.758637" lon="-8.861992"><ele>58.4</ele></trkpt>
<trkpt lat="41.758854" lon="-8.862012"><ele>58.4</ele></trkpt>
<trkpt lat="41.758893" lon="-8.861966"><ele>58.6</ele></trkpt>
<trkpt lat="41.758986" lon="-8.86183"><ele>59.0</ele></trkpt>
<trkpt lat="41.759027" lon="-8.861751"><ele>59.4</ele></trkpt>
<trkpt lat="41.759064" lon="-8.861709"><ele>59.8</ele></trkpt>
<trkpt lat="41.759143" lon="-8.861668"><ele>60.3</ele></trkpt>
<trkpt lat="41.759219" lon="-8.861633"><ele>60.4</ele></trkpt>
<trkpt lat="41.759281" lon="-8.861616"><ele>60.4</ele></trkpt>
<trkpt lat="41.759359" lon="-8.861614"><ele>60.9</ele></trkpt>
<trkpt lat="41.759457" lon="-8.861615"><ele>61.3</ele></trkpt>
<trkpt lat="41.759514" lon="-8.86162"><ele>61.7</ele></trkpt>
<trkpt lat="41.759557" lon="-8.861609"><ele>61.8</ele></trkpt>
<trkpt lat="41.759599" lon="-8.861588"><ele>62.1</ele></trkpt>
<trkpt lat="41.759626" lon="-8.861568"><ele>62.1</ele></trkpt>
<trkpt lat="41.759661" lon="-8.861528"><ele>62.1</ele></trkpt>
<trkpt lat="41.759727" lon="-8.861414"><ele>62.6</ele></trkpt>
<trkpt lat="41.759786" lon="-8.861324"><ele>63.1</ele></trkpt>
<trkpt lat="41.759868" lon="-8.861209"><ele>63.5</ele></trkpt>
<trkpt lat="41.759915" lon="-8.861147"><ele>63.6</ele></trkpt>
<trkpt lat="41.760039" lon="-8.861186"><ele>64.1</ele></trkpt>
<trkpt lat="41.760129" lon="-8.861127"><ele>65.1</ele></trkpt>
<trkpt lat="41.760192" lon="-8.861067"><ele>65.5</ele></trkpt>
<trkpt lat="41.760253" lon="-8.860989"><ele>65.8</ele></trkpt>
<trkpt lat="41.760328" lon="-8.860866"><ele>66.7</ele></trkpt>
<trkpt lat="41.760533" lon="-8.860539"><ele>70.1</ele></trkpt>
<trkpt lat="41.760639" lon="-8.860378"><ele>71.5</ele></trkpt>
<trkpt lat="41.760692" lon="-8.860308"><ele>72.3</ele></trkpt>
<trkpt lat="41.760763" lon="-8.860291"><ele>72.3</ele></trkpt>
<trkpt lat="41.760965" lon="-8.860275"><ele>72.4</ele></trkpt>
<trkpt lat="41.761229" lon="-8.860288"><ele>73.5</ele></trkpt>
<trkpt lat="41.76146" lon="-8.860261"><ele>74.2</ele></trkpt>
<trkpt lat="41.761653" lon="-8.86021"><ele>74.8</ele></trkpt>
<trkpt lat="41.761872" lon="-8.860132"><ele>75.4</ele></trkpt>
<trkpt lat="41.762064" lon="-8.860073"><ele>75.0</ele></trkpt>
<trkpt lat="41.762269" lon="-8.860023"><ele>73.8</ele></trkpt>
<trkpt lat="41.762537" lon="-8.859927"><ele>71.3</ele></trkpt>
<trkpt lat="41.76272" lon="-8.859898"><ele>70.0</ele></trkpt>
<trkpt lat="41.762827" lon="-8.859873"><ele>69.2</ele></trkpt>
<trkpt lat="41.762949" lon="-8.859883"><ele>69.2</ele></trkpt>
<trkpt lat="41.763183" lon="-8.859922"><ele>69.0</ele></trkpt>
<trkpt lat="41.763337" lon="-8.859977"><ele>69.4</ele></trkpt>
<trkpt lat="41.763573" lon="-8.860101"><ele>70.2</ele></trkpt>
<trkpt lat="41.763703" lon="-8.860157"><ele>70.7</ele></trkpt>
<trkpt lat="41.76382" lon="-8.860187"><ele>70.7</ele></trkpt>
<trkpt lat="41.763979" lon="-8.86017"><ele>70.8</ele></trkpt>
<trkpt lat="41.764144" lon="-8.860134"><ele>71.6</ele></trkpt>
<trkpt lat="41.764599" lon="-8.859765"><ele>73.0</ele></trkpt>
<trkpt lat="41.764828" lon="-8.859574"><ele>71.8</ele></trkpt>
<trkpt lat="41.765073" lon="-8.859289"><ele>70.0</ele></trkpt>
<trkpt lat="41.76519" lon="-8.859172"><ele>70.0</ele></trkpt>
<trkpt lat="41.765336" lon="-8.858978"><ele>69.1</ele></trkpt>
<trkpt lat="41.765402" lon="-8.858907"><ele>69.1</ele></trkpt>
<trkpt lat="41.765468" lon="-8.858843"><ele>69.1</ele></trkpt>
<trkpt lat="41.765631" lon="-8.858733"><ele>68.8</ele></trkpt>
<trkpt lat="41.765654" lon="-8.858614"><ele>68.7</ele></trkpt>
<trkpt lat="41.765667" lon="-8.85844"><ele>68.6</ele></trkpt>
<trkpt lat="41.765701" lon="-8.858298"><ele>68.5</ele></trkpt>
<trkpt lat="41.765762" lon="-8.858171"><ele>68.4</ele></trkpt>
<trkpt lat="41.765843" lon="-8.858116"><ele>68.4</ele></trkpt>
<trkpt lat="41.765924" lon="-8.858003"><ele>68.2</ele></trkpt>
<trkpt lat="41.766016" lon="-8.857924"><ele>68.1</ele></trkpt>
<trkpt lat="41.766074" lon="-8.857829"><ele>68.0</ele></trkpt>
<trkpt lat="41.766169" lon="-8.857731"><ele>67.6</ele></trkpt>
<trkpt lat="41.76638" lon="-8.857666"><ele>67.2</ele></trkpt>
<trkpt lat="41.766628" lon="-8.857584"><ele>67.4</ele></trkpt>
<trkpt lat="41.766728" lon="-8.857527"><ele>67.4</ele></trkpt>
<trkpt lat="41.766805" lon="-8.857443"><ele>67.8</ele></trkpt>
<trkpt lat="41.766931" lon="-8.857256"><ele>68.2</ele></trkpt>
<trkpt lat="41.766998" lon="-8.857232"><ele>68.5</ele></trkpt>
<trkpt lat="41.76706" lon="-8.857226"><ele>68.5</ele></trkpt>
<trkpt lat="41.767083" lon="-8.857158"><ele>68.7</ele></trkpt>
<trkpt lat="41.767114" lon="-8.856981"><ele>69.1</ele></trkpt>
<trkpt lat="41.767121" lon="-8.856878"><ele>69.1</ele></trkpt>
<trkpt lat="41.767125" lon="-8.856803"><ele>69.3</ele></trkpt>
<trkpt lat="41.767167" lon="-8.856572"><ele>69.3</ele></trkpt>
<trkpt lat="41.767235" lon="-8.856348"><ele>70.0</ele></trkpt>
<trkpt lat="41.767415" lon="-8.855966"><ele>70.4</ele></trkpt>
<trkpt lat="41.767338" lon="-8.855791"><ele>70.8</ele></trkpt>
<trkpt lat="41.767271" lon="-8.855543"><ele>71.6</ele></trkpt>
<trkpt lat="41.767215" lon="-8.855261"><ele>73.6</ele></trkpt>
<trkpt lat="41.767153" lon="-8.855035"><ele>78.0</ele></trkpt>
<trkpt lat="41.767023" lon="-8.854765"><ele>78.6</ele></trkpt>
<trkpt lat="41.766953" lon="-8.854598"><ele>79.5</ele></trkpt>
<trkpt lat="41.766961" lon="-8.854458"><ele>78.6</ele></trkpt>
<trkpt lat="41.767058" lon="-8.854349"><ele>77.5</ele></trkpt>
<trkpt lat="41.76727" lon="-8.854139"><ele>74.1</ele></trkpt>
<trkpt lat="41.767377" lon="-8.854066"><ele>71.4</ele></trkpt>
<trkpt lat="41.767473" lon="-8.854016"><ele>70.2</ele></trkpt>
<trkpt lat="41.767556" lon="-8.853989"><ele>69.2</ele></trkpt>
<trkpt lat="41.767616" lon="-8.853974"><ele>69.2</ele></trkpt>
<trkpt lat="41.767629" lon="-8.853949"><ele>69.2</ele></trkpt>
<trkpt lat="41.76764" lon="-8.853862"><ele>69.2</ele></trkpt>
<trkpt lat="41.767661" lon="-8.853553"><ele>69.7</ele></trkpt>
<trkpt lat="41.767661" lon="-8.853492"><ele>70.0</ele></trkpt>
<trkpt lat="41.767653" lon="-8.853447"><ele>70.4</ele></trkpt>
<trkpt lat="41.767646" lon="-8.853385"><ele>70.7</ele></trkpt>
<trkpt lat="41.767644" lon="-8.853318"><ele>70.7</ele></trkpt>
<trkpt lat="41.767647" lon="-8.853249"><ele>71.5</ele></trkpt>
<trkpt lat="41.767645" lon="-8.853206"><ele>71.7</ele></trkpt>
<trkpt lat="41.767633" lon="-8.85317"><ele>72.2</ele></trkpt>
<trkpt lat="41.767616" lon="-8.85314"><ele>72.2</ele></trkpt>
<trkpt lat="41.767578" lon="-8.853095"><ele>72.5</ele></trkpt>
<trkpt lat="41.767535" lon="-8.853037"><ele>72.5</ele></trkpt>
<trkpt lat="41.767492" lon="-8.852958"><ele>73.1</ele></trkpt>
<trkpt lat="41.767464" lon="-8.852899"><ele>73.5</ele></trkpt>
<trkpt lat="41.767451" lon="-8.852859"><ele>73.8</ele></trkpt>
<trkpt lat="41.767437" lon="-8.852793"><ele>74.2</ele></trkpt>
<trkpt lat="41.767429" lon="-8.852727"><ele>74.5</ele></trkpt>
<trkpt lat="41.76743" lon="-8.852635"><ele>75.7</ele></trkpt>
<trkpt lat="41.767443" lon="-8.852496"><ele>76.9</ele></trkpt>
<trkpt lat="41.767486" lon="-8.852311"><ele>79.2</ele></trkpt>
<trkpt lat="41.767566" lon="-8.852195"><ele>79.4</ele></trkpt>
<trkpt lat="41.767722" lon="-8.852078"><ele>79.9</ele></trkpt>
<trkpt lat="41.767826" lon="-8.852023"><ele>79.9</ele></trkpt>
<trkpt lat="41.767931" lon="-8.852022"><ele>79.6</ele></trkpt>
<trkpt lat="41.768016" lon="-8.85203"><ele>79.0</ele></trkpt>
<trkpt lat="41.768067" lon="-8.852025"><ele>79.0</ele></trkpt>
<trkpt lat="41.768135" lon="-8.851974"><ele>78.2</ele></trkpt>
<trkpt lat="41.768239" lon="-8.851872"><ele>78.2</ele></trkpt>
<trkpt lat="41.768339" lon="-8.851791"><ele>77.4</ele></trkpt>
<trkpt lat="41.768445" lon="-8.851729"><ele>76.8</ele></trkpt>
<trkpt lat="41.768589" lon="-8.851639"><ele>76.1</ele></trkpt>
<trkpt lat="41.768846" lon="-8.851486"><ele>75.0</ele></trkpt>
<trkpt lat="41.769045" lon="-8.85133"><ele>74.6</ele></trkpt>
<trkpt lat="41.769219" lon="-8.851102"><ele>74.5</ele></trkpt>
<trkpt lat="41.769399" lon="-8.850846"><ele>74.6</ele></trkpt>
<trkpt lat="41.769467" lon="-8.850751"><ele>74.8</ele></trkpt>
<trkpt lat="41.769593" lon="-8.850673"><ele>74.8</ele></trkpt>
<trkpt lat="41.769658" lon="-8.850663"><ele>74.8</ele></trkpt>
<trkpt lat="41.769733" lon="-8.850389"><ele>74.8</ele></trkpt>
<trkpt lat="41.76981" lon="-8.850346"><ele>74.8</ele></trkpt>
<trkpt lat="41.769883" lon="-8.850296"><ele>74.8</ele></trkpt>
<trkpt lat="41.769919" lon="-8.850275"><ele>74.7</ele></trkpt>
<trkpt lat="41.769952" lon="-8.850238"><ele>74.7</ele></trkpt>
<trkpt lat="41.770082" lon="-8.850067"><ele>74.6</ele></trkpt>
<trkpt lat="41.770209" lon="-8.849906"><ele>74.2</ele></trkpt>
<trkpt lat="41.770308" lon="-8.849817"><ele>73.6</ele></trkpt>
<trkpt lat="41.770428" lon="-8.849675"><ele>72.1</ele></trkpt>
<trkpt lat="41.770489" lon="-8.849603"><ele>71.7</ele></trkpt>
<trkpt lat="41.770614" lon="-8.849509"><ele>71.1</ele></trkpt>
<trkpt lat="41.770722" lon="-8.849412"><ele>70.7</ele></trkpt>
<trkpt lat="41.770796" lon="-8.849321"><ele>69.9</ele></trkpt>
<trkpt lat="41.770844" lon="-8.849225"><ele>69.7</ele></trkpt>
<trkpt lat="41.770852" lon="-8.849112"><ele>69.2</ele></trkpt>
<trkpt lat="41.77092" lon="-8.848962"><ele>69.4</ele></trkpt>
<trkpt lat="41.771052" lon="-8.84883"><ele>70.6</ele></trkpt>
<trkpt lat="41.771144" lon="-8.84868"><ele>70.9</ele></trkpt>
<trkpt lat="41.771166" lon="-8.848599"><ele>71.3</ele></trkpt>
<trkpt lat="41.771168" lon="-8.848503"><ele>71.5</ele></trkpt>
<trkpt lat="41.771156" lon="-8.848406"><ele>71.5</ele></trkpt>
<trkpt lat="41.771166" lon="-8.84831"><ele>71.8</ele></trkpt>
<trkpt lat="41.771204" lon="-8.848283"><ele>71.8</ele></trkpt>
<trkpt lat="41.771266" lon="-8.848264"><ele>72.0</ele></trkpt>
<trkpt lat="41.771364" lon="-8.848253"><ele>72.0</ele></trkpt>
<trkpt lat="41.771434" lon="-8.84824"><ele>72.4</ele></trkpt>
<trkpt lat="41.771476" lon="-8.848224"><ele>72.4</ele></trkpt>
<trkpt lat="41.771544" lon="-8.848168"><ele>73.2</ele></trkpt>
<trkpt lat="41.77172" lon="-8.847926"><ele>74.6</ele></trkpt>
<trkpt lat="41.771894" lon="-8.847677"><ele>75.2</ele></trkpt>
<trkpt lat="41.77196" lon="-8.847591"><ele>74.9</ele></trkpt>
<trkpt lat="41.772014" lon="-8.847559"><ele>74.9</ele></trkpt>
<trkpt lat="41.772098" lon="-8.847543"><ele>74.1</ele></trkpt>
<trkpt lat="41.772202" lon="-8.847527"><ele>74.0</ele></trkpt>
<trkpt lat="41.772322" lon="-8.847486"><ele>72.6</ele></trkpt>
<trkpt lat="41.772422" lon="-8.84743"><ele>72.0</ele></trkpt>
<trkpt lat="41.77253" lon="-8.847315"><ele>70.0</ele></trkpt>
<trkpt lat="41.77268" lon="-8.847175"><ele>67.5</ele></trkpt>
<trkpt lat="41.772758" lon="-8.847103"><ele>67.2</ele></trkpt>
<trkpt lat="41.772934" lon="-8.846947"><ele>66.1</ele></trkpt>
<trkpt lat="41.773008" lon="-8.846896"><ele>66.8</ele></trkpt>
<trkpt lat="41.773102" lon="-8.846819"><ele>67.8</ele></trkpt>
<trkpt lat="41.773212" lon="-8.846762"><ele>67.9</ele></trkpt>
<trkpt lat="41.773424" lon="-8.846629"><ele>68.2</ele></trkpt>
<trkpt lat="41.773367" lon="-8.846514"><ele>71.9</ele></trkpt>
<trkpt lat="41.773227" lon="-8.846269"><ele>72.9</ele></trkpt>
<trkpt lat="41.773172" lon="-8.846183"><ele>73.5</ele></trkpt>
<trkpt lat="41.773131" lon="-8.846111"><ele>73.5</ele></trkpt>
<trkpt lat="41.773106" lon="-8.846033"><ele>75.8</ele></trkpt>
<trkpt lat="41.77312" lon="-8.845968"><ele>75.8</ele></trkpt>
<trkpt lat="41.77317" lon="-8.845947"><ele>76.9</ele></trkpt>
<trkpt lat="41.773301" lon="-8.845932"><ele>77.2</ele></trkpt>
<trkpt lat="41.773408" lon="-8.845899"><ele>79.1</ele></trkpt>
<trkpt lat="41.773542" lon="-8.845813"><ele>81.1</ele></trkpt>
<trkpt lat="41.773644" lon="-8.845732"><ele>87.7</ele></trkpt>
<trkpt lat="41.773724" lon="-8.845668"><ele>89.7</ele></trkpt>
<trkpt lat="41.773842" lon="-8.845593"><ele>90.9</ele></trkpt>
<trkpt lat="41.773921" lon="-8.845525"><ele>92.1</ele></trkpt>
<trkpt lat="41.774026" lon="-8.845464"><ele>93.1</ele></trkpt>
<trkpt lat="41.774086" lon="-8.845428"><ele>93.5</ele></trkpt>
<trkpt lat="41.774157" lon="-8.845381"><ele>94.3</ele></trkpt>
<trkpt lat="41.774566" lon="-8.845146"><ele>89.1</ele></trkpt>
<trkpt lat="41.774751" lon="-8.845024"><ele>87.4</ele></trkpt>
<trkpt lat="41.774814" lon="-8.84499"><ele>87.4</ele></trkpt>
<trkpt lat="41.774886" lon="-8.844949"><ele>87.4</ele></trkpt>
<trkpt lat="41.774962" lon="-8.844917"><ele>87.4</ele></trkpt>
<trkpt lat="41.775022" lon="-8.844903"><ele>87.4</ele></trkpt>
<trkpt lat="41.775083" lon="-8.844971"><ele>87.4</ele></trkpt>
<trkpt lat="41.775068" lon="-8.845105"><ele>86.3</ele></trkpt>
<trkpt lat="41.775051" lon="-8.845421"><ele>85.4</ele></trkpt>
<trkpt lat="41.775046" lon="-8.845723"><ele>77.2</ele></trkpt>
<trkpt lat="41.775069" lon="-8.845998"><ele>76.0</ele></trkpt>
<trkpt lat="41.775138" lon="-8.846306"><ele>74.8</ele></trkpt>
<trkpt lat="41.77518" lon="-8.846519"><ele>74.2</ele></trkpt>
<trkpt lat="41.775204" lon="-8.846781"><ele>73.3</ele></trkpt>
<trkpt lat="41.77519" lon="-8.846909"><ele>74.3</ele></trkpt>
<trkpt lat="41.775166" lon="-8.847071"><ele>74.2</ele></trkpt>
<trkpt lat="41.775136" lon="-8.847339"><ele>73.7</ele></trkpt>
<trkpt lat="41.77512" lon="-8.847511"><ele>73.0</ele></trkpt>
<trkpt lat="41.775156" lon="-8.847416"><ele>73.7</ele></trkpt>
<trkpt lat="41.775258" lon="-8.847249"><ele>75.0</ele></trkpt>
<trkpt lat="41.775382" lon="-8.847099"><ele>75.3</ele></trkpt>
<trkpt lat="41.775511" lon="-8.847013"><ele>75.5</ele></trkpt>
<trkpt lat="41.775564" lon="-8.84699"><ele>77.3</ele></trkpt>
<trkpt lat="41.77565" lon="-8.846993"><ele>78.0</ele></trkpt>
<trkpt lat="41.775753" lon="-8.847047"><ele>78.2</ele></trkpt>
<trkpt lat="41.775755" lon="-8.847113"><ele>78.2</ele></trkpt>
<trkpt lat="41.775841" lon="-8.847215"><ele>78.7</ele></trkpt>
<trkpt lat="41.775945" lon="-8.847285"><ele>79.5</ele></trkpt>
<trkpt lat="41.776075" lon="-8.847365"><ele>80.4</ele></trkpt>
<trkpt lat="41.776237" lon="-8.847363"><ele>81.4</ele></trkpt>
<trkpt lat="41.776402" lon="-8.847368"><ele>83.5</ele></trkpt>
<trkpt lat="41.776441" lon="-8.847374"><ele>83.5</ele></trkpt>
<trkpt lat="41.776499" lon="-8.84743"><ele>84.6</ele></trkpt>
<trkpt lat="41.776539" lon="-8.847476"><ele>84.6</ele></trkpt>
<trkpt lat="41.776645" lon="-8.847419"><ele>85.3</ele></trkpt>
<trkpt lat="41.776765" lon="-8.847426"><ele>85.3</ele></trkpt>
<trkpt lat="41.776849" lon="-8.847431"><ele>87.3</ele></trkpt>
<trkpt lat="41.776927" lon="-8.847422"><ele>87.3</ele></trkpt>
<trkpt lat="41.777023" lon="-8.847427"><ele>88.6</ele></trkpt>
<trkpt lat="41.777369" lon="-8.847512"><ele>96.8</ele></trkpt>
<trkpt lat="41.777625" lon="-8.847567"><ele>104.0</ele></trkpt>
<trkpt lat="41.777797" lon="-8.847596"><ele>104.0</ele></trkpt>
<trkpt lat="41.777986" lon="-8.84762"><ele>105.5</ele></trkpt>
<trkpt lat="41.778381" lon="-8.847658"><ele>108.5</ele></trkpt>
<trkpt lat="41.778542" lon="-8.847654"><ele>109.7</ele></trkpt>
<trkpt lat="41.778617" lon="-8.84768"><ele>109.7</ele></trkpt>
<trkpt lat="41.778699" lon="-8.847724"><ele>109.7</ele></trkpt>
<trkpt lat="41.778805" lon="-8.847837"><ele>110.7</ele></trkpt>
<trkpt lat="41.778936" lon="-8.847913"><ele>111.5</ele></trkpt>
<trkpt lat="41.77929" lon="-8.847995"><ele>116.6</ele></trkpt>
<trkpt lat="41.779593" lon="-8.848126"><ele>122.0</ele></trkpt>
<trkpt lat="41.779727" lon="-8.848197"><ele>123.5</ele></trkpt>
<trkpt lat="41.779809" lon="-8.848227"><ele>124.8</ele></trkpt>
<trkpt lat="41.780094" lon="-8.848285"><ele>126.3</ele></trkpt>
<trkpt lat="41.780213" lon="-8.848342"><ele>127.6</ele></trkpt>
<trkpt lat="41.780503" lon="-8.8485"><ele>132.2</ele></trkpt>
<trkpt lat="41.780799" lon="-8.848649"><ele>134.7</ele></trkpt>
<trkpt lat="41.781288" lon="-8.848883"><ele>136.0</ele></trkpt>
<trkpt lat="41.781471" lon="-8.848954"><ele>137.4</ele></trkpt>
<trkpt lat="41.781611" lon="-8.848996"><ele>137.4</ele></trkpt>
<trkpt lat="41.781847" lon="-8.849013"><ele>138.0</ele></trkpt>
<trkpt lat="41.781975" lon="-8.849026"><ele>137.9</ele></trkpt>
<trkpt lat="41.782179" lon="-8.849009"><ele>138.2</ele></trkpt>
<trkpt lat="41.782385" lon="-8.849082"><ele>138.2</ele></trkpt>
<trkpt lat="41.782498" lon="-8.849154"><ele>138.7</ele></trkpt>
<trkpt lat="41.78268" lon="-8.849309"><ele>139.4</ele></trkpt>
<trkpt lat="41.7829" lon="-8.849415"><ele>139.8</ele></trkpt>
<trkpt lat="41.783109" lon="-8.849474"><ele>141.0</ele></trkpt>
<trkpt lat="41.783467" lon="-8.849442"><ele>139.2</ele></trkpt>
<trkpt lat="41.783701" lon="-8.849423"><ele>138.0</ele></trkpt>
<trkpt lat="41.783816" lon="-8.849386"><ele>138.0</ele></trkpt>
<trkpt lat="41.78395" lon="-8.84927"><ele>137.7</ele></trkpt>
<trkpt lat="41.784025" lon="-8.849171"><ele>137.1</ele></trkpt>
<trkpt lat="41.784111" lon="-8.849085"><ele>137.1</ele></trkpt>
<trkpt lat="41.784273" lon="-8.848988"><ele>137.0</ele></trkpt>
<trkpt lat="41.784329" lon="-8.848971"><ele>137.0</ele></trkpt>
<trkpt lat="41.784382" lon="-8.848942"><ele>137.1</ele></trkpt>
<trkpt lat="41.784431" lon="-8.848933"><ele>137.1</ele></trkpt>
<trkpt lat="41.78448" lon="-8.848977"><ele>137.1</ele></trkpt>
<trkpt lat="41.78461" lon="-8.849114"><ele>137.2</ele></trkpt>
<trkpt lat="41.78483" lon="-8.849328"><ele>137.3</ele></trkpt>
<trkpt lat="41.785016" lon="-8.849481"><ele>137.4</ele></trkpt>
<trkpt lat="41.785157" lon="-8.84971"><ele>137.4</ele></trkpt>
<trkpt lat="41.78528" lon="-8.849948"><ele>137.2</ele></trkpt>
<trkpt lat="41.785372" lon="-8.850168"><ele>137.0</ele></trkpt>
<trkpt lat="41.785441" lon="-8.850408"><ele>137.2</ele></trkpt>
<trkpt lat="41.785473" lon="-8.850533"><ele>137.3</ele></trkpt>
<trkpt lat="41.785485" lon="-8.850633"><ele>137.4</ele></trkpt>
<trkpt lat="41.785467" lon="-8.850753"><ele>137.4</ele></trkpt>
<trkpt lat="41.785404" lon="-8.850951"><ele>137.4</ele></trkpt>
<trkpt lat="41.785361" lon="-8.851089"><ele>137.4</ele></trkpt>
<trkpt lat="41.785332" lon="-8.851214"><ele>137.3</ele></trkpt>
<trkpt lat="41.785331" lon="-8.851343"><ele>137.4</ele></trkpt>
<trkpt lat="41.785366" lon="-8.851522"><ele>137.4</ele></trkpt>
<trkpt lat="41.785473" lon="-8.851903"><ele>137.3</ele></trkpt>
<trkpt lat="41.785527" lon="-8.852108"><ele>137.3</ele></trkpt>
<trkpt lat="41.785579" lon="-8.852245"><ele>137.4</ele></trkpt>
<trkpt lat="41.785633" lon="-8.85232"><ele>137.4</ele></trkpt>
<trkpt lat="41.785731" lon="-8.852379"><ele>137.4</ele></trkpt>
<trkpt lat="41.785759" lon="-8.852378"><ele>137.4</ele></trkpt>
<trkpt lat="41.785809" lon="-8.852376"><ele>137.4</ele></trkpt>
<trkpt lat="41.786052" lon="-8.852205"><ele>137.4</ele></trkpt>
<trkpt lat="41.786338" lon="-8.852035"><ele>134.9</ele></trkpt>
<trkpt lat="41.786481" lon="-8.852017"><ele>134.1</ele></trkpt>
<trkpt lat="41.786589" lon="-8.852036"><ele>133.1</ele></trkpt>
<trkpt lat="41.78663" lon="-8.851967"><ele>132.9</ele></trkpt>
<trkpt lat="41.7867" lon="-8.851871"><ele>132.9</ele></trkpt>
<trkpt lat="41.786774" lon="-8.851798"><ele>132.7</ele></trkpt>
<trkpt lat="41.78681" lon="-8.851766"><ele>132.7</ele></trkpt>
<trkpt lat="41.786864" lon="-8.851758"><ele>132.2</ele></trkpt>
<trkpt lat="41.786936" lon="-8.851783"><ele>132.2</ele></trkpt>
<trkpt lat="41.787054" lon="-8.851868"><ele>131.2</ele></trkpt>
<trkpt lat="41.78711" lon="-8.851917"><ele>130.9</ele></trkpt>
<trkpt lat="41.787168" lon="-8.851957"><ele>130.5</ele></trkpt>
<trkpt lat="41.787243" lon="-8.851987"><ele>130.0</ele></trkpt>
<trkpt lat="41.787472" lon="-8.852035"><ele>127.2</ele></trkpt>
<trkpt lat="41.787536" lon="-8.852052"><ele>126.5</ele></trkpt>
<trkpt lat="41.787612" lon="-8.852077"><ele>125.5</ele></trkpt>
<trkpt lat="41.787806" lon="-8.852149"><ele>122.8</ele></trkpt>
<trkpt lat="41.787906" lon="-8.85219"><ele>122.0</ele></trkpt>
<trkpt lat="41.787986" lon="-8.852168"><ele>121.4</ele></trkpt>
<trkpt lat="41.788049" lon="-8.852154"><ele>120.7</ele></trkpt>
<trkpt lat="41.788119" lon="-8.852082"><ele>119.1</ele></trkpt>
<trkpt lat="41.78822" lon="-8.851969"><ele>117.8</ele></trkpt>
<trkpt lat="41.788315" lon="-8.851858"><ele>116.9</ele></trkpt>
<trkpt lat="41.788419" lon="-8.85175"><ele>115.8</ele></trkpt>
<trkpt lat="41.788472" lon="-8.851695"><ele>115.0</ele></trkpt>
<trkpt lat="41.788543" lon="-8.851656"><ele>114.7</ele></trkpt>
<trkpt lat="41.788611" lon="-8.851648"><ele>114.3</ele></trkpt>
<trkpt lat="41.788685" lon="-8.851646"><ele>113.8</ele></trkpt>
<trkpt lat="41.788742" lon="-8.851665"><ele>113.1</ele></trkpt>
<trkpt lat="41.788845" lon="-8.851688"><ele>111.7</ele></trkpt>
<trkpt lat="41.788934" lon="-8.851711"><ele>111.1</ele></trkpt>
<trkpt lat="41.789035" lon="-8.85171"><ele>109.7</ele></trkpt>
<trkpt lat="41.789198" lon="-8.851688"><ele>108.1</ele></trkpt>
<trkpt lat="41.789246" lon="-8.851654"><ele>107.5</ele></trkpt>
<trkpt lat="41.789299" lon="-8.851582"><ele>106.4</ele></trkpt>
<trkpt lat="41.789346" lon="-8.851512"><ele>106.4</ele></trkpt>
<trkpt lat="41.789403" lon="-8.851475"><ele>105.7</ele></trkpt>
<trkpt lat="41.789479" lon="-8.851451"><ele>104.6</ele></trkpt>
<trkpt lat="41.789554" lon="-8.851453"><ele>103.9</ele></trkpt>
<trkpt lat="41.789832" lon="-8.851527"><ele>102.0</ele></trkpt>
<trkpt lat="41.789996" lon="-8.851553"><ele>100.6</ele></trkpt>
<trkpt lat="41.790292" lon="-8.851558"><ele>99.2</ele></trkpt>
<trkpt lat="41.790552" lon="-8.851551"><ele>94.2</ele></trkpt>
<trkpt lat="41.790917" lon="-8.851513"><ele>92.2</ele></trkpt>
<trkpt lat="41.791043" lon="-8.851491"><ele>91.0</ele></trkpt>
<trkpt lat="41.791191" lon="-8.85145"><ele>88.4</ele></trkpt>
<trkpt lat="41.791528" lon="-8.851414"><ele>84.0</ele></trkpt>
<trkpt lat="41.791723" lon="-8.851386"><ele>81.1</ele></trkpt>
<trkpt lat="41.791859" lon="-8.851358"><ele>78.6</ele></trkpt>
<trkpt lat="41.791947" lon="-8.851329"><ele>78.6</ele></trkpt>
<trkpt lat="41.79205" lon="-8.851275"><ele>77.1</ele></trkpt>
<trkpt lat="41.792127" lon="-8.851219"><ele>75.5</ele></trkpt>
<trkpt lat="41.792191" lon="-8.85111"><ele>74.8</ele></trkpt>
<trkpt lat="41.792222" lon="-8.851043"><ele>73.6</ele></trkpt>
<trkpt lat="41.792289" lon="-8.85101"><ele>73.6</ele></trkpt>
<trkpt lat="41.792423" lon="-8.850886"><ele>72.3</ele></trkpt>
<trkpt lat="41.792447" lon="-8.850828"><ele>72.3</ele></trkpt>
<trkpt lat="41.792499" lon="-8.850718"><ele>71.1</ele></trkpt>
<trkpt lat="41.792622" lon="-8.850679"><ele>70.0</ele></trkpt>
<trkpt lat="41.792679" lon="-8.850665"><ele>69.0</ele></trkpt>
<trkpt lat="41.792966" lon="-8.850582"><ele>66.2</ele></trkpt>
<trkpt lat="41.793114" lon="-8.850547"><ele>65.8</ele></trkpt>
<trkpt lat="41.793203" lon="-8.850538"><ele>65.6</ele></trkpt>
<trkpt lat="41.79332" lon="-8.850566"><ele>65.0</ele></trkpt>
<trkpt lat="41.793406" lon="-8.850637"><ele>64.7</ele></trkpt>
<trkpt lat="41.79342" lon="-8.850716"><ele>64.7</ele></trkpt>
<trkpt lat="41.793469" lon="-8.85071"><ele>64.7</ele></trkpt>
<trkpt lat="41.793565" lon="-8.850699"><ele>64.2</ele></trkpt>
<trkpt lat="41.793799" lon="-8.850682"><ele>63.4</ele></trkpt>
<trkpt lat="41.793933" lon="-8.850656"><ele>63.2</ele></trkpt>
<trkpt lat="41.794093" lon="-8.85062"><ele>61.7</ele></trkpt>
<trkpt lat="41.794245" lon="-8.850607"><ele>60.8</ele></trkpt>
<trkpt lat="41.794558" lon="-8.850684"><ele>59.2</ele></trkpt>
<trkpt lat="41.794655" lon="-8.850637"><ele>57.9</ele></trkpt>
<trkpt lat="41.79483" lon="-8.850579"><ele>57.8</ele></trkpt>
<trkpt lat="41.794912" lon="-8.850549"><ele>57.9</ele></trkpt>
<trkpt lat="41.795073" lon="-8.850465"><ele>58.0</ele></trkpt>
<trkpt lat="41.795116" lon="-8.850466"><ele>58.0</ele></trkpt>
<trkpt lat="41.795124" lon="-8.850466"><ele>58.2</ele></trkpt>
<trkpt lat="41.795197" lon="-8.850629"><ele>58.1</ele></trkpt>
<trkpt lat="41.795305" lon="-8.850762"><ele>58.4</ele></trkpt>
<trkpt lat="41.795375" lon="-8.850843"><ele>58.5</ele></trkpt>
<trkpt lat="41.795396" lon="-8.850952"><ele>58.6</ele></trkpt>
<trkpt lat="41.79549" lon="-8.850995"><ele>59.0</ele></trkpt>
<trkpt lat="41.7956" lon="-8.851113"><ele>59.1</ele></trkpt>
<trkpt lat="41.79568" lon="-8.851223"><ele>59.1</ele></trkpt>
<trkpt lat="41.795727" lon="-8.851276"><ele>58.4</ele></trkpt>
<trkpt lat="41.795832" lon="-8.85137"><ele>58.4</ele></trkpt>
<trkpt lat="41.796022" lon="-8.851535"><ele>56.6</ele></trkpt>
<trkpt lat="41.796158" lon="-8.851561"><ele>53.8</ele></trkpt>
<trkpt lat="41.796388" lon="-8.851537"><ele>50.2</ele></trkpt>
<trkpt lat="41.796628" lon="-8.851547"><ele>47.5</ele></trkpt>
<trkpt lat="41.796907" lon="-8.851566"><ele>45.4</ele></trkpt>
<trkpt lat="41.796981" lon="-8.851561"><ele>44.1</ele></trkpt>
<trkpt lat="41.797077" lon="-8.851594"><ele>43.6</ele></trkpt>
<trkpt lat="41.797174" lon="-8.85163"><ele>42.6</ele></trkpt>
<trkpt lat="41.797248" lon="-8.851681"><ele>42.6</ele></trkpt>
<trkpt lat="41.797366" lon="-8.851789"><ele>42.6</ele></trkpt>
<trkpt lat="41.797484" lon="-8.851823"><ele>41.4</ele></trkpt>
<trkpt lat="41.797577" lon="-8.851855"><ele>41.0</ele></trkpt>
<trkpt lat="41.797672" lon="-8.851877"><ele>40.4</ele></trkpt>
<trkpt lat="41.797978" lon="-8.851921"><ele>37.2</ele></trkpt>
<trkpt lat="41.798212" lon="-8.851932"><ele>33.3</ele></trkpt>
<trkpt lat="41.798626" lon="-8.851975"><ele>29.8</ele></trkpt>
<trkpt lat="41.798931" lon="-8.851998"><ele>28.3</ele></trkpt>
<trkpt lat="41.799122" lon="-8.852012"><ele>27.0</ele></trkpt>
<trkpt lat="41.799605" lon="-8.852043"><ele>22.7</ele></trkpt>
<trkpt lat="41.800057" lon="-8.852075"><ele>21.0</ele></trkpt>
<trkpt lat="41.800625" lon="-8.85212"><ele>18.0</ele></trkpt>
<trkpt lat="41.801297" lon="-8.852161"><ele>15.0</ele></trkpt>
<trkpt lat="41.801676" lon="-8.852183"><ele>15.0</ele></trkpt>
<trkpt lat="41.802708" lon="-8.85225"><ele>12.0</ele></trkpt>
<trkpt lat="41.802806" lon="-8.852258"><ele>12.0</ele></trkpt>
<trkpt lat="41.803355" lon="-8.852313"><ele>11.6</ele></trkpt>
<trkpt lat="41.803528" lon="-8.852311"><ele>11.6</ele></trkpt>
<trkpt lat="41.803614" lon="-8.852314"><ele>11.2</ele></trkpt>
<trkpt lat="41.803733" lon="-8.852307"><ele>11.0</ele></trkpt>
<trkpt lat="41.803767" lon="-8.852227"><ele>11.0</ele></trkpt>
<trkpt lat="41.803805" lon="-8.852151"><ele>11.0</ele></trkpt>
<trkpt lat="41.803858" lon="-8.852069"><ele>10.5</ele></trkpt>
<trkpt lat="41.804015" lon="-8.851895"><ele>9.8</ele></trkpt>
<trkpt lat="41.804102" lon="-8.851794"><ele>9.5</ele></trkpt>
<trkpt lat="41.80421" lon="-8.851654"><ele>8.6</ele></trkpt>
<trkpt lat="41.804257" lon="-8.851582"><ele>8.6</ele></trkpt>
<trkpt lat="41.804328" lon="-8.851448"><ele>8.2</ele></trkpt>
<trkpt lat="41.804366" lon="-8.851408"><ele>8.2</ele></trkpt>
<trkpt lat="41.804452" lon="-8.851365"><ele>8.1</ele></trkpt>
<trkpt lat="41.804698" lon="-8.851266"><ele>8.0</ele></trkpt>
<trkpt lat="41.804954" lon="-8.851063"><ele>7.6</ele></trkpt>
<trkpt lat="41.804934" lon="-8.850986"><ele>7.6</ele></trkpt>
<trkpt lat="41.804978" lon="-8.850917"><ele>7.6</ele></trkpt>
<trkpt lat="41.805074" lon="-8.85082"><ele>7.4</ele></trkpt>
<trkpt lat="41.805204" lon="-8.850705"><ele>7.0</ele></trkpt>
<trkpt lat="41.80535" lon="-8.85059"><ele>6.5</ele></trkpt>
<trkpt lat="41.805508" lon="-8.850491"><ele>5.9</ele></trkpt>
<trkpt lat="41.805626" lon="-8.850428"><ele>5.7</ele></trkpt>
<trkpt lat="41.8057" lon="-8.85037"><ele>5.6</ele></trkpt>
<trkpt lat="41.805745" lon="-8.8503"><ele>5.6</ele></trkpt>
<trkpt lat="41.805797" lon="-8.850214"><ele>5.6</ele></trkpt>
<trkpt lat="41.805832" lon="-8.85011"><ele>5.5</ele></trkpt>
<trkpt lat="41.805856" lon="-8.849984"><ele>5.5</ele></trkpt>
<trkpt lat="41.805908" lon="-8.84992"><ele>5.3</ele></trkpt>
<trkpt lat="41.806008" lon="-8.849883"><ele>5.4</ele></trkpt>
<trkpt lat="41.806076" lon="-8.849883"><ele>5.2</ele></trkpt>
<trkpt lat="41.806187" lon="-8.849883"><ele>5.1</ele></trkpt>
<trkpt lat="41.806295" lon="-8.849823"><ele>5.0</ele></trkpt>
<trkpt lat="41.806407" lon="-8.849806"><ele>4.7</ele></trkpt>
<trkpt lat="41.806557" lon="-8.849851"><ele>4.3</ele></trkpt>
<trkpt lat="41.806635" lon="-8.849889"><ele>4.1</ele></trkpt>
<trkpt lat="41.806743" lon="-8.849927"><ele>4.0</ele></trkpt>
<trkpt lat="41.806854" lon="-8.849998"><ele>3.9</ele></trkpt>
<trkpt lat="41.806992" lon="-8.850113"><ele>4.0</ele></trkpt>
<trkpt lat="41.807066" lon="-8.850173"><ele>4.0</ele></trkpt>
<trkpt lat="41.807201" lon="-8.850272"><ele>4.2</ele></trkpt>
<trkpt lat="41.807263" lon="-8.850405"><ele>4.2</ele></trkpt>
<trkpt lat="41.807294" lon="-8.850457"><ele>4.3</ele></trkpt>
<trkpt lat="41.807393" lon="-8.850499"><ele>4.5</ele></trkpt>
<trkpt lat="41.807623" lon="-8.850564"><ele>5.0</ele></trkpt>
<trkpt lat="41.807838" lon="-8.850595"><ele>7.3</ele></trkpt>
<trkpt lat="41.808045" lon="-8.850609"><ele>8.3</ele></trkpt>
<trkpt lat="41.808227" lon="-8.850627"><ele>10.5</ele></trkpt>
<trkpt lat="41.808303" lon="-8.850641"><ele>10.5</ele></trkpt>
<trkpt lat="41.808363" lon="-8.850663"><ele>11.1</ele></trkpt>
<trkpt lat="41.808468" lon="-8.850715"><ele>12.2</ele></trkpt>
<trkpt lat="41.808609" lon="-8.85082"><ele>13.5</ele></trkpt>
<trkpt lat="41.808695" lon="-8.850898"><ele>13.5</ele></trkpt>
<trkpt lat="41.808795" lon="-8.851019"><ele>14.8</ele></trkpt>
<trkpt lat="41.80887" lon="-8.85111"><ele>15.4</ele></trkpt>
<trkpt lat="41.808946" lon="-8.851252"><ele>16.0</ele></trkpt>
<trkpt lat="41.809009" lon="-8.851284"><ele>16.0</ele></trkpt>
<trkpt lat="41.809138" lon="-8.851461"><ele>16.2</ele></trkpt>
<trkpt lat="41.809344" lon="-8.851711"><ele>16.5</ele></trkpt>
<trkpt lat="41.809465" lon="-8.852074"><ele>16.5</ele></trkpt>
<trkpt lat="41.809571" lon="-8.852289"><ele>16.5</ele></trkpt>
<trkpt lat="41.809653" lon="-8.852453"><ele>16.0</ele></trkpt>
<trkpt lat="41.80969" lon="-8.85247"><ele>16.0</ele></trkpt>
<trkpt lat="41.809725" lon="-8.852511"><ele>16.0</ele></trkpt>
<trkpt lat="41.809946" lon="-8.853056"><ele>15.0</ele></trkpt>
<trkpt lat="41.810116" lon="-8.853442"><ele>13.7</ele></trkpt>
<trkpt lat="41.810376" lon="-8.853879"><ele>12.0</ele></trkpt>
<trkpt lat="41.810269" lon="-8.854224"><ele>11.0</ele></trkpt>
<trkpt lat="41.810417" lon="-8.8543"><ele>11.0</ele></trkpt>
<trkpt lat="41.810371" lon="-8.854464"><ele>11.0</ele></trkpt>
<trkpt lat="41.810394" lon="-8.854547"><ele>11.0</ele></trkpt>
<trkpt lat="41.810442" lon="-8.854629"><ele>10.4</ele></trkpt>
<trkpt lat="41.810492" lon="-8.8546"><ele>10.4</ele></trkpt>
<trkpt lat="41.810512" lon="-8.854608"><ele>10.4</ele></trkpt>
<trkpt lat="41.810535" lon="-8.854654"><ele>10.4</ele></trkpt>
<trkpt lat="41.810733" lon="-8.855235"><ele>9.8</ele></trkpt>
<trkpt lat="41.810974" lon="-8.855922"><ele>10.8</ele></trkpt>
<trkpt lat="41.811017" lon="-8.856056"><ele>10.5</ele></trkpt>
<trkpt lat="41.811062" lon="-8.856195"><ele>10.5</ele></trkpt>
<trkpt lat="41.811071" lon="-8.856226"><ele>10.5</ele></trkpt>
<trkpt lat="41.811105" lon="-8.856338"><ele>10.5</ele></trkpt>
<trkpt lat="41.811109" lon="-8.856393"><ele>10.5</ele></trkpt>
<trkpt lat="41.811159" lon="-8.856514"><ele>10.5</ele></trkpt>
<trkpt lat="41.811188" lon="-8.856578"><ele>10.5</ele></trkpt>
<trkpt lat="41.81119" lon="-8.856614"><ele>10.4</ele></trkpt>
<trkpt lat="41.811206" lon="-8.856612"><ele>10.4</ele></trkpt>
<trkpt lat="41.811244" lon="-8.85667"><ele>10.4</ele></trkpt>
<trkpt lat="41.811695" lon="-8.857032"><ele>10.0</ele></trkpt>
<trkpt lat="41.811756" lon="-8.85696"><ele>11.0</ele></trkpt>
<trkpt lat="41.811875" lon="-8.856889"><ele>11.6</ele></trkpt>
<trkpt lat="41.812242" lon="-8.856693"><ele>13.3</ele></trkpt>
<trkpt lat="41.812357" lon="-8.856633"><ele>14.5</ele></trkpt>
<trkpt lat="41.812508" lon="-8.856551"><ele>15.5</ele></trkpt>
<trkpt lat="41.812723" lon="-8.856433"><ele>15.5</ele></trkpt>
<trkpt lat="41.812831" lon="-8.856373"><ele>16.0</ele></trkpt>
<trkpt lat="41.812906" lon="-8.85655"><ele>16.8</ele></trkpt>
<trkpt lat="41.813123" lon="-8.857064"><ele>16.8</ele></trkpt>
<trkpt lat="41.813154" lon="-8.857216"><ele>16.2</ele></trkpt>
<trkpt lat="41.813161" lon="-8.857378"><ele>16.2</ele></trkpt>
<trkpt lat="41.813163" lon="-8.857558"><ele>15.8</ele></trkpt>
<trkpt lat="41.813238" lon="-8.857928"><ele>14.7</ele></trkpt>
<trkpt lat="41.813289" lon="-8.85816"><ele>14.0</ele></trkpt>
<trkpt lat="41.813352" lon="-8.858404"><ele>13.2</ele></trkpt>
<trkpt lat="41.81337" lon="-8.858487"><ele>13.0</ele></trkpt>
<trkpt lat="41.813444" lon="-8.858874"><ele>12.2</ele></trkpt>
<trkpt lat="41.813458" lon="-8.859126"><ele>11.8</ele></trkpt>
<trkpt lat="41.813459" lon="-8.859278"><ele>11.5</ele></trkpt>
<trkpt lat="41.813457" lon="-8.859522"><ele>11.5</ele></trkpt>
<trkpt lat="41.813465" lon="-8.859685"><ele>11.7</ele></trkpt>
<trkpt lat="41.813471" lon="-8.859916"><ele>11.6</ele></trkpt>
<trkpt lat="41.813514" lon="-8.860272"><ele>11.8</ele></trkpt>
<trkpt lat="41.813622" lon="-8.860624"><ele>12.2</ele></trkpt>
<trkpt lat="41.813603" lon="-8.861071"><ele>12.0</ele></trkpt>
<trkpt lat="41.813602" lon="-8.861185"><ele>13.2</ele></trkpt>
<trkpt lat="41.813562" lon="-8.861805"><ele>14.0</ele></trkpt>
<trkpt lat="41.813562" lon="-8.861871"><ele>14.0</ele></trkpt>
<trkpt lat="41.813641" lon="-8.862745"><ele>12.0</ele></trkpt>
<trkpt lat="41.813635" lon="-8.862763"><ele>12.0</ele></trkpt>
<trkpt lat="41.814322" lon="-8.863689"><ele>11.0</ele></trkpt>
<trkpt lat="41.815169" lon="-8.864836"><ele>10.2</ele></trkpt>
<trkpt lat="41.81498" lon="-8.865077"><ele>9.8</ele></trkpt>
<trkpt lat="41.814923" lon="-8.865148"><ele>9.8</ele></trkpt>
<trkpt lat="41.814948" lon="-8.865386"><ele>9.4</ele></trkpt>
<trkpt lat="41.814985" lon="-8.865565"><ele>8.8</ele></trkpt>
<trkpt lat="41.815022" lon="-8.865743"><ele>8.3</ele></trkpt>
<trkpt lat="41.815076" lon="-8.86598"><ele>5.9</ele></trkpt>
<trkpt lat="41.815132" lon="-8.866284"><ele>4.9</ele></trkpt>
<trkpt lat="41.815155" lon="-8.866454"><ele>4.7</ele></trkpt>
<trkpt lat="41.815178" lon="-8.866617"><ele>4.7</ele></trkpt>
<trkpt lat="41.815187" lon="-8.866687"><ele>4.7</ele></trkpt>
<trkpt lat="41.815445" lon="-8.866603"><ele>5.7</ele></trkpt>
<trkpt lat="41.81549" lon="-8.866592"><ele>5.9</ele></trkpt>
<trkpt lat="41.815536" lon="-8.866589"><ele>5.9</ele></trkpt>
<trkpt lat="41.815596" lon="-8.866575"><ele>5.9</ele></trkpt>
<trkpt lat="41.815679" lon="-8.866599"><ele>6.1</ele></trkpt>
<trkpt lat="41.815757" lon="-8.866675"><ele>6.9</ele></trkpt>
<trkpt lat="41.815783" lon="-8.866759"><ele>6.9</ele></trkpt>
<trkpt lat="41.815797" lon="-8.866912"><ele>7.0</ele></trkpt>
<trkpt lat="41.815826" lon="-8.867042"><ele>7.0</ele></trkpt>
<trkpt lat="41.815841" lon="-8.867068"><ele>7.0</ele></trkpt>
<trkpt lat="41.815854" lon="-8.867097"><ele>7.2</ele></trkpt>
<trkpt lat="41.815903" lon="-8.867201"><ele>7.9</ele></trkpt>
<trkpt lat="41.816049" lon="-8.86753"><ele>7.2</ele></trkpt>
<trkpt lat="41.816275" lon="-8.867995"><ele>5.8</ele></trkpt>
<trkpt lat="41.816291" lon="-8.868031"><ele>5.6</ele></trkpt>
<trkpt lat="41.816547" lon="-8.868598"><ele>5.0</ele></trkpt>
<trkpt lat="41.816568" lon="-8.868641"><ele>5.0</ele></trkpt>
<trkpt lat="41.816603" lon="-8.868704"><ele>5.0</ele></trkpt>
<trkpt lat="41.817208" lon="-8.869777"><ele>4.0</ele></trkpt>
<trkpt lat="41.817268" lon="-8.869884"><ele>3.6</ele></trkpt>
<trkpt lat="41.817374" lon="-8.870072"><ele>3.3</ele></trkpt>
<trkpt lat="41.817507" lon="-8.870358"><ele>3.3</ele></trkpt>
<trkpt lat="41.81755" lon="-8.870431"><ele>3.0</ele></trkpt>
<trkpt lat="41.817579" lon="-8.870442"><ele>3.0</ele></trkpt>
<trkpt lat="41.817664" lon="-8.870366"><ele>3.0</ele></trkpt>
<trkpt lat="41.817708" lon="-8.870325"><ele>2.9</ele></trkpt>
<trkpt lat="41.81773" lon="-8.870315"><ele>2.9</ele></trkpt>
<trkpt lat="41.817827" lon="-8.870443"><ele>2.8</ele></trkpt>
<trkpt lat="41.818018" lon="-8.870684"><ele>2.6</ele></trkpt>
<trkpt lat="41.818192" lon="-8.870883"><ele>2.0</ele></trkpt>
<trkpt lat="41.818288" lon="-8.870971"><ele>2.0</ele></trkpt>
<trkpt lat="41.819057" lon="-8.871685"><ele>3.0</ele></trkpt>
<trkpt lat="41.819519" lon="-8.872124"><ele>4.5</ele></trkpt>
<trkpt lat="41.819784" lon="-8.872376"><ele>4.8</ele></trkpt>
<trkpt lat="41.819989" lon="-8.872561"><ele>5.0</ele></trkpt>
<trkpt lat="41.820141" lon="-8.872656"><ele>5.0</ele></trkpt>
<trkpt lat="41.820251" lon="-8.872705"><ele>5.0</ele></trkpt>
<trkpt lat="41.820494" lon="-8.872764"><ele>5.2</ele></trkpt>
<trkpt lat="41.821164" lon="-8.872888"><ele>5.0</ele></trkpt>
<trkpt lat="41.821475" lon="-8.872943"><ele>4.2</ele></trkpt>
<trkpt lat="41.82174" lon="-8.873025"><ele>4.0</ele></trkpt>
<trkpt lat="41.821972" lon="-8.873123"><ele>4.0</ele></trkpt>
<trkpt lat="41.822504" lon="-8.873367"><ele>4.0</ele></trkpt>
<trkpt lat="41.822909" lon="-8.873551"><ele>2.8</ele></trkpt>
<trkpt lat="41.823044" lon="-8.873616"><ele>2.4</ele></trkpt>
<trkpt lat="41.823109" lon="-8.873641"><ele>2.7</ele></trkpt>
<trkpt lat="41.823282" lon="-8.873672"><ele>2.9</ele></trkpt>
<trkpt lat="41.823526" lon="-8.873656"><ele>3.4</ele></trkpt>
<trkpt lat="41.823615" lon="-8.873638"><ele>4.1</ele></trkpt>
<trkpt lat="41.823745" lon="-8.873575"><ele>4.4</ele></trkpt>
<trkpt lat="41.823845" lon="-8.873505"><ele>4.7</ele></trkpt>
<trkpt lat="41.823931" lon="-8.87348"><ele>4.8</ele></trkpt>
<trkpt lat="41.824084" lon="-8.87349"><ele>5.0</ele></trkpt>
<trkpt lat="41.824085" lon="-8.873452"><ele>4.9</ele></trkpt>
<trkpt lat="41.824449" lon="-8.873459"><ele>5.0</ele></trkpt>
<trkpt lat="41.824623" lon="-8.873437"><ele>4.6</ele></trkpt>
<trkpt lat="41.82483" lon="-8.873372"><ele>4.2</ele></trkpt>
<trkpt lat="41.825118" lon="-8.873222"><ele>4.2</ele></trkpt>
<trkpt lat="41.825555" lon="-8.872952"><ele>4.8</ele></trkpt>
<trkpt lat="41.825727" lon="-8.872846"><ele>5.0</ele></trkpt>
<trkpt lat="41.825848" lon="-8.872796"><ele>5.0</ele></trkpt>
<trkpt lat="41.825916" lon="-8.872777"><ele>5.2</ele></trkpt>
<trkpt lat="41.826098" lon="-8.872782"><ele>5.2</ele></trkpt>
<trkpt lat="41.826429" lon="-8.872801"><ele>5.3</ele></trkpt>
<trkpt lat="41.827204" lon="-8.87286"><ele>4.0</ele></trkpt>
<trkpt lat="41.827565" lon="-8.872884"><ele>5.3</ele></trkpt>
<trkpt lat="41.827982" lon="-8.872908"><ele>7.0</ele></trkpt>
<trkpt lat="41.828288" lon="-8.872927"><ele>7.7</ele></trkpt>
<trkpt lat="41.828623" lon="-8.873417"><ele>7.5</ele></trkpt>
<trkpt lat="41.828736" lon="-8.873529"><ele>7.3</ele></trkpt>
<trkpt lat="41.828971" lon="-8.873698"><ele>7.0</ele></trkpt>
<trkpt lat="41.829228" lon="-8.873893"><ele>7.3</ele></trkpt>
<trkpt lat="41.829661" lon="-8.874073"><ele>7.0</ele></trkpt>
<trkpt lat="41.829857" lon="-8.874135"><ele>7.0</ele></trkpt>
<trkpt lat="41.829796" lon="-8.874487"><ele>6.8</ele></trkpt>
<trkpt lat="41.82976" lon="-8.874706"><ele>6.8</ele></trkpt>
<trkpt lat="41.829767" lon="-8.874758"><ele>6.8</ele></trkpt>
<trkpt lat="41.829786" lon="-8.87479"><ele>6.6</ele></trkpt>
<trkpt lat="41.830045" lon="-8.874836"><ele>6.1</ele></trkpt>
<trkpt lat="41.83018" lon="-8.874858"><ele>6.1</ele></trkpt>
<trkpt lat="41.830444" lon="-8.874962"><ele>6.0</ele></trkpt>
<trkpt lat="41.831017" lon="-8.875071"><ele>5.0</ele></trkpt>
<trkpt lat="41.831163" lon="-8.875101"><ele>5.0</ele></trkpt>
<trkpt lat="41.831395" lon="-8.875119"><ele>5.0</ele></trkpt>
<trkpt lat="41.831527" lon="-8.87512"><ele>5.0</ele></trkpt>
<trkpt lat="41.831638" lon="-8.875116"><ele>5.0</ele></trkpt>
<trkpt lat="41.831691" lon="-8.875108"><ele>5.0</ele></trkpt>
<trkpt lat="41.831852" lon="-8.87506"><ele>5.0</ele></trkpt>
<trkpt lat="41.832038" lon="-8.874986"><ele>5.0</ele></trkpt>
<trkpt lat="41.832082" lon="-8.874976"><ele>5.0</ele></trkpt>
<trkpt lat="41.832152" lon="-8.874976"><ele>4.9</ele></trkpt>
<trkpt lat="41.832378" lon="-8.87496"><ele>4.7</ele></trkpt>
<trkpt lat="41.832629" lon="-8.874952"><ele>4.6</ele></trkpt>
<trkpt lat="41.832707" lon="-8.87496"><ele>4.5</ele></trkpt>
<trkpt lat="41.833081" lon="-8.875029"><ele>4.7</ele></trkpt>
<trkpt lat="41.833291" lon="-8.875049"><ele>5.0</ele></trkpt>
<trkpt lat="41.833362" lon="-8.875047"><ele>5.2</ele></trkpt>
<trkpt lat="41.833452" lon="-8.875026"><ele>5.4</ele></trkpt>
<trkpt lat="41.833672" lon="-8.874983"><ele>5.3</ele></trkpt>
<trkpt lat="41.833882" lon="-8.87493"><ele>5.3</ele></trkpt>
<trkpt lat="41.833941" lon="-8.874916"><ele>5.4</ele></trkpt>
<trkpt lat="41.833971" lon="-8.874922"><ele>5.4</ele></trkpt>
<trkpt lat="41.834088" lon="-8.874958"><ele>5.5</ele></trkpt>
<trkpt lat="41.83414" lon="-8.874971"><ele>5.5</ele></trkpt>
<trkpt lat="41.834183" lon="-8.874967"><ele>5.5</ele></trkpt>
<trkpt lat="41.834491" lon="-8.874849"><ele>5.4</ele></trkpt>
<trkpt lat="41.834716" lon="-8.874794"><ele>5.4</ele></trkpt>
<trkpt lat="41.834878" lon="-8.874758"><ele>5.4</ele></trkpt>
<trkpt lat="41.835073" lon="-8.874674"><ele>5.4</ele></trkpt>
<trkpt lat="41.835122" lon="-8.874673"><ele>5.4</ele></trkpt>
<trkpt lat="41.835488" lon="-8.874708"><ele>5.3</ele></trkpt>
<trkpt lat="41.836016" lon="-8.874527"><ele>6.0</ele></trkpt>
<trkpt lat="41.836446" lon="-8.874481"><ele>6.2</ele></trkpt>
<trkpt lat="41.836764" lon="-8.874347"><ele>6.2</ele></trkpt>
<trkpt lat="41.836883" lon="-8.874235"><ele>6.0</ele></trkpt>
<trkpt lat="41.837129" lon="-8.87419"><ele>5.8</ele></trkpt>
<trkpt lat="41.837368" lon="-8.874241"><ele>5.2</ele></trkpt>
<trkpt lat="41.837654" lon="-8.874142"><ele>4.6</ele></trkpt>
<trkpt lat="41.837759" lon="-8.874109"><ele>4.4</ele></trkpt>
<trkpt lat="41.837844" lon="-8.874095"><ele>4.5</ele></trkpt>
<trkpt lat="41.83794" lon="-8.87408"><ele>4.4</ele></trkpt>
<trkpt lat="41.838063" lon="-8.874042"><ele>4.5</ele></trkpt>
<trkpt lat="41.838163" lon="-8.874016"><ele>4.5</ele></trkpt>
<trkpt lat="41.838303" lon="-8.874008"><ele>4.5</ele></trkpt>
<trkpt lat="41.838489" lon="-8.874"><ele>4.8</ele></trkpt>
<trkpt lat="41.838863" lon="-8.873914"><ele>4.7</ele></trkpt>
<trkpt lat="41.839076" lon="-8.873874"><ele>4.5</ele></trkpt>
<trkpt lat="41.839423" lon="-8.873751"><ele>4.8</ele></trkpt>
<trkpt lat="41.83958" lon="-8.873686"><ele>4.8</ele></trkpt>
<trkpt lat="41.839811" lon="-8.873643"><ele>4.7</ele></trkpt>
<trkpt lat="41.839931" lon="-8.873609"><ele>4.7</ele></trkpt>
<trkpt lat="41.840138" lon="-8.873537"><ele>5.2</ele></trkpt>
<trkpt lat="41.840219" lon="-8.873495"><ele>5.2</ele></trkpt>
<trkpt lat="41.840305" lon="-8.87345"><ele>5.2</ele></trkpt>
<trkpt lat="41.840545" lon="-8.873244"><ele>5.0</ele></trkpt>
<trkpt lat="41.841092" lon="-8.872885"><ele>5.7</ele></trkpt>
<trkpt lat="41.841246" lon="-8.872761"><ele>5.8</ele></trkpt>
<trkpt lat="41.841543" lon="-8.872526"><ele>5.6</ele></trkpt>
<trkpt lat="41.841672" lon="-8.872423"><ele>6.0</ele></trkpt>
<trkpt lat="41.841961" lon="-8.872208"><ele>4.8</ele></trkpt>
<trkpt lat="41.84241" lon="-8.871912"><ele>2.3</ele></trkpt>
<trkpt lat="41.842482" lon="-8.87187"><ele>2.3</ele></trkpt>
<trkpt lat="41.842581" lon="-8.871771"><ele>2.3</ele></trkpt>
<trkpt lat="41.842613" lon="-8.871687"><ele>3.0</ele></trkpt>
<trkpt lat="41.842669" lon="-8.871452"><ele>3.0</ele></trkpt>
<trkpt lat="41.842722" lon="-8.871231"><ele>3.1</ele></trkpt>
<trkpt lat="41.842795" lon="-8.871076"><ele>3.7</ele></trkpt>
<trkpt lat="41.843041" lon="-8.870722"><ele>3.3</ele></trkpt>
<trkpt lat="41.843098" lon="-8.870663"><ele>3.0</ele></trkpt>
<trkpt lat="41.843228" lon="-8.870531"><ele>1.6</ele></trkpt>
<trkpt lat="41.843419" lon="-8.870352"><ele>1.3</ele></trkpt>
<trkpt lat="41.84355" lon="-8.870173"><ele>0.4</ele></trkpt>
<trkpt lat="41.843678" lon="-8.869934"><ele>0.0</ele></trkpt>
<trkpt lat="41.843826" lon="-8.869652"><ele>0.3</ele></trkpt>
<trkpt lat="41.843888" lon="-8.869494"><ele>0.4</ele></trkpt>
<trkpt lat="41.843984" lon="-8.869223"><ele>0.5</ele></trkpt>
<trkpt lat="41.844021" lon="-8.868986"><ele>0.5</ele></trkpt>
<trkpt lat="41.844293" lon="-8.868222"><ele>5.0</ele></trkpt>
<trkpt lat="41.844357" lon="-8.868072"><ele>5.2</ele></trkpt>
<trkpt lat="41.844433" lon="-8.867962"><ele>5.2</ele></trkpt>
<trkpt lat="41.844683" lon="-8.867697"><ele>6.4</ele></trkpt>
<trkpt lat="41.844946" lon="-8.867441"><ele>6.9</ele></trkpt>
<trkpt lat="41.84491" lon="-8.867351"><ele>6.9</ele></trkpt>
<trkpt lat="41.844834" lon="-8.867206"><ele>6.9</ele></trkpt>
<trkpt lat="41.844788" lon="-8.867136"><ele>6.9</ele></trkpt>
<trkpt lat="41.844648" lon="-8.867262"><ele>6.9</ele></trkpt>
<trkpt lat="41.844566" lon="-8.867113"><ele>6.9</ele></trkpt>
<trkpt lat="41.845894" lon="-8.865811"><ele>8.0</ele></trkpt>
<trkpt lat="41.8474" lon="-8.86437"><ele>14.0</ele></trkpt>
<trkpt lat="41.847471" lon="-8.864302"><ele>14.0</ele></trkpt>
<trkpt lat="41.847861" lon="-8.863932"><ele>14.0</ele></trkpt>
<trkpt lat="41.848746" lon="-8.863084"><ele>18.0</ele></trkpt>
<trkpt lat="41.848866" lon="-8.862959"><ele>18.0</ele></trkpt>
<trkpt lat="41.849558" lon="-8.862327"><ele>19.0</ele></trkpt>
<trkpt lat="41.850116" lon="-8.861783"><ele>16.7</ele></trkpt>
<trkpt lat="41.850387" lon="-8.861461"><ele>16.4</ele></trkpt>
<trkpt lat="41.85052" lon="-8.861324"><ele>16.5</ele></trkpt>
<trkpt lat="41.850595" lon="-8.861204"><ele>16.7</ele></trkpt>
<trkpt lat="41.850643" lon="-8.861099"><ele>16.8</ele></trkpt>
<trkpt lat="41.850669" lon="-8.86101"><ele>16.9</ele></trkpt>
<trkpt lat="41.850682" lon="-8.860939"><ele>17.1</ele></trkpt>
<trkpt lat="41.850683" lon="-8.860884"><ele>17.2</ele></trkpt>
<trkpt lat="41.850683" lon="-8.860829"><ele>17.2</ele></trkpt>
<trkpt lat="41.850673" lon="-8.860759"><ele>17.2</ele></trkpt>
<trkpt lat="41.850673" lon="-8.860603"><ele>17.4</ele></trkpt>
<trkpt lat="41.850674" lon="-8.860528"><ele>17.4</ele></trkpt>
<trkpt lat="41.850745" lon="-8.8605"><ele>17.5</ele></trkpt>
<trkpt lat="41.85079" lon="-8.860483"><ele>17.5</ele></trkpt>
<trkpt lat="41.850806" lon="-8.860452"><ele>17.5</ele></trkpt>
<trkpt lat="41.850804" lon="-8.860387"><ele>17.6</ele></trkpt>
<trkpt lat="41.850806" lon="-8.860343"><ele>17.6</ele></trkpt>
<trkpt lat="41.850851" lon="-8.860265"><ele>17.7</ele></trkpt>
<trkpt lat="41.85089" lon="-8.860228"><ele>17.8</ele></trkpt>
<trkpt lat="41.851031" lon="-8.860215"><ele>18.0</ele></trkpt>
<trkpt lat="41.851305" lon="-8.860193"><ele>18.3</ele></trkpt>
<trkpt lat="41.8516" lon="-8.860169"><ele>18.8</ele></trkpt>
<trkpt lat="41.851728" lon="-8.860146"><ele>18.8</ele></trkpt>
<trkpt lat="41.85189" lon="-8.860081"><ele>19.0</ele></trkpt>
<trkpt lat="41.853963" lon="-8.858138"><ele>18.0</ele></trkpt>
<trkpt lat="41.856221" lon="-8.856032"><ele>19.7</ele></trkpt>
<trkpt lat="41.856448" lon="-8.855824"><ele>19.7</ele></trkpt>
<trkpt lat="41.856469" lon="-8.855804"><ele>19.7</ele></trkpt>
<trkpt lat="41.858149" lon="-8.854241"><ele>17.0</ele></trkpt>
<trkpt lat="41.8583" lon="-8.854101"><ele>17.0</ele></trkpt>
<trkpt lat="41.86169" lon="-8.85096"><ele>4.0</ele></trkpt>
<trkpt lat="41.86179" lon="-8.850854"><ele>4.0</ele></trkpt>
<trkpt lat="41.86228" lon="-8.850389"><ele>3.0</ele></trkpt>
<trkpt lat="41.862574" lon="-8.850122"><ele>3.0</ele></trkpt>
<trkpt lat="41.862911" lon="-8.849739"><ele>2.6</ele></trkpt>
<trkpt lat="41.862934" lon="-8.849711"><ele>2.5</ele></trkpt>
<trkpt lat="41.863026" lon="-8.849588"><ele>2.4</ele></trkpt>
<trkpt lat="41.863161" lon="-8.849471"><ele>2.2</ele></trkpt>
<trkpt lat="41.863283" lon="-8.849418"><ele>2.2</ele></trkpt>
<trkpt lat="41.863336" lon="-8.849413"><ele>2.2</ele></trkpt>
<trkpt lat="41.863421" lon="-8.849414"><ele>2.1</ele></trkpt>
<trkpt lat="41.863486" lon="-8.849396"><ele>2.0</ele></trkpt>
<trkpt lat="41.863583" lon="-8.849332"><ele>1.9</ele></trkpt>
<trkpt lat="41.863766" lon="-8.849107"><ele>2.0</ele></trkpt>
<trkpt lat="41.864004" lon="-8.848823"><ele>2.5</ele></trkpt>
<trkpt lat="41.864432" lon="-8.848355"><ele>5.5</ele></trkpt>
<trkpt lat="41.864681" lon="-8.848093"><ele>5.2</ele></trkpt>
<trkpt lat="41.864885" lon="-8.847913"><ele>5.0</ele></trkpt>
<trkpt lat="41.865059" lon="-8.84779"><ele>5.0</ele></trkpt>
<trkpt lat="41.865182" lon="-8.847685"><ele>5.0</ele></trkpt>
<trkpt lat="41.865754" lon="-8.847172"><ele>7.0</ele></trkpt>
<trkpt lat="41.867615" lon="-8.845415"><ele>5.0</ele></trkpt>
<trkpt lat="41.868258" lon="-8.844848"><ele>7.0</ele></trkpt>
<trkpt lat="41.868889" lon="-8.844251"><ele>7.0</ele></trkpt>
<trkpt lat="41.869949" lon="-8.843289"><ele>7.5</ele></trkpt>
<trkpt lat="41.870332" lon="-8.842922"><ele>8.0</ele></trkpt>
<trkpt lat="41.87062" lon="-8.84266"><ele>9.0</ele></trkpt>
<trkpt lat="41.870804" lon="-8.842492"><ele>9.3</ele></trkpt>
<trkpt lat="41.870942" lon="-8.84237"><ele>9.3</ele></trkpt>
<trkpt lat="41.871467" lon="-8.841906"><ele>14.0</ele></trkpt>
<trkpt lat="41.871883" lon="-8.841634"><ele>14.3</ele></trkpt>
<trkpt lat="41.872198" lon="-8.841376"><ele>14.3</ele></trkpt>
<trkpt lat="41.872662" lon="-8.841092"><ele>12.8</ele></trkpt>
<trkpt lat="41.872865" lon="-8.841017"><ele>11.8</ele></trkpt>
<trkpt lat="41.873005" lon="-8.840968"><ele>11.8</ele></trkpt>
<trkpt lat="41.873181" lon="-8.840947"><ele>11.3</ele></trkpt>
<trkpt lat="41.873355" lon="-8.840913"><ele>11.0</ele></trkpt>
<trkpt lat="41.873558" lon="-8.840819"><ele>9.4</ele></trkpt>
<trkpt lat="41.873893" lon="-8.840604"><ele>8.2</ele></trkpt>
<trkpt lat="41.873966" lon="-8.840559"><ele>8.2</ele></trkpt>
<trkpt lat="41.874113" lon="-8.84047"><ele>7.6</ele></trkpt>
<trkpt lat="41.874354" lon="-8.840305"><ele>7.6</ele></trkpt>
<trkpt lat="41.874566" lon="-8.840152"><ele>6.8</ele></trkpt>
<trkpt lat="41.874819" lon="-8.839917"><ele>6.0</ele></trkpt>
<trkpt lat="41.875297" lon="-8.839475"><ele>5.0</ele></trkpt>
<trkpt lat="41.875319" lon="-8.839448"><ele>5.2</ele></trkpt>
<trkpt lat="41.875453" lon="-8.839319"><ele>5.6</ele></trkpt>
<trkpt lat="41.875766" lon="-8.839101"><ele>5.7</ele></trkpt>
<trkpt lat="41.875845" lon="-8.838995"><ele>5.8</ele></trkpt>
<trkpt lat="41.875889" lon="-8.839027"><ele>5.8</ele></trkpt>
<trkpt lat="41.875934" lon="-8.839061"><ele>5.8</ele></trkpt>
<trkpt lat="41.875995" lon="-8.838905"><ele>6.0</ele></trkpt>
</trkseg></trk></gpx>